business_name,email,phone,website,city,state
Ez Equipment Rental,info@ezequipmentrental.com,+19722036821,http://ezequipmentrental.com/,Irving,TX
A-1 Rentals,A1rentalsmatt@gmail.com,+14098336464,https://a1rentalsbmt.com/,Beaumont,TX
General Rental Center,info@generalrentalmonticello.com,+17632952300,https://generalrentalmonticello.com/,Monticello,MN
Trowel Trades Inc,sales@troweltrades.net,+17702718825,https://troweltrades.net/,Suwanee,GA
"Power Rents (Salem, OR)",CustomerSolutions@hercrentals.com,+18558312951,http://powerrents.com/,Salem,OR
NW EQUIPMENT RENTAL LLC,daniel.diaz@nwequipmentrental.com,+19712456147,https://nwequipmentrental.com/,Hillsboro,OR
AARO Rental Center,aarorentalcenter@gmail.com,+18032568220,https://www.aarorentalcenter.com/,Columbia,SC
Aaro Rental Center Inc,aarorentalcenter@gmail.com,+18032568220,https://www.aarorentalcenter.com/,Cayce,SC
House of Rental,info@houseofrental.com,+18476772010,https://houseofrental.com/,Skokie,IL
Rental Works,info@rentalworksgreensboro.com,+13362759788,https://rentalworksgreensboro.com/,Greensboro,NC
"Four Star Rental, LLC",contactus@fourstarrental.com,+15745330445,http://fourstarrental.com/,Goshen,IN
Grand Rental Station,pelhamgrs@comcast.net,+16036351523,https://www.grandrentalnh.com/,Pelham,NH
Grand Rental Station,hudsongrs@comcast.net,+16036351523,https://www.grandrentalnh.com/,Pelham,NH
Columbus Equipment Rental,columbusrentals18@gmail.com,+14063211300,https://columbusmtrentals.com/,Columbus,MT
Red Hat Rentals,redhat75840@yahoo.com,+19036773850,http://redhatrentals.com/,Athens,TX
Rent-E-Quip,info@rentequip.com,+18045207100,https://rentequip.org/,Colonial Heights,VA
Southeast Valley Rentals,info@southeastvalleyrental.com,+14809996059,https://southeastvalleyrental.com/,Queen Creek,AZ
Willmar Rental Center,info@willmarrental.com,+13202357368,https://willmarrental.com/,Willmar,MN
K & H Equipment Sales Rental Service,parts@khconstructionllc.com,+18605641400,http://khconstructionllc.com/,Plainfield,CT
K & H Equipment Sales Rental Service,dumpsters@khconstructionllc.com,+18605641400,http://khconstructionllc.com/,Plainfield,CT
K & H Equipment Sales Rental Service,jenn@khconstructionllc.com,+18605641400,http://khconstructionllc.com/,Plainfield,CT
K & H Equipment Sales Rental Service,joe@khconstructionllc.com,+18605641400,http://khconstructionllc.com/,Plainfield,CT
K & H Equipment Sales Rental Service,office@khconstructionllc.com,+18605641400,http://khconstructionllc.com/,Plainfield,CT
K & H Equipment Sales Rental Service,service@khconstructionllc.com,+18605641400,http://khconstructionllc.com/,Plainfield,CT
K & H Equipment Sales Rental Service,rental@khconstructionllc.com,+18605641400,http://khconstructionllc.com/,Plainfield,CT
K & H Equipment Sales Rental Service,sales@khconstructionllc.com,+18605641400,http://khconstructionllc.com/,Plainfield,CT
"Hejny Rentals, Inc.",feedback@hejnyrental.com,+16517703841,http://hejnyrental.com/,Maplewood,MN
CCE Rental,cwyatt@cceequipment.com,+17042436232,http://cceequipment.com/,Waxhaw,NC
Rental Guys,office@rentalguys.com,+15303430219,https://rentalguys.com/,Chico,CA
Rent Equip - South Austin,info@getrentequip.com,+15122885308,https://www.getrentequip.com/,Dripping Springs,TX
Rental Guys,office@rentalguys.com,+15303430219,https://rentalguys.com/,Grass Valley,CA
Rental Guys,office@rentalguys.com,+15303430219,https://rentalguys.com/,Paradise,CA
Rental Guys,office@rentalguys.com,+15303430219,https://rentalguys.com/,Redding,CA
Rent Equip - Marble Falls,info@getrentequip.com,+15122885308,https://www.getrentequip.com/,Marble Falls,TX
Rental Guys,office@rentalguys.com,+15303430219,https://rentalguys.com/,Orangevale,CA
Rent Equip - Bee Cave,info@getrentequip.com,+15122885308,https://www.getrentequip.com/,Bee Cave,TX
Rent Equip - Austin,info@getrentequip.com,+15122885308,https://www.getrentequip.com/,Austin,TX
Wholesale Trailer Sales and Rental,sales@wholesaletrailerllc.com,+19314336930,https://wholesaletrailerllc.com/,Fayetteville,TN
Rental Guys,office@rentalguys.com,+15303430219,https://rentalguys.com/,Yreka,CA
Rental Guys,office@rentalguys.com,+15303430219,https://rentalguys.com/,Reno,NV
Rental Guys,office@rentalguys.com,+15303430219,https://rentalguys.com/,Susanville,CA
Rental Guys,office@rentalguys.com,+15303430219,https://rentalguys.com/,Red Bluff,CA
Rental Guys,office@rentalguys.com,+15303430219,https://rentalguys.com/,Eureka,CA
Rent One Equipment Rentals,rent1equipment@aol.com,+19495747100,https://www.rentoneequipmentrentalsoc.com/,Costa Mesa,CA
Rent For Less,rentforlessmt@gmail.com,+14064516981,https://www.rentforlessmt.com/en,Bozeman,MT
Performance Rental,store@bandjrental.com,+18777388368,http://performance-rental.com/,Columbia City,IN
Steph Rents LLC,stephrentsllc@gmail.com,+15412166484,https://www.stephrents.com/,Ontario,OR
Jefferson Rentals,info@jefferson-rentals.com,+13047286657,http://jefferson-rentals.com/,Kearneysville,WV
The Equipment Connection,info@theequipmentconnection.com,+16614293777,http://theequipmentconnections.com/,Lancaster,CA
Sunflower Rents Inc,Topeka@sunflowerrental.com,+17852339487,https://sunflowerrental.com/,Topeka,KS
Sunflower Rents Inc,Lawrence@sunflowerrental.com,+17852339487,https://sunflowerrental.com/,Topeka,KS
Sunflower Rents Inc,CustomerService@sunflowerrental.com,+17852339487,https://sunflowerrental.com/,Topeka,KS
Sunflower Rents Inc,CustomerService@bluespringsrental.com,+17852339487,https://sunflowerrental.com/,Topeka,KS
Sunflower Rents Inc,Party@sunflowerrental.com,+17852339487,https://sunflowerrental.com/,Topeka,KS
AAA Rentals,aaarentalsredwoodcity@gmail.com,+16503656743,http://aaarentals.com/,Redwood City,CA
Arrow Rentals,Motaenterprises@aol.com,+19164523501,http://arrowrentals.net/,Roseville,CA
Rental Time,rentaltimegrc@gmail.com,+17244447200,https://www.rentaltimeonline.com/,Gibsonia,PA
Chief Rental,party@chiefrental.com,+16157547368,https://www.chiefrental.com/,Hermitage,TN
Canon Rental,inquiry@canonrentalcenter.com,+17192750615,https://www.canonrental.net/,Cañon City,CO
"Grand True Value Rental in Yorkville, IL",info@grandrentalyorkville.com,+16305533111,https://grandrentalyorkville.com/,Yorkville,IL
Taylor Rental Berea,info@taylorrentalberea.com,+14402347200,https://taylorrentalberea.com/,Berea,OH
Express Rental,info@express-rental.com,+19893668714,https://express-rental.com/,Prudenville,MI
Platte Rental & Supply,feedback@platterentalandsupply.com,+18167414900,http://platterental.net/,Kansas City,MO
Production Tool Rental Inc,info@1rentme.com,+15138743848,https://www.1rentme.com/,Fairfield,OH
1st Choice Rental,info@1rentme.com,+15138743848,https://www.1rentme.com/,Fairfield,OH
Jonesboro Rental Center,JonesboroRental@gmail.com,+17704717368,http://jonesbororentalcenter.com/,Jonesboro,GA
All Seasons Rent-All,asra2157@aol.com,+13037553566,http://allseasonsrentall.com/,Aurora,CO
Bledsoe Rentals,notification@bledsoerentals.com,+18165244222,https://bledsoerentals.com/,Lee's Summit,MO
Michiana Rental,info@mtrental.com,+15749364433,http://mtrental.com/,Niles,MI
Michiana Rental,info@mtrental.com,+15749364433,http://mtrental.com/,Plymouth,IN
Hudson Grand Rental Station,pelhamgrs@comcast.net,+16036351523,https://www.grandrentalnh.com/,Hudson,NH
Hudson Grand Rental Station,hudsongrs@comcast.net,+16036351523,https://www.grandrentalnh.com/,Hudson,NH
Michiana Rental,info@mtrental.com,+15749364433,http://mtrental.com/,Elkhart,IN
Michiana Rental,info@mtrental.com,+15749364433,http://mtrental.com/,Benton Harbor,MI
Grand True Value Rental / Grand Rental Station,bird@ruraltel.net,+17856257391,https://grandrentalhays.com/,Hays,KS
Craig's (Sales - Service - Rental),stihl14exmark@nemont.net,+17015770798,https://craigs-nd.com/,Williston,ND
"Rental Works of Arlington, VA",rentalworks@msn.com,+17035322050,https://rentalworksarlington.com/,Arlington,VA
Redline Rentals,info@irentred.com,+13187183018,https://irentred.com/,Many,LA
Rockin' L Rentals,info@rockinlrentals.com,+18657179912,http://rockinlrentals.com/,Harriman,TN
Rental Warehouse Inc,Rentalwarehouse@hotmail.com,+13153437368,https://rentalwarehouseoswego.com/,Oswego,NY
Redline Rentals,info@irentred.com,+13187183018,https://irentred.com/,Shreveport,LA
Redline Rentals,info@irentred.com,+13187183018,https://irentred.com/,Natchitoches,LA
"Street Smart Rental: Safer, Smarter, Work Zones",sales@streetsmartrental.com,+18886536800,https://www.streetsmartrental.com/,Taylors,SC
K5 Rental LLC,info@k5rental.com,+16233237368,http://k5rental.com/,Peoria,AZ
"Street Smart Rental: Safer, Smarter, Work Zones",sales@streetsmartrental.com,+18886536800,https://www.streetsmartrental.com/,Columbus,MN
Gary Carlson Equipment,info@garycarlsonequip.com,+17637929123,https://garycarlsonequip.com/,Blaine,MN
Street Smart Rental,sales@streetsmartrental.com,+18886536800,https://www.streetsmartrental.com/,Commerce City,CO
Street Smart Rental,sales@streetsmartrental.com,+18886536800,https://www.streetsmartrental.com/,Gilbert,AZ
"Street Smart Rental: Safer, Smarter, Work Zones",sales@streetsmartrental.com,+18886536800,https://www.streetsmartrental.com/,Leander,TX
K5 Rental LLC,info@k5rental.com,+16233237368,http://k5rental.com/,Wickenburg,AZ
Gary Carlson Equipment,info@garycarlsonequip.com,+17637929123,https://garycarlsonequip.com/,Roseville,MN
"Isanti Rental, Inc.",info@isantirental.com,+17634447368,http://isantirental.com/,Isanti,MN
Kellys Taylor Rental,ktr1998@hotmail.com,+19784656650,https://kellystaylorrental.com/,Newburyport,MA
Partner Rentals - New Windsor NY,info@partnerrentals.com,+18777407368,http://partnerrentals.com/,New Windsor,NY
Partner Rentals - Hazleton PA,info@partnerrentals.com,+18777407368,http://partnerrentals.com/,Hazleton,PA
Roaring Fork Rentals,roaringforkrentals@yahoo.com,+19709452626,https://roaringforkrentals.com/,Glenwood Springs,CO
Partner Rentals - Kingston NY,info@partnerrentals.com,+18777407368,http://partnerrentals.com/,Kingston,NY
Taylor Rental Center,dave@trbinghamton.com,+16077731462,http://taylorrentalofbing.com/,Binghamton,NY
Taylor Rental Center,emily@trbinghamton.com,+16077731462,http://taylorrentalofbing.com/,Binghamton,NY
Holland Rent-All,hollandrentall@gmail.com,+19198514378,https://www.hollandrentall.com/,Raleigh,NC
TLC Rentals,tlcristrental1965@gmail.com,+12085364642,https://www.tlcrental.co/,Wendell,ID
True Value Rental,tvrental.il@gmail.com,+16184666931,https://stpetershardware.com/?oo-step=true&wait-before-scraping=1000&save-html=false&save-markdown=true,Edwardsville,IL
True Value Rental,stpeterental@truevalue.net,+16184666931,https://stpetershardware.com/?oo-step=true&wait-before-scraping=1000&save-html=false&save-markdown=true,Edwardsville,IL
Westville Grand Rental Station,wgrandrental@westvillerentals.com,+16033827806,https://westvillerentals.com/,Plaistow,NH
All Purpose Rentals,AllPurposeRentals@gmail.com,+16123669437,https://all-purpose-rentals.com/,Becker,MN
Rent All Inc,info.rentallasheville@gmail.com,+18282742332,https://rentallasheville.com/,Asheville,NC
"Rent Equip & Party Central of Ocean View, DE",RentEquipDE@gmail.com,+13025379797,https://toolandpartyrentalsde.com/,Ocean View,DE
Upchurch Grand Rental,mhawk@upchurchrental.com,+16624517971,https://upchurchrentals.com/,Greenwood,MS
Expert Rental (formerly Taylor Rental),info@expertrantal.com,+18005551234,https://www.expertrentalct.com/,Torrington,CT
"True Value Rental of Crystal River, FL",taylorcrystalriver@tampabay.rr.com,+13527955600,http://truevaluerentalcitrus.com/,Crystal River,FL
Rick's Rental World,ricksrentalworld@yahoo.com,+16072770111,https://www.ricksrentalworld.com/,Ithaca,NY
Rental Depot Boston,rentaldepot@hotmail.com,+16173271200,https://rentaldepotrentals.com/,Dedham,MA
"Bloomfield Rent-All, Inc.",info@bloomfieldrent-all.com,+16416643806,https://www.bloomfieldrent-all.com/,Bloomfield,IA
Action Rental & Sales,info@actionrentals.com,+14238940644,http://actionrentals.com/,Chattanooga,TN
Mechanicsville Power Equipment,info@mperental.com,+18047305737,https://mperental.com/,Mechanicsville,VA
Waunakee Rental,waunakeerental@charter.net,+16088505300,https://www.waunakeerental.com/,Dane,WI
Duane Bellows Rental LLC,email@pointofrental.com,+441189569577,https://duane-bellows-rental-llc.pointofrentalcloud.com/,Ontario,OR
ABC Rentals Tools & Equipment - West,info@abcrentalsmidwest.com,+16053313644,https://www.abcrentalsmidwest.com/,Sioux Falls,SD
ABC Rentals Tools & Equipment - East,info@abcrentalsmidwest.com,+16053313644,https://www.abcrentalsmidwest.com/,Sioux Falls,SD
Mountain Rentals,mtrentals23@gmail.com,+18284673803,https://mtrentalshop.com/,Marion,NC
J & J Rental Center,info@jandjrentalcenter.com,+17195879212,https://jandjrentalcenter.com/index.html,Alamosa,CO
General Rental Center,rentalserviceamarillo@gmail.com,+18063599920,https://www.rentalserviceamarillo.biz/,Amarillo,TX
Quicklift Rentals & Trailer Hitches LLC,info@quickliftrentals.com,+16035295438,http://quickliftrentals.com/,Weare,NH
Thompson Machinery,leads@tmcat.com,+18002283644,https://thompsonmachinery.com/,Belden,MS
Thompson Machinery,leads@tmcat.com,+18002283644,https://thompsonmachinery.com/,Cookeville,TN
Thompson Machinery,leads@tmcat.com,+18002283644,https://thompsonmachinery.com/,Manchester,TN
Thompson Machinery,leads@tmcat.com,+18002283644,https://thompsonmachinery.com/,Greenwood,MS
Thompson Machinery,leads@tmcat.com,+18002283644,https://thompsonmachinery.com/,La Vergne,TN
Thompson Machinery,leads@tmcat.com,+18002283644,https://thompsonmachinery.com/,Columbus,MS
Thompson Machinery,leads@tmcat.com,+18002283644,https://thompsonmachinery.com/,Jackson,TN
Thompson Machinery,leads@tmcat.com,+18002283644,https://thompsonmachinery.com/,Memphis,TN
Hahn Rental Center,djohnson@hahnsupply.com,+12087431577,https://hahnsupply.com/,Moscow,ID
Hahn Rental Center,toolcenter@hahnsupply.com,+12087431577,https://hahnsupply.com/,Moscow,ID
Hahn Rental Center,aboesen@hahnsupply.com,+12087431577,https://hahnsupply.com/,Moscow,ID
Hahn Rental Center,dwilson@hahnsupply.com,+12087431577,https://hahnsupply.com/,Moscow,ID
Hahn Rental Center,dschaff@hahnsupply.com,+12087431577,https://hahnsupply.com/,Moscow,ID
Hahn Rental Center,szabel@hahnsupply.com,+12087431577,https://hahnsupply.com/,Moscow,ID
Hahn Rental Center,jboesen@hahnsupply.com,+12087431577,https://hahnsupply.com/,Moscow,ID
Hahn Rental Center,jdunkleberger@hahnsupply.com,+12087431577,https://hahnsupply.com/,Moscow,ID
Hahn Rental Center,merickson@hahnsupply.com,+12087431577,https://hahnsupply.com/,Moscow,ID
Hahn Rental Center,djohnson@hahnsupply.com,+12087431577,https://hahnsupply.com/,Lewiston,ID
Hahn Rental Center,toolcenter@hahnsupply.com,+12087431577,https://hahnsupply.com/,Lewiston,ID
Hahn Rental Center,aboesen@hahnsupply.com,+12087431577,https://hahnsupply.com/,Lewiston,ID
Hahn Rental Center,dwilson@hahnsupply.com,+12087431577,https://hahnsupply.com/,Lewiston,ID
Hahn Rental Center,dschaff@hahnsupply.com,+12087431577,https://hahnsupply.com/,Lewiston,ID
Hahn Rental Center,szabel@hahnsupply.com,+12087431577,https://hahnsupply.com/,Lewiston,ID
Hahn Rental Center,jboesen@hahnsupply.com,+12087431577,https://hahnsupply.com/,Lewiston,ID
Hahn Rental Center,jdunkleberger@hahnsupply.com,+12087431577,https://hahnsupply.com/,Lewiston,ID
Hahn Rental Center,merickson@hahnsupply.com,+12087431577,https://hahnsupply.com/,Lewiston,ID
Hahn Rental Center,djohnson@hahnsupply.com,+12087431577,https://hahnsupply.com/,Kamiah,ID
Hahn Rental Center,toolcenter@hahnsupply.com,+12087431577,https://hahnsupply.com/,Kamiah,ID
Hahn Rental Center,aboesen@hahnsupply.com,+12087431577,https://hahnsupply.com/,Kamiah,ID
Hahn Rental Center,dwilson@hahnsupply.com,+12087431577,https://hahnsupply.com/,Kamiah,ID
Hahn Rental Center,dschaff@hahnsupply.com,+12087431577,https://hahnsupply.com/,Kamiah,ID
Hahn Rental Center,szabel@hahnsupply.com,+12087431577,https://hahnsupply.com/,Kamiah,ID
Hahn Rental Center,jboesen@hahnsupply.com,+12087431577,https://hahnsupply.com/,Kamiah,ID
Hahn Rental Center,jdunkleberger@hahnsupply.com,+12087431577,https://hahnsupply.com/,Kamiah,ID
Hahn Rental Center,merickson@hahnsupply.com,+12087431577,https://hahnsupply.com/,Kamiah,ID
Yesco Scaffolding LLC,yescorentals@gmail.com,+18502770900,https://yescorentals.com/,Panama City,FL
Colemans equipment rentals,jcoleman6607@gmail.com,+17046929329,https://colemansequipmentrentals.com/,Shelby,NC
Midwest Rental and Supply,info@midwestrentalandsupply.com,+12483018000,https://midwestrentalandsupply.com/,Waterford Twp,MI
Sonsray Rentals,info@sonsray.com,+18447667729,http://sonsrayrentals.com/,Phoenix,AZ
Best Line Equipment,sales@bestline.com,+18006792378,http://bestline.com/,Muncy,PA
NOY-TAL,noytalllc@gmail.com,+15165322625,http://noytal.com/,Hempstead,NY
Wheeler Machinery Co.,service@wheelercat.com,+18019740511,https://wheelercat.com/,West Haven,UT
Wheeler Machinery Co.,sales@wheelercat.com,+18019740511,https://wheelercat.com/,West Haven,UT
Wheeler Machinery Co.,rentals@wheelercat.com,+18019740511,https://wheelercat.com/,West Haven,UT
Wheeler Machinery Co.,info@wheelercat.com,+18019740511,https://wheelercat.com/,West Haven,UT
Wheeler Machinery Co.,parts@wheelercat.com,+18019740511,https://wheelercat.com/,West Haven,UT
Wheeler Machinery Co.,service@wheelercat.com,+18019740511,https://wheelercat.com/,Hurricane,UT
Wheeler Machinery Co.,sales@wheelercat.com,+18019740511,https://wheelercat.com/,Hurricane,UT
Wheeler Machinery Co.,rentals@wheelercat.com,+18019740511,https://wheelercat.com/,Hurricane,UT
Wheeler Machinery Co.,info@wheelercat.com,+18019740511,https://wheelercat.com/,Hurricane,UT
Wheeler Machinery Co.,parts@wheelercat.com,+18019740511,https://wheelercat.com/,Hurricane,UT
ALE Tool Company,info@aletoolco.com,+16072223808,https://aletoolco.com/,Chenango Forks,NY
Wheeler Machinery Co.,service@wheelercat.com,+18019740511,https://wheelercat.com/,Logan,UT
Wheeler Machinery Co.,sales@wheelercat.com,+18019740511,https://wheelercat.com/,Logan,UT
Wheeler Machinery Co.,rentals@wheelercat.com,+18019740511,https://wheelercat.com/,Logan,UT
Wheeler Machinery Co.,info@wheelercat.com,+18019740511,https://wheelercat.com/,Logan,UT
Wheeler Machinery Co.,parts@wheelercat.com,+18019740511,https://wheelercat.com/,Logan,UT
Blanchard Machinery - Hilton Head,contactus@blanchardmachinery.com,+18442526242,https://www.blanchardmachinery.com/,Hardeeville,SC
ProsRent,info@prosrent.com,+17576925768,https://prosrent.com/,Plano,TX
ProsRent,nick.powell@bigrentz.com,+17576925768,https://prosrent.com/,Plano,TX
PROSRENT.com - Construction Equipment Rentals - El Paso,info@prosrent.com,+17576925768,https://prosrent.com/,El Paso,TX
PROSRENT.com - Construction Equipment Rentals - El Paso,nick.powell@bigrentz.com,+17576925768,https://prosrent.com/,El Paso,TX
Blanchard Machinery - Summerville,contactus@blanchardmachinery.com,+18442526242,https://www.blanchardmachinery.com/,Summerville,SC
Sonsray Rentals,info@sonsray.com,+18447667729,http://sonsrayrentals.com/,Sacramento,CA
Wheeler Machinery Co.,service@wheelercat.com,+18019740511,https://wheelercat.com/,Salina,UT
Wheeler Machinery Co.,sales@wheelercat.com,+18019740511,https://wheelercat.com/,Salina,UT
Wheeler Machinery Co.,rentals@wheelercat.com,+18019740511,https://wheelercat.com/,Salina,UT
Wheeler Machinery Co.,info@wheelercat.com,+18019740511,https://wheelercat.com/,Salina,UT
Wheeler Machinery Co.,parts@wheelercat.com,+18019740511,https://wheelercat.com/,Salina,UT
ProsRent,info@prosrent.com,+17576925768,https://prosrent.com/,Plano,TX
ProsRent,nick.powell@bigrentz.com,+17576925768,https://prosrent.com/,Plano,TX
Blanchard Machinery - Greenville,contactus@blanchardmachinery.com,+18442526242,https://www.blanchardmachinery.com/,Greenville,SC
Wheeler Machinery Co.,service@wheelercat.com,+18019740511,https://wheelercat.com/,Lindon,UT
Wheeler Machinery Co.,sales@wheelercat.com,+18019740511,https://wheelercat.com/,Lindon,UT
Wheeler Machinery Co.,rentals@wheelercat.com,+18019740511,https://wheelercat.com/,Lindon,UT
Wheeler Machinery Co.,info@wheelercat.com,+18019740511,https://wheelercat.com/,Lindon,UT
Wheeler Machinery Co.,parts@wheelercat.com,+18019740511,https://wheelercat.com/,Lindon,UT
Able Tool and Equipment,info@abletool.net,+18602892020,https://abletool.net/,South Windsor,CT
Wheeler Machinery Co.,service@wheelercat.com,+18019740511,https://wheelercat.com/,Naples,UT
Wheeler Machinery Co.,sales@wheelercat.com,+18019740511,https://wheelercat.com/,Naples,UT
Wheeler Machinery Co.,rentals@wheelercat.com,+18019740511,https://wheelercat.com/,Naples,UT
Wheeler Machinery Co.,info@wheelercat.com,+18019740511,https://wheelercat.com/,Naples,UT
Wheeler Machinery Co.,parts@wheelercat.com,+18019740511,https://wheelercat.com/,Naples,UT
B&B Crane Service Wilmington,office@bbcranellc.com,+19107549381,https://www.bandbcraneservice.com/,Wilmington,NC
Wheeler Machinery Co.,service@wheelercat.com,+18019740511,https://wheelercat.com/,Moab,UT
Wheeler Machinery Co.,sales@wheelercat.com,+18019740511,https://wheelercat.com/,Moab,UT
Wheeler Machinery Co.,rentals@wheelercat.com,+18019740511,https://wheelercat.com/,Moab,UT
Wheeler Machinery Co.,info@wheelercat.com,+18019740511,https://wheelercat.com/,Moab,UT
Wheeler Machinery Co.,parts@wheelercat.com,+18019740511,https://wheelercat.com/,Moab,UT
Redtail Equipment Rental,info@redtailrental.com,+19796965696,https://redtailrental.com/,College Station,TX
Wheeler Machinery Co.,service@wheelercat.com,+18019740511,https://wheelercat.com/,Ely,NV
Wheeler Machinery Co.,sales@wheelercat.com,+18019740511,https://wheelercat.com/,Ely,NV
Wheeler Machinery Co.,rentals@wheelercat.com,+18019740511,https://wheelercat.com/,Ely,NV
Wheeler Machinery Co.,info@wheelercat.com,+18019740511,https://wheelercat.com/,Ely,NV
Wheeler Machinery Co.,parts@wheelercat.com,+18019740511,https://wheelercat.com/,Ely,NV
Blanchard Machinery - Spartanburg,contactus@blanchardmachinery.com,+18442526242,https://www.blanchardmachinery.com/,Spartanburg,SC
Blanchard Machinery - Aiken,contactus@blanchardmachinery.com,+18442526242,https://www.blanchardmachinery.com/,Graniteville,SC
Blanchard Machinery - Rock Hill,contactus@blanchardmachinery.com,+18442526242,https://www.blanchardmachinery.com/,Rock Hill,SC
Blanchard Machinery - Myrtle Beach,contactus@blanchardmachinery.com,+18442526242,https://www.blanchardmachinery.com/,Longs,SC
Wheeler Machinery Co.,service@wheelercat.com,+18019740511,https://wheelercat.com/,Cedar City,UT
Wheeler Machinery Co.,sales@wheelercat.com,+18019740511,https://wheelercat.com/,Cedar City,UT
Wheeler Machinery Co.,rentals@wheelercat.com,+18019740511,https://wheelercat.com/,Cedar City,UT
Wheeler Machinery Co.,info@wheelercat.com,+18019740511,https://wheelercat.com/,Cedar City,UT
Wheeler Machinery Co.,parts@wheelercat.com,+18019740511,https://wheelercat.com/,Cedar City,UT
Wheeler Machinery Co.,service@wheelercat.com,+18019740511,https://wheelercat.com/,West Valley City,UT
Wheeler Machinery Co.,sales@wheelercat.com,+18019740511,https://wheelercat.com/,West Valley City,UT
Wheeler Machinery Co.,rentals@wheelercat.com,+18019740511,https://wheelercat.com/,West Valley City,UT
Wheeler Machinery Co.,info@wheelercat.com,+18019740511,https://wheelercat.com/,West Valley City,UT
Wheeler Machinery Co.,parts@wheelercat.com,+18019740511,https://wheelercat.com/,West Valley City,UT
Blanchard Machinery - Florence,contactus@blanchardmachinery.com,+18442526242,https://www.blanchardmachinery.com/,Florence,SC
Resource Rental,info@resourcerental.com,+17123287368,https://resourcerental.com/,Council Bluffs,IA
Blanchard Machinery - Seneca,contactus@blanchardmachinery.com,+18442526242,https://www.blanchardmachinery.com/,Seneca,SC
River Valley Tractor,RWallace@rivervalleytractor.com,+15018479043,https://rivervalleytractor.com/,Texarkana,TX
River Valley Tractor,tcarlow@rivervalleytractor.com,+15018479043,https://rivervalleytractor.com/,Texarkana,TX
River Valley Tractor,nathana@rivervalleytractor.com,+15018479043,https://rivervalleytractor.com/,Texarkana,TX
River Valley Tractor,tdickens@texarkanatractor.com,+15018479043,https://rivervalleytractor.com/,Texarkana,TX
River Valley Tractor,sotwell@rivervalleytractor.com,+15018479043,https://rivervalleytractor.com/,Texarkana,TX
River Valley Tractor,troberts@rivervalleytractor.com,+15018479043,https://rivervalleytractor.com/,Texarkana,TX
River Valley Tractor,fredi@rivervalleytractor.com,+15018479043,https://rivervalleytractor.com/,Texarkana,TX
River Valley Tractor,kkugler@rivervalleytractor.com,+15018479043,https://rivervalleytractor.com/,Texarkana,TX
River Valley Tractor,kwest@rivervalleytractor.com,+15018479043,https://rivervalleytractor.com/,Texarkana,TX
River Valley Tractor,cwhite@rivervalleytractor.com,+15018479043,https://rivervalleytractor.com/,Texarkana,TX
River Valley Tractor,Tdickens@rivervalleytractor.com,+15018479043,https://rivervalleytractor.com/,Texarkana,TX
MOMS Rentals,rentals@momsrentals.com,+14067282339,https://momsrentals.com/,Missoula,MT
MOMS Rentals,service@momsrentals.com,+14067282339,https://momsrentals.com/,Missoula,MT
MOMS Rentals,stevem@momsrentals.com,+14067282339,https://momsrentals.com/,Missoula,MT
MOMS Rentals,daveb@momsrentals.com,+14067282339,https://momsrentals.com/,Missoula,MT
A D H Hitch & Rental,adhhitchrental@gmail.com,+18167414343,https://adhhitchrental.com/,Parkville,MO
American Peak,info@americanpeak.com,+17152204033,https://americanpeak.rentals/,Augusta,WI
MOMS Rentals,rentals@momsrentals.com,+14067282339,https://momsrentals.com/,Hamilton,MT
MOMS Rentals,service@momsrentals.com,+14067282339,https://momsrentals.com/,Hamilton,MT
MOMS Rentals,stevem@momsrentals.com,+14067282339,https://momsrentals.com/,Hamilton,MT
MOMS Rentals,daveb@momsrentals.com,+14067282339,https://momsrentals.com/,Hamilton,MT
Le Sueur Rental Co.,lesueurrentalco@gmail.com,+15079951011,https://lesueurrentalco.com/,Le Sueur,MN
Goggin Rental,gorent@gogginrental.com,+12693812632,http://gogginrental.com/,Kalamazoo,MI
Arvada Rent-Alls,info@arvadarentalls.com,+13039794810,https://www.arvadarentalls.com/,Arvada,CO
Economy Rentals,kirke@vci.net,+12708215003,https://economyrentalsky.com/,Madisonville,KY
Rent N Save Owatonna,sales@rentnsave.net,+15073348440,https://rentnsave.net/,Owatonna,MN
Rent N Save,sales@rentnsave.net,+15073348440,https://rentnsave.net/,Faribault,MN
Taylor Rental,shaun@trohio.com,+17409944371,https://www.trohio.com/,Circleville,OH
Taylor Rental,info@trohio.com,+17409944371,https://www.trohio.com/,Circleville,OH
Taylor Rental,joe@trohio.com,+17409944371,https://www.trohio.com/,Circleville,OH
The Tool Shack,info@thetoolshack.com,+18509341700,https://www.thetoolshack.com/,Pensacola,FL
Aztec Rental Center,gsorsby@aztecrentalcenters.com,+17136675651,https://aztecrentalcenters.com/,Houston,TX
Aztec Rental Center,bnedd@aztecrentalcenters.com,+17136675651,https://aztecrentalcenters.com/,Houston,TX
Aztec Rental Center,enedd@aztecrentalcenters.com,+17136675651,https://aztecrentalcenters.com/,Houston,TX
"Casey Equipment Company, Inc.",james.austin@caseyequipment.com,+18474378686,http://caseyequipment.com/,Arlington Heights,IL
"Casey Equipment Company, Inc.",david.cox@caseyequipment.com,+18474378686,http://caseyequipment.com/,Arlington Heights,IL
Taylor True Value Rental,shaun@trohio.com,+17409944371,https://www.trohio.com/,Lancaster,OH
Taylor True Value Rental,info@trohio.com,+17409944371,https://www.trohio.com/,Lancaster,OH
Taylor True Value Rental,joe@trohio.com,+17409944371,https://www.trohio.com/,Lancaster,OH
Kissell Power Equipment,dave@kissellmotorsports.com,+18146996990,http://kissellpower.com/,Tyrone,PA
Kissell Power Equipment,josh@kissellmotorsports.com,+18146996990,http://kissellpower.com/,Tyrone,PA
Kissell Power Equipment,ryan@kissellpower.com,+18146996990,http://kissellpower.com/,Tyrone,PA
Casey Equipment,james.austin@caseyequipment.com,+18474378686,http://caseyequipment.com/,Cherry Valley,IL
Casey Equipment,david.cox@caseyequipment.com,+18474378686,http://caseyequipment.com/,Cherry Valley,IL
River Valley Tractor,RWallace@rivervalleytractor.com,+15018479043,https://rivervalleytractor.com/,Conway,AR
River Valley Tractor,tcarlow@rivervalleytractor.com,+15018479043,https://rivervalleytractor.com/,Conway,AR
River Valley Tractor,nathana@rivervalleytractor.com,+15018479043,https://rivervalleytractor.com/,Conway,AR
River Valley Tractor,tdickens@texarkanatractor.com,+15018479043,https://rivervalleytractor.com/,Conway,AR
River Valley Tractor,sotwell@rivervalleytractor.com,+15018479043,https://rivervalleytractor.com/,Conway,AR
River Valley Tractor,troberts@rivervalleytractor.com,+15018479043,https://rivervalleytractor.com/,Conway,AR
River Valley Tractor,fredi@rivervalleytractor.com,+15018479043,https://rivervalleytractor.com/,Conway,AR
River Valley Tractor,kkugler@rivervalleytractor.com,+15018479043,https://rivervalleytractor.com/,Conway,AR
River Valley Tractor,kwest@rivervalleytractor.com,+15018479043,https://rivervalleytractor.com/,Conway,AR
River Valley Tractor,cwhite@rivervalleytractor.com,+15018479043,https://rivervalleytractor.com/,Conway,AR
River Valley Tractor,Tdickens@rivervalleytractor.com,+15018479043,https://rivervalleytractor.com/,Conway,AR
River Valley Tractor,RWallace@rivervalleytractor.com,+15018479043,https://rivervalleytractor.com/,Pine Bluff,AR
River Valley Tractor,tcarlow@rivervalleytractor.com,+15018479043,https://rivervalleytractor.com/,Pine Bluff,AR
River Valley Tractor,nathana@rivervalleytractor.com,+15018479043,https://rivervalleytractor.com/,Pine Bluff,AR
River Valley Tractor,tdickens@texarkanatractor.com,+15018479043,https://rivervalleytractor.com/,Pine Bluff,AR
River Valley Tractor,sotwell@rivervalleytractor.com,+15018479043,https://rivervalleytractor.com/,Pine Bluff,AR
River Valley Tractor,troberts@rivervalleytractor.com,+15018479043,https://rivervalleytractor.com/,Pine Bluff,AR
River Valley Tractor,fredi@rivervalleytractor.com,+15018479043,https://rivervalleytractor.com/,Pine Bluff,AR
River Valley Tractor,kkugler@rivervalleytractor.com,+15018479043,https://rivervalleytractor.com/,Pine Bluff,AR
River Valley Tractor,kwest@rivervalleytractor.com,+15018479043,https://rivervalleytractor.com/,Pine Bluff,AR
River Valley Tractor,cwhite@rivervalleytractor.com,+15018479043,https://rivervalleytractor.com/,Pine Bluff,AR
River Valley Tractor,Tdickens@rivervalleytractor.com,+15018479043,https://rivervalleytractor.com/,Pine Bluff,AR
River Valley Tractor,RWallace@rivervalleytractor.com,+15018479043,https://rivervalleytractor.com/,Bryant,AR
River Valley Tractor,tcarlow@rivervalleytractor.com,+15018479043,https://rivervalleytractor.com/,Bryant,AR
River Valley Tractor,nathana@rivervalleytractor.com,+15018479043,https://rivervalleytractor.com/,Bryant,AR
River Valley Tractor,tdickens@texarkanatractor.com,+15018479043,https://rivervalleytractor.com/,Bryant,AR
River Valley Tractor,sotwell@rivervalleytractor.com,+15018479043,https://rivervalleytractor.com/,Bryant,AR
River Valley Tractor,troberts@rivervalleytractor.com,+15018479043,https://rivervalleytractor.com/,Bryant,AR
River Valley Tractor,fredi@rivervalleytractor.com,+15018479043,https://rivervalleytractor.com/,Bryant,AR
River Valley Tractor,kkugler@rivervalleytractor.com,+15018479043,https://rivervalleytractor.com/,Bryant,AR
River Valley Tractor,kwest@rivervalleytractor.com,+15018479043,https://rivervalleytractor.com/,Bryant,AR
River Valley Tractor,cwhite@rivervalleytractor.com,+15018479043,https://rivervalleytractor.com/,Bryant,AR
River Valley Tractor,Tdickens@rivervalleytractor.com,+15018479043,https://rivervalleytractor.com/,Bryant,AR
River Valley Tractor,RWallace@rivervalleytractor.com,+15018479043,https://rivervalleytractor.com/,Queen City,TX
River Valley Tractor,tcarlow@rivervalleytractor.com,+15018479043,https://rivervalleytractor.com/,Queen City,TX
River Valley Tractor,nathana@rivervalleytractor.com,+15018479043,https://rivervalleytractor.com/,Queen City,TX
River Valley Tractor,tdickens@texarkanatractor.com,+15018479043,https://rivervalleytractor.com/,Queen City,TX
River Valley Tractor,sotwell@rivervalleytractor.com,+15018479043,https://rivervalleytractor.com/,Queen City,TX
River Valley Tractor,troberts@rivervalleytractor.com,+15018479043,https://rivervalleytractor.com/,Queen City,TX
River Valley Tractor,fredi@rivervalleytractor.com,+15018479043,https://rivervalleytractor.com/,Queen City,TX
River Valley Tractor,kkugler@rivervalleytractor.com,+15018479043,https://rivervalleytractor.com/,Queen City,TX
River Valley Tractor,kwest@rivervalleytractor.com,+15018479043,https://rivervalleytractor.com/,Queen City,TX
River Valley Tractor,cwhite@rivervalleytractor.com,+15018479043,https://rivervalleytractor.com/,Queen City,TX
River Valley Tractor,Tdickens@rivervalleytractor.com,+15018479043,https://rivervalleytractor.com/,Queen City,TX
viper equipment,Viperequipment2020@gmail.com,+14245363229,https://www.viperequipment.com/,San Pedro,CA
viper equipment,Viperequipment@gmail.com,+14245363229,https://www.viperequipment.com/,San Pedro,CA
Thompson Machinery - Memphis Cat Rental Store,leads@tmcat.com,+18002283644,https://thompsonmachinery.com/,Memphis,TN
Metroquip,info@metroquip.us,+17704224218,https://www.metroquip.us/,Marietta,GA
Rental Guys,office@rentalguys.com,+15303430219,https://rentalguys.com/,Citrus Heights,CA
Thompson Machinery - Nashville Cat Rental Store,leads@tmcat.com,+18002283644,https://thompsonmachinery.com/,Nashville,TN
Wheeler Cat Rental Store,service@wheelercat.com,+18019740511,https://wheelercat.com/,Hurricane,UT
Wheeler Cat Rental Store,sales@wheelercat.com,+18019740511,https://wheelercat.com/,Hurricane,UT
Wheeler Cat Rental Store,rentals@wheelercat.com,+18019740511,https://wheelercat.com/,Hurricane,UT
Wheeler Cat Rental Store,info@wheelercat.com,+18019740511,https://wheelercat.com/,Hurricane,UT
Wheeler Cat Rental Store,parts@wheelercat.com,+18019740511,https://wheelercat.com/,Hurricane,UT
HCLI Rentals,email@pointofrental.com,+18009447368,http://hcli-rental.pointofrentalcloud.com/,Wimberley,TX
Hoyer's Equipment Rental,info@hoyer-rentals.com,+16822741521,https://hoyer-rentals.com/,Fort Worth,TX
AOS Rental & Services,office@aosrental.com,+13615720900,https://aosrental.com/,Victoria,TX
FIVE BORO TOOL RENTAL & EQUIPMENT,5borotools@gmail.com,+17184411313,https://www.fiveborotoolrental.com/,Richmond Hill,NY
Wheeler Cat Rental Store,service@wheelercat.com,+18019740511,https://wheelercat.com/,West Valley City,UT
Wheeler Cat Rental Store,sales@wheelercat.com,+18019740511,https://wheelercat.com/,West Valley City,UT
Wheeler Cat Rental Store,rentals@wheelercat.com,+18019740511,https://wheelercat.com/,West Valley City,UT
Wheeler Cat Rental Store,info@wheelercat.com,+18019740511,https://wheelercat.com/,West Valley City,UT
Wheeler Cat Rental Store,parts@wheelercat.com,+18019740511,https://wheelercat.com/,West Valley City,UT
Wheeler Cat Rental Store,service@wheelercat.com,+18019740511,https://wheelercat.com/,Lindon,UT
Wheeler Cat Rental Store,sales@wheelercat.com,+18019740511,https://wheelercat.com/,Lindon,UT
Wheeler Cat Rental Store,rentals@wheelercat.com,+18019740511,https://wheelercat.com/,Lindon,UT
Wheeler Cat Rental Store,info@wheelercat.com,+18019740511,https://wheelercat.com/,Lindon,UT
Wheeler Cat Rental Store,parts@wheelercat.com,+18019740511,https://wheelercat.com/,Lindon,UT
B&B Crane Service Shallotte,office@bbcranellc.com,+19107549381,https://www.bandbcraneservice.com/,Shallotte,NC
Thompson Machinery - Clarksville Cat Rental Store,leads@tmcat.com,+18002283644,https://thompsonmachinery.com/,Clarksville,TN
Blanchard Rental Services - Columbia,contactus@blanchardmachinery.com,+18442526242,https://www.blanchardmachinery.com/,Columbia,SC
Thompson Machinery - Nashville (LaVergne) Cat Rental Store,leads@tmcat.com,+18002283644,https://thompsonmachinery.com/,La Vergne,TN
Harbor Equipment Company,info@harborequipco.com,+12314120110,https://www.harborequipco.com/,Harbor Springs,MI
Wellsboro Equipment - Sales | Rental | Service,chris.bull@wellsboroequipment.com,+15707246100,http://wellsboroequipment.com/,Mansfield,PA
"General Rental, Inc. - Equipment & Tool Rental",info@gen-rent.com,+17402829588,https://gen-rent.com/,Steubenville,OH
Allen Rental,mail@allenrental.co,+15418634385,https://allenrental.co/,Roseburg,OR
Rent All of Glynn Inc,rentallglynn@gmail.com,+19122652414,https://rentallglynn.com/,Brunswick,GA
Harco Equipment Rental & Sales,Lnoonan@harcorentals.com,+17708679496,https://harcoequipment.com/,Jefferson,GA
Best Line Equipment / Bobcat of Susquehanna,sales@bestline.com,+18006792378,http://bestline.com/,Harrisburg,PA
Best Line Equipment,sales@bestline.com,+18006792378,http://bestline.com/,Towanda,PA
Aztec Rental,gsorsby@aztecrentalcenters.com,+17136675651,https://aztecrentalcenters.com/,Sugar Land,TX
Aztec Rental,bnedd@aztecrentalcenters.com,+17136675651,https://aztecrentalcenters.com/,Sugar Land,TX
Aztec Rental,enedd@aztecrentalcenters.com,+17136675651,https://aztecrentalcenters.com/,Sugar Land,TX
Weco Rentals,mowens@wecorentals.com,+12766288098,https://wecorentals.com/,Abingdon,VA
First Place Rental,info@firstplacerental.com,+16305543155,http://firstplacerental.com/,Oswego,IL
Daphne Rental Center,CLAY@drcrental.com,+12512642438,https://daphnerentalcenter.com/,Daphne,AL
Daphne Rental Center,ALBERT@drcrental.com,+12512642438,https://daphnerentalcenter.com/,Daphne,AL
Ed's Rental and Tools Inc.,edsrental12@gmail.com,+18567832321,https://www.edsrentalandtools.com/,Sicklerville,NJ
"MUNRO. Enterprises, LLC",info@munro-enterprises.com,+18666950069,https://munro-enterprises.com/,Clovis,CA
River Valley Tractor,RWallace@rivervalleytractor.com,+15018479043,https://rivervalleytractor.com/,North Little Rock,AR
River Valley Tractor,tcarlow@rivervalleytractor.com,+15018479043,https://rivervalleytractor.com/,North Little Rock,AR
River Valley Tractor,nathana@rivervalleytractor.com,+15018479043,https://rivervalleytractor.com/,North Little Rock,AR
River Valley Tractor,tdickens@texarkanatractor.com,+15018479043,https://rivervalleytractor.com/,North Little Rock,AR
River Valley Tractor,sotwell@rivervalleytractor.com,+15018479043,https://rivervalleytractor.com/,North Little Rock,AR
River Valley Tractor,troberts@rivervalleytractor.com,+15018479043,https://rivervalleytractor.com/,North Little Rock,AR
River Valley Tractor,fredi@rivervalleytractor.com,+15018479043,https://rivervalleytractor.com/,North Little Rock,AR
River Valley Tractor,kkugler@rivervalleytractor.com,+15018479043,https://rivervalleytractor.com/,North Little Rock,AR
River Valley Tractor,kwest@rivervalleytractor.com,+15018479043,https://rivervalleytractor.com/,North Little Rock,AR
River Valley Tractor,cwhite@rivervalleytractor.com,+15018479043,https://rivervalleytractor.com/,North Little Rock,AR
River Valley Tractor,Tdickens@rivervalleytractor.com,+15018479043,https://rivervalleytractor.com/,North Little Rock,AR
River Valley Tractor,RWallace@rivervalleytractor.com,+15018479043,https://rivervalleytractor.com/,Russellville,AR
River Valley Tractor,tcarlow@rivervalleytractor.com,+15018479043,https://rivervalleytractor.com/,Russellville,AR
River Valley Tractor,nathana@rivervalleytractor.com,+15018479043,https://rivervalleytractor.com/,Russellville,AR
River Valley Tractor,tdickens@texarkanatractor.com,+15018479043,https://rivervalleytractor.com/,Russellville,AR
River Valley Tractor,sotwell@rivervalleytractor.com,+15018479043,https://rivervalleytractor.com/,Russellville,AR
River Valley Tractor,troberts@rivervalleytractor.com,+15018479043,https://rivervalleytractor.com/,Russellville,AR
River Valley Tractor,fredi@rivervalleytractor.com,+15018479043,https://rivervalleytractor.com/,Russellville,AR
River Valley Tractor,kkugler@rivervalleytractor.com,+15018479043,https://rivervalleytractor.com/,Russellville,AR
River Valley Tractor,kwest@rivervalleytractor.com,+15018479043,https://rivervalleytractor.com/,Russellville,AR
River Valley Tractor,cwhite@rivervalleytractor.com,+15018479043,https://rivervalleytractor.com/,Russellville,AR
River Valley Tractor,Tdickens@rivervalleytractor.com,+15018479043,https://rivervalleytractor.com/,Russellville,AR
Bacon Universal,jvila@baconuniversal.com,+18089358595,https://www.baconuniversal.com/,Hilo,HI
Bacon Universal,jvila@baconuniversal.com,+18089358595,https://www.baconuniversal.com/,Honolulu,HI
Sapelo Equipment Co.,sam@sapeloequipmentco.com,+19123844664,https://sapeloequipmentco.com/,Brunswick,GA
Bacon Universal,jvila@baconuniversal.com,+18089358595,https://www.baconuniversal.com/,Wailuku,HI
Teton Rental Center,info@tetonrental.com,+13077334070,https://tetonrental.com/,Jackson,WY
Leeper Hardware,support@leeperhardware.com,+18654753365,https://leeperhardware.com/,Jefferson City,TN
Rapids Rental & Supply Co Inc,webmaster@rrscoinc.com,+17154215500,https://www.rrscoinc.com/,Wisconsin Rapids,WI
Millers Rentaland Inc.,millersrent@gmail.com,+15595843355,https://millersrentaland.com/,Hanford,CA
FMI Equipment,sales@fmiequipment.com,+18775030583,http://fmiequipment.com/,Richland,WA
Crownstone Equipment / Bobcat of Frederick,sales@bobcatofyork.com,+13013780491,http://crownstoneeq.com/,Frederick,MD
Crownstone Equipment / Bobcat of Hagerstown MD,sales@bobcatofyork.com,+13013780491,http://crownstoneeq.com/,Hagerstown,MD
Grover Tool and Rentals,grovertoolrentals@att.net,+18054812184,https://grovertoolandrentals.com/,Grover Beach,CA
Crownstone Equipment / Bobcat of Lancaster,sales@bobcatofyork.com,+13013780491,http://crownstoneeq.com/,Ephrata,PA
Sully's Tool & Party Rental,info@sullysrental.com,+13306450555,https://sullysrental.com/,Akron,OH
Ultimate Equipment Rentals of Mooresville,info@ultimateequipmentrentals.com,+17047469282,https://ultimateequipmentrentals.com/,Mooresville,NC
Webster’s True Value Rental,rentme@webstersrental.com,+13527261900,https://webstersrental.com/,Inverness,FL
Taylor Rental Center of Rollinsford NH,trrollinsford@comcast.net,+16037421987,https://taylorrental-nh.com/,Rollinsford,NH
Marlborough Grand Rental Station,sales@marlbororentals.com,+15084853654,https://www.marlbororentals.com/,Marlborough,MA
TJ's True Value Rental,info@tjstruevaluerental.com,+14135551234,https://hampshirecountyrentals.com/,South Hadley,MA
Mass Landscape Supplies & Rentals Inc,MassLandscapeSupplies@gmail.com,+19785495896,http://masslandscapesupplies.com/,Sterling,MA
Aman Construction Equipment,office@amanequipment.com,+17708882832,http://amanequipment.com/,Cumming,GA
Aman Construction Equipment,chad@amanequipment.com,+17708882832,http://amanequipment.com/,Cumming,GA
CASCO Tools,info@cascotools.com,+17722209900,https://cascotools.com/,Stuart,FL
D & L Supply and Rental,info@dlsupplyrental.com,+13155319511,https://www.dlsupplyrental.com/,Penn Yan,NY
Power Pac Rental & Sales Inc,email@powerpacrentals.com,+15418840114,http://powerpacrentals.com/,Klamath Falls,OR
Bennett Equipment & Supply,info@bennettequipment.net,+18646145252,https://www.bennettequipment.net/,Hiawassee,GA
U Rent It / Scaffolding Systems Inc.,urentit@urentit.net,+16165388080,https://www.urentit.net/,Wyoming,MI
Belt Rent-All,rent.all.eq@gmail.com,+18162383361,https://www.rentallsj.com/,St Joseph,MO
Paducah Scaffolding,kitmo@vci.net,+12704438243,https://www.kit-mo.com/,Paducah,KY
Johnson County Equipment and Event Rental,info@jocoequipmentrental.com,+19133930755,https://jocoequipmentrental.com/,Olathe,KS
Rental World,info@rentalworld.com,+19569687508,https://www.rentalworld.com/,Corpus Christi,TX
D and D Mena Rentals INC,info@menarentalinc.com,+14794699793,http://menarentalinc.com/,Mena,AR
"Willow Equipment Rental, LLC",rentit@willowequipmentrental.com,+19074958665,https://willowequipmentrental.com/,Willow,AK
We Rent It,info@werentit.net,+13146647368,https://www.werentit.net/,St. Louis,MO
Coastal Tool & Supply Ltd,Barbara@coastaltoolcc.com,+13618840004,https://www.coastaltoolcc.com/,Corpus Christi,TX
Coastal Tool & Supply Ltd,sales@coastaltoolcc.com,+13618840004,https://www.coastaltoolcc.com/,Corpus Christi,TX
Coastal Tool & Supply Ltd,John@coastaltoolcc.com,+13618840004,https://www.coastaltoolcc.com/,Corpus Christi,TX
Coastal Tool & Supply Ltd,Yvette@coastaltoolcc.com,+13618840004,https://www.coastaltoolcc.com/,Corpus Christi,TX
Wheeler Cat Rental Store,service@wheelercat.com,+18019740511,https://wheelercat.com/,Ogden,UT
Wheeler Cat Rental Store,sales@wheelercat.com,+18019740511,https://wheelercat.com/,Ogden,UT
Wheeler Cat Rental Store,rentals@wheelercat.com,+18019740511,https://wheelercat.com/,Ogden,UT
Wheeler Cat Rental Store,info@wheelercat.com,+18019740511,https://wheelercat.com/,Ogden,UT
Wheeler Cat Rental Store,parts@wheelercat.com,+18019740511,https://wheelercat.com/,Ogden,UT
Love Power Equipment and Rentals,matt.strickland@lpechiefland.com,+13524931770,https://lpechiefland.com/,Chiefland,FL
Grand True Value Rental,grs15346@gmail.com,+15406671400,https://grandrentalwinchesterva.com/,Winchester,VA
Hometown Equipment Rentals,info@hometownequip.com,+14099250100,http://hometownequip.com/,Santa Fe,TX
Crownstone Equipment / Bobcat of Reading,sales@bobcatofyork.com,+13013780491,http://crownstoneeq.com/,Leesport,PA
AllStar Rentals Inc,info@allstarrentals.com,+13368357368,https://www.allstarrental.com/,Elkin,NC
Bradenton Rent All,bradentonrentall@gmail.com,+19417471111,https://www.bradrent.com/,Bradenton,FL
Smith Bros. Contracting Equipment - Bobcat of Broward,angelat@smithb.com,+15616899880,http://sbequipment.com/,Pompano Beach,FL
Smith Bros. Contracting Equipment - Bobcat of Broward,michaelb@smithb.com,+15616899880,http://sbequipment.com/,Pompano Beach,FL
Resource Rentals and Sales,resourcerentalsandsales@gmail.com,+17177862288,https://resource-rentals.com/,New Providence,PA
Bobcat of Mamaroneck,sales@bobcatofwestchester.com,+18558723604,http://bobcatofwestchester.com/,Mamaroneck,NY
Northside Tool Rental - Gwinnett,info@northsidetoolrental.com,+17709733195,https://www.northsidetoolrental.com/,Norcross,GA
Ahern Rentals,investor@ahern.com,+18005896797,https://www.ahern.com/,Oklahoma City,OK
Ahern Rentals,CA@ahern.com,+18005896797,https://www.ahern.com/,Oklahoma City,OK
Ahern Rentals,HR@ahern.com,+18005896797,https://www.ahern.com/,Oklahoma City,OK
Ahern Rentals,safety@ahern.com,+18005896797,https://www.ahern.com/,Oklahoma City,OK
Midwest Equipment Rental & Sales (Formerly DeKalb Tool Rental),info@dekalbtoolrental.com,+18448257368,https://www.dekalbtoolrental.com/,DeKalb,IL
Ahern Rentals,investor@ahern.com,+18005896797,https://www.ahern.com/,Las Vegas,NV
Ahern Rentals,CA@ahern.com,+18005896797,https://www.ahern.com/,Las Vegas,NV
Ahern Rentals,HR@ahern.com,+18005896797,https://www.ahern.com/,Las Vegas,NV
Ahern Rentals,safety@ahern.com,+18005896797,https://www.ahern.com/,Las Vegas,NV
"Salem Rental, Inc.",sales@salemrentalinc.com,+18128836000,https://salemrentalinc.com/,Salem,IN
Rental Men,rentals@therentalmen.com,+12053387368,https://therentalmen.com/,Pell City,AL
"TIS Rents, LLC",info@trinityintegrated.net,+18888756194,https://tis-br.net/,McComb,MS
Pro Ag Farmers Co-op,tina.dietering@proagfarmers.com,+13205942726,https://coopfeedstore.com/,Browerville,MN
Tiger Rents,info@tigerents.com,+15404897368,https://tigerents.com/,Rocky Mount,VA
Rent-All Inc,rentallstihl@gmail.com,+19787444600,https://salemrentall.com/,Salem,MA
Westek Rentals,westekrentals@gmail.com,+19705429380,https://www.westekrentals.com/,Fort Morgan,CO
Common Cents Rental,ccrental09@gmail.com,+16363264888,https://commoncentsrental.com/,Fenton,MO
Crownstone Equipment / Bobcat of York,sales@bobcatofyork.com,+13013780491,http://crownstoneeq.com/,York,PA
Arnold's Equipment Rentals,darenrok@aol.com,+18602897368,https://arnoldsrentalsct.com/,South Windsor,CT
Bellefonte True Value Rental,TomR@bellefontebuilding.com,+18143557368,https://rental.bellefontebuilding.com/,Bellefonte,PA
Carl Matthews Equipment Co,info@matthewsrental.com,+16037962412,https://matthewsrental.com/,Boscawen,NH
Construction Sales and Rental Inc,constructionsalesandrental@gmail.com,+12393320494,https://www.constructionrentalsfl.com/,Fort Myers,FL
Evey True Value Hardware and Rental,eveyhdw@gmail.com,+14128355780,https://www.shopevey.com/,Bethel Park,PA
WCTractor Brenham Kubota,chasec@wctractor.com,+12546622420,https://wctkubota.com/,Brenham,TX
WCTractor Brenham Kubota,johns@wctractor.com,+12546622420,https://wctkubota.com/,Brenham,TX
WCTractor Brenham Kubota,rainge.armentor@wctractor.com,+12546622420,https://wctkubota.com/,Brenham,TX
WCTractor Brenham Kubota,meribeth.shimshack@wctractor.com,+12546622420,https://wctkubota.com/,Brenham,TX
WCTractor Brenham Kubota,peewee@wctractor.com,+12546622420,https://wctkubota.com/,Brenham,TX
WCTractor Brenham Kubota,regan.saunders@wctractor.com,+12546622420,https://wctkubota.com/,Brenham,TX
WCTractor Brenham Kubota,marcus.mccann@wctractor.com,+12546622420,https://wctkubota.com/,Brenham,TX
WCTractor Brenham Kubota,ryan.redding@wctractor.com,+12546622420,https://wctkubota.com/,Brenham,TX
WCTractor Brenham Kubota,warren.barnett@wctractor.com,+12546622420,https://wctkubota.com/,Brenham,TX
WCTractor Brenham Kubota,clayton.fannin@wctractor.com,+12546622420,https://wctkubota.com/,Brenham,TX
WCTractor Brenham Kubota,bradl@wctractor.com,+12546622420,https://wctkubota.com/,Brenham,TX
WCTractor Brenham Kubota,jonathon.scalf@wctractor.com,+12546622420,https://wctkubota.com/,Brenham,TX
WCTractor Brenham Kubota,larry.mckissick@wctractor.com,+12546622420,https://wctkubota.com/,Brenham,TX
General Rental Center,bw@grcmilton.com,+18506230797,https://grcmilton.com/,Milton,FL
Northside Tool Rental,info@northsidetoolrental.com,+17709733195,https://www.northsidetoolrental.com/,Doraville,GA
Northside Tool Rental - Cobb,info@northsidetoolrental.com,+17709733195,https://www.northsidetoolrental.com/,Marietta,GA
Blizz Rentals,jconrad@blizzrentals.com,+14022814328,http://blizzrentals.com/,Omaha,NE
ARA Equipment Rentals & Sales,ararents@swbell.net,+15803551537,https://www.ararents.com/,Lawton,OK
Bacon Universal,jvila@baconuniversal.com,+18089358595,https://www.baconuniversal.com/,Lihue,HI
WCTractor Waco,chasec@wctractor.com,+12546622420,https://wctkubota.com/,Woodway,TX
WCTractor Waco,johns@wctractor.com,+12546622420,https://wctkubota.com/,Woodway,TX
WCTractor Waco,rainge.armentor@wctractor.com,+12546622420,https://wctkubota.com/,Woodway,TX
WCTractor Waco,meribeth.shimshack@wctractor.com,+12546622420,https://wctkubota.com/,Woodway,TX
WCTractor Waco,peewee@wctractor.com,+12546622420,https://wctkubota.com/,Woodway,TX
WCTractor Waco,regan.saunders@wctractor.com,+12546622420,https://wctkubota.com/,Woodway,TX
WCTractor Waco,marcus.mccann@wctractor.com,+12546622420,https://wctkubota.com/,Woodway,TX
WCTractor Waco,ryan.redding@wctractor.com,+12546622420,https://wctkubota.com/,Woodway,TX
WCTractor Waco,warren.barnett@wctractor.com,+12546622420,https://wctkubota.com/,Woodway,TX
WCTractor Waco,clayton.fannin@wctractor.com,+12546622420,https://wctkubota.com/,Woodway,TX
WCTractor Waco,bradl@wctractor.com,+12546622420,https://wctkubota.com/,Woodway,TX
WCTractor Waco,jonathon.scalf@wctractor.com,+12546622420,https://wctkubota.com/,Woodway,TX
WCTractor Waco,larry.mckissick@wctractor.com,+12546622420,https://wctkubota.com/,Woodway,TX
Bacon Universal,jvila@baconuniversal.com,+18089358595,https://www.baconuniversal.com/,Kailua-Kona,HI
Oxon Hill Rentals,help@oxonhillrentals.com,+13012484555,https://www.oxonhillrentals.com/,Fort Washington,MD
Augusta Rental Inc,augustarental@gmail.com,+13167755050,https://www.augustarental.net/,Augusta,KS
Andy's Taylor True Value Rental,info@andysrental.com,+19044712991,https://taylorrentalstaug.com/,St. Augustine,FL
TIS Rents,info@trinityintegrated.net,+18888756194,https://tis-br.net/,Baton Rouge,LA
ABC Rental Sales & Service,info@abcwny.com,+17168037000,https://abcwnyrental.com/,Amherst,NY
"T & D Trailer Event Rentals (Shower, Toilets, Generators)",showerman805@gmail.com,+18059884476,https://trailereventrentals.com/,Oxnard,CA
Toolmaster Hawai‘i,info@toolmasterhawaii.com,+18082461000,https://www.toolmasterhawaii.com/,Lihue,HI
Sportsplex Rentals,info@sportsplexrentals.com,+14407770505,https://sportsplexrentals.com/,North Olmsted,OH
American Crane Inc,paycrane@yahoo.com,+18004522801,https://rentcrane.com/,Jonesboro,AR
American Crane Inc,office@rentcrane.com,+18004522801,https://rentcrane.com/,Jonesboro,AR
Ark Rentals,info@arkrentals.com,+15703661071,https://arkrentals.com/,Orwigsburg,PA
Rigs and Digs Rentals,info@osbornecontractors.com,+15043045578,https://www.rigsanddigsrentals.com/,New Orleans,LA
Bob's Rental Center,BobsRentalCenter@gmail.com,+15186743958,http://bobsrentalcenter.com/,West Sand Lake,NY
Hardin Rentals & Sales,chuck.hardin@gmail.com,+18282867871,https://www.hardin-rentals.com/,Forest City,NC
Solomons True Value,jord145@aol.com,+14103261000,https://solomonsgrandrental.com/,Solomons,MD
"Auburn Rental & Associates - Auburn, Alabama",Alicia@aurents.com,+13348001600,https://www.aurents.com/home,Auburn,AL
ASCO Equipment Inc.,info@asco.com,+18006870008,http://ascoeq.com/,Wichita Falls,TX
"Midwest Rentals, Inc.",rrayman@midwestrentalsinc.com,+17654235541,http://midwestrentalsinc.com/,Lafayette,IN
Taylor's Rental Center,taylorsrental@qwestoffice.net,+13039880493,https://www.taylorsrentalcenter.com/,Lakewood,CO
Chicago Street Rentals & Repair,csr1909rentals@gmail.com,+12177352422,https://chicagostreetrentalsandrepairllc.com/,Lincoln,IL
Bay Equipment Co,info@bayequipmentco.com,+19843567890,https://bayequip.com/,Newport News,VA
Bay Equipment Co,info@bayequipmentco.com,+19843567890,https://bayequip.com/,Chesapeake,VA
All Seasons Rental Equipment,randy@asrental.com,+17153862354,https://www.asrental.com/,Hudson,WI
Empower Rental Group,rent@renterg.com,+18884414374,https://renterg.com/,Russellville,KY
Empower Rental Group,fleetsales@renterg.com,+18884414374,https://renterg.com/,Russellville,KY
Empower Rental Group,rent@renterg.com,+18884414374,https://renterg.com/,Muscle Shoals,AL
Empower Rental Group,fleetsales@renterg.com,+18884414374,https://renterg.com/,Muscle Shoals,AL
Synergy Equipment Tampa Pumps,info@synergyequip.com,+18447963749,https://www.synergyequip.com/,Dover,FL
B & M Equipment Rental & Sales,rent@renterg.com,+18884414374,https://renterg.com/,Belleview,FL
B & M Equipment Rental & Sales,fleetsales@renterg.com,+18884414374,https://renterg.com/,Belleview,FL
Jamco International,rentals@jamco1.com,+18668485400,https://forkliftrentalsorlando.com/,Sanford,FL
Empower Rental Group,rent@renterg.com,+18884414374,https://renterg.com/,Louisville,KY
Empower Rental Group,fleetsales@renterg.com,+18884414374,https://renterg.com/,Louisville,KY
Lift Truck Service Center,sales@ltscforklift.com,+15015683330,http://lifttruckservicecenterinc.com/,Springdale,AR
High Reach Equipment Services,info@highreach.us,+19514712127,http://highreach.us/,Lake Elsinore,CA
Empower Rental Group,rent@renterg.com,+18884414374,https://renterg.com/,Smyrna,TN
Empower Rental Group,fleetsales@renterg.com,+18884414374,https://renterg.com/,Smyrna,TN
Empower Rental Group,rent@renterg.com,+18884414374,https://renterg.com/,Carrollton,GA
Empower Rental Group,fleetsales@renterg.com,+18884414374,https://renterg.com/,Carrollton,GA
Empower Rental Group,rent@renterg.com,+18884414374,https://renterg.com/,Conyers,GA
Empower Rental Group,fleetsales@renterg.com,+18884414374,https://renterg.com/,Conyers,GA
Empower Rental Group,rent@renterg.com,+18884414374,https://renterg.com/,Spartanburg,SC
Empower Rental Group,fleetsales@renterg.com,+18884414374,https://renterg.com/,Spartanburg,SC
"Lift Truck Service Center, Inc.",sales@ltscforklift.com,+15015683330,http://lifttruckservicecenterinc.com/,Van Buren,AR
Empower Rental Group,rent@renterg.com,+18884414374,https://renterg.com/,Decatur,AL
Empower Rental Group,fleetsales@renterg.com,+18884414374,https://renterg.com/,Decatur,AL
Empower Rental Group,rent@renterg.com,+18884414374,https://renterg.com/,Bainbridge,GA
Empower Rental Group,fleetsales@renterg.com,+18884414374,https://renterg.com/,Bainbridge,GA
Empower Rental Group,rent@renterg.com,+18884414374,https://renterg.com/,Gadsden,AL
Empower Rental Group,fleetsales@renterg.com,+18884414374,https://renterg.com/,Gadsden,AL
Harr's Fork Lift Services Inc,kohar@harrs-forklift.com,+16144434651,http://harrs-forklift.com/,Columbus,OH
Empower Rental Group,rent@renterg.com,+18884414374,https://renterg.com/,DeLand,FL
Empower Rental Group,fleetsales@renterg.com,+18884414374,https://renterg.com/,DeLand,FL
"M & L Industries, LLC",bpellegrin@mlind.net,+12253557716,https://mlind.net/,Houma,LA
"M & L Industries, LLC",hhannan@mlind.net,+12253557716,https://mlind.net/,Houma,LA
"M & L Industries, LLC",derekmatthews@mlind.net,+12253557716,https://mlind.net/,Houma,LA
"M & L Industries, LLC",rlindley@mlind.net,+12253557716,https://mlind.net/,Houma,LA
Lift Truck Service Center,sales@ltscforklift.com,+15015683330,http://lifttruckservicecenterinc.com/,Little Rock,AR
Empower Rental Group,rent@renterg.com,+18884414374,https://renterg.com/,Humboldt,TN
Empower Rental Group,fleetsales@renterg.com,+18884414374,https://renterg.com/,Humboldt,TN
Synergy Equipment,info@synergyequip.com,+18447963749,https://www.synergyequip.com/,North Charleston,SC
Synergy Equipment Corporate Office,info@synergyequip.com,+18447963749,https://www.synergyequip.com/,Tampa,FL
"Alexander Equipment Rental, Inc.",web@aerialliftequipment.com,+18159332122,https://www.aerialliftequipment.com/,Bourbonnais,IL
Lift Truck Service Center,sales@ltscforklift.com,+15015683330,http://lifttruckservicecenterinc.com/,Russellville,AR
Empower Rental Group,rent@renterg.com,+18884414374,https://renterg.com/,Lenoir City,TN
Empower Rental Group,fleetsales@renterg.com,+18884414374,https://renterg.com/,Lenoir City,TN
Empower Rental Group,rent@renterg.com,+18884414374,https://renterg.com/,Clermont,FL
Empower Rental Group,fleetsales@renterg.com,+18884414374,https://renterg.com/,Clermont,FL
Empower Rental Group,rent@renterg.com,+18884414374,https://renterg.com/,Tifton,GA
Empower Rental Group,fleetsales@renterg.com,+18884414374,https://renterg.com/,Tifton,GA
Empower Rental Group,rent@renterg.com,+18884414374,https://renterg.com/,Memphis,TN
Empower Rental Group,fleetsales@renterg.com,+18884414374,https://renterg.com/,Memphis,TN
Empower Rental Group,rent@renterg.com,+18884414374,https://renterg.com/,Adairsville,GA
Empower Rental Group,fleetsales@renterg.com,+18884414374,https://renterg.com/,Adairsville,GA
Village Rental,info@villagerental.com,+19378854420,http://villagerental.com/,Washington Township,OH
Quality Rental,info@qualityrental.com,+14017250970,https://qualityrental.com/,North Providence,RI
Noonan Equipment & Event Rental,info@grandrental.net,+12175467368,https://noonangrandrental.com/,Springfield,IL
Grand True Value Rental of Houma,pat@patsgrandrental.com,+19858763107,https://grandtruevaluela.com/,Houma,LA
"Bailey Rentals & Hardware, Inc.",baileysrentals@gmail.com,+19256343331,https://www.baileysrental.com/,Brentwood,CA
Taylor Rental Center of Ithaca,trcithaca@yahoo.com,+16072731807,https://taylorrentalvestal.com/,Ithaca,NY
Taylor Rental Center of Ithaca,trcvestal@yahoo.com,+16072731807,https://taylorrentalvestal.com/,Ithaca,NY
Green Acres Rental,brownwood@greenacresrental.com,+13256467779,https://greenacresrental.com/,Brownwood,TX
Taylor Rental Service & Sales,taylorrentalsallisaw@gmail.com,+19187902719,https://arklahomarental.com/,Sallisaw,OK
Rentalry by Luxe Atlanta Party Rentals,events@rentalry.com,+16782589369,https://www.rentalry.com/,Atlanta,GA
Rentalry by Luxe Atlanta Party Rentals,customerservice@rentalry.com,+16782589369,https://www.rentalry.com/,Atlanta,GA
Taylor Rental Center,taylornorwalk@hotmail.com,+12038380678,https://norwalktaylorrental.com/,Norwalk,CT
Rent-All Equipment,rent.all.eq@gmail.com,+18162383361,https://www.rentallsj.com/,St Joseph,MO
Mr. Funtastic’s Bouncy Houses,MrFuntasticLLC@gmail.com,+16082088262,https://mrfuntasticllc.com/,Madison,WI
AA Rental Center,aarc101@gmail.com,+16179238905,https://www.aarentalcenter.com/,Waltham,MA
Ross Rental Station,jcrossrental@gmail.com,+17164391161,https://www.rossrental.com/,Lockport,NY
Taylor Rental,taylorrentalavon2002@gmail.com,+14409343736,https://taylorrentalavon.com/,Avon,OH
Country Aire Rental Inc.,party@countryairerental.com,+12522474938,https://www.countryairerental.com/,New Bern,NC
Country Aire Rental Inc.,swanstool@countryairerental.com,+12522474938,https://www.countryairerental.com/,New Bern,NC
Broadview Rental,info@broadviewrental.com,+14405262152,https://broadviewrental.com/,Broadview Heights,OH
Taylor Rental Center,tentsbypaul@verizon.net,+14137738643,https://taylorrentalgreenfield.com/,Greenfield,MA
Fayette Rental Solutions,walt@frsrentals.com,+17244382032,https://www.frsrentals.com/,Uniontown,PA
Fayette Rental Solutions,frsrentals@gmail.com,+17244382032,https://www.frsrentals.com/,Uniontown,PA
Fayette Rental Solutions,gidget@frsrentals.com,+17244382032,https://www.frsrentals.com/,Uniontown,PA
Fayette Rental Solutions,lbaker15445@frsrentals.com,+17244382032,https://www.frsrentals.com/,Uniontown,PA
ABC Rental center,CJEHNERT@verizon.net,+14104854133,http://abcrentalmaryland.com/,Baltimore,MD
ABC Rental center,ABC.RENTAL@aol.com,+14104854133,http://abcrentalmaryland.com/,Baltimore,MD
ABC Rental center,RENTABC6502@gmail.com,+14104854133,http://abcrentalmaryland.com/,Baltimore,MD
Rental Express,RENTALS@rentaltime.com,+12312389696,https://www.rentaltime.com/,Indian River,MI
KIT-MO Rental & Supply Co.,kitmo@vci.net,+12704438243,https://www.kit-mo.com/,Paducah,KY
Peterson the Cat Rental Store,rjnelson@petersoncat.com,+15036790316,http://petersoncat.com/,Hillsboro,OR
Peterson the Cat Rental Store,contact@crescorent.com,+15036790316,http://petersoncat.com/,Hillsboro,OR
Peterson the Cat Rental Store,rjnelson@petersoncat.com,+15036790316,http://petersoncat.com/,Clackamas,OR
Peterson the Cat Rental Store,contact@crescorent.com,+15036790316,http://petersoncat.com/,Clackamas,OR
Mastclimbers LLC,mike@mastclimbers.com,+16786806730,https://www.mastclimbers.com/,Lithonia,GA
Mastclimbers LLC,bobby@mastclimbers.com,+16786806730,https://www.mastclimbers.com/,Lithonia,GA
Mastclimbers LLC,danny@mastclimbers.com,+16786806730,https://www.mastclimbers.com/,Lithonia,GA
Mastclimbers LLC,Dan@mastclimbers.com,+16786806730,https://www.mastclimbers.com/,Lithonia,GA
Mastclimbers LLC,info@mastclimbers.com,+16786806730,https://www.mastclimbers.com/,Lithonia,GA
Mastclimbers LLC,Carlos@mastclimbers.com,+16786806730,https://www.mastclimbers.com/,Lithonia,GA
"Scaffold Service, Inc",information@scafserv.com,+16516464600,https://www.scafserv.com/,St Paul,MN
"Prairie Supply, Inc.",contact@prairiesupply.com,+17012552420,https://www.prairiesupply.com/,West Fargo,ND
"Canby Rental & Equipment, Inc. (CRE)",admin@canbyrental.com,+15032667811,https://www.canbyrental.com/,Canby,OR
ABC RENTALS,sales@abcrentalequipment.com,+19543181947,http://abcrentalequipment.com/,Boynton Beach,FL
Legendary Land Works,info@legendarylandworks.com,+15127105450,http://legendarylandworks.com/,Cedar Creek,TX
Independent Studio Services - Georgia,acct.pennsylvania@issprops.com,+18189515600,https://issprops.com/,East Point,GA
Independent Studio Services - Georgia,hbilson@issprops.com,+18189515600,https://issprops.com/,East Point,GA
Independent Studio Services - Georgia,acct.newyork@issprops.com,+18189515600,https://issprops.com/,East Point,GA
Independent Studio Services - Georgia,acct.newmexico@issprops.com,+18189515600,https://issprops.com/,East Point,GA
Independent Studio Services - Georgia,greggbilson@issprops.com,+18189515600,https://issprops.com/,East Point,GA
Independent Studio Services - Georgia,vicky.chan@issprops.com,+18189515600,https://issprops.com/,East Point,GA
Independent Studio Services - Georgia,info@cohorts.co.uk,+18189515600,https://issprops.com/,East Point,GA
Independent Studio Services - Georgia,georgia@issprops.com,+18189515600,https://issprops.com/,East Point,GA
Independent Studio Services - Georgia,acct.illinois@issprops.com,+18189515600,https://issprops.com/,East Point,GA
Independent Studio Services - Georgia,acct.louisiana@issprops.com,+18189515600,https://issprops.com/,East Point,GA
Independent Studio Services - Georgia,highdesertblanks@gmail.com,+18189515600,https://issprops.com/,East Point,GA
Independent Studio Services - Georgia,acct.massachusetts@issprops.com,+18189515600,https://issprops.com/,East Point,GA
Independent Studio Services - Georgia,acct.texas@issprops.com,+18189515600,https://issprops.com/,East Point,GA
Independent Studio Services - Georgia,bryan@issprops.com,+18189515600,https://issprops.com/,East Point,GA
Independent Studio Services - Georgia,alex@issprops.com,+18189515600,https://issprops.com/,East Point,GA
Independent Studio Services - Georgia,rick@issprops.com,+18189515600,https://issprops.com/,East Point,GA
Independent Studio Services - Georgia,accounts@issprops.com,+18189515600,https://issprops.com/,East Point,GA
Independent Studio Services - Georgia,acct.arkansas@issprops.com,+18189515600,https://issprops.com/,East Point,GA
Independent Studio Services - Georgia,illinois@issprops.com,+18189515600,https://issprops.com/,East Point,GA
E-Z Rent-It Inc,info@ezrentit.com,+12708422526,https://ezrentit.com/,Bowling Green,KY
Jordan/Central Implement Co,sales@jordanimplement.com,+17609227232,http://jordanimplement.com/,Brawley,CA
Jordan Central Implement Co,sales@jordanimplement.com,+17609227232,http://jordanimplement.com/,El Centro,CA
"Contractors Supply, LLC",info@contractorssupplyllc.com,+12033233752,https://contractorssupplyllc.com/,Stamford,CT
Kasson Hardware Hank Rental $ Gifts,kassonhdw@kmtel.com,+15076342771,http://kassonhardwarehank.com/,Kasson,MN
Taylor True Value Rental of Weymouth,trc9586@gmail.com,+17813370793,https://taylorrentalweymouth.com/,Weymouth,MA
OK Hardware And Rental,mark@okhardwarestore.com,+17158245614,https://okhardwarestore.com/,Amherst,WI
"Washington Rental, Inc.",washrent@washrent.com,+13196537368,https://washrent.com/,Washington,IA
Grand True Value Rental Of Bloomfield,grsmfl@aol.com,+19737487000,https://grand-rental-station.com/,Bloomfield,NJ
Stone Equipment Co.,robby@stoneequipmentco.com,+19802024448,https://stoneequipmentco.com/,Montgomery,AL
Stone Equipment Co.,info@stoneequipmentco.com,+19802024448,https://stoneequipmentco.com/,Montgomery,AL
Stone Equipment Co.,liam@stoneequipmentco.com,+19802024448,https://stoneequipmentco.com/,Montgomery,AL
Stone Equipment Co.,jeff@stoneequipmentco.com,+19802024448,https://stoneequipmentco.com/,Montgomery,AL
Stone Equipment Co.,cory@stoneequipmentco.com,+19802024448,https://stoneequipmentco.com/,Montgomery,AL
Stone Equipment Co.,brandon@stoneequipmentco.com,+19802024448,https://stoneequipmentco.com/,Montgomery,AL
Stone Equipment Co.,austin@stoneequipmentco.com,+19802024448,https://stoneequipmentco.com/,Montgomery,AL
Stone Equipment Co.,sean@stoneequipmentco.com,+19802024448,https://stoneequipmentco.com/,Montgomery,AL
Stone Equipment Co.,ppayne@stoneequipmentco.com,+19802024448,https://stoneequipmentco.com/,Montgomery,AL
Stone Equipment Co.,zack@stoneequipmentco.com,+19802024448,https://stoneequipmentco.com/,Montgomery,AL
Stone Equipment Co.,josh@stoneequipmentco.com,+19802024448,https://stoneequipmentco.com/,Montgomery,AL
Stone Equipment Co.,cblackmon@stoneequipmentco.com,+19802024448,https://stoneequipmentco.com/,Montgomery,AL
Stone Equipment Co.,chad@stoneequipmentco.com,+19802024448,https://stoneequipmentco.com/,Montgomery,AL
Stone Equipment Co.,matt@stoneequipmentco.com,+19802024448,https://stoneequipmentco.com/,Montgomery,AL
Stone Equipment Co.,cferrell@stoneequipmentco.com,+19802024448,https://stoneequipmentco.com/,Montgomery,AL
Trusted Rentals,trshop@trustedrentals.llc,+16037631319,https://www.trustedrentalsnh.com/,Newport,NH
Allen Rental,mail@allenrental.co,+15418634385,https://allenrental.co/,Myrtle Creek,OR
Superior Rents Equipment Rental,tools@superiorrents.com,+13167227600,https://superiorrents.com/,Joplin,MO
Actionzone General Rental of DeRidder,actionzonerental@gmail.com,+13372213008,https://www.actionzonerental.com/,DeRidder,LA
Beehive Rental & Sales LLC,beehiverental@infowest.com,+14356286663,https://www.beehiverentalandsales.com/,St. George,UT
Taylor Rental Washington,taylorrentalwashington@verizon.net,+19086894666,https://taylorrentalwashington.com/,Washington,NJ
ValueMax Rentals,info@valuemaxrentals.com,+13238405390,https://valuemaxrentals.com/,Wilmington,CA
Atlantic Coast Aerial Equipment,info@atlanticcoastaerial.com,+17047544442,http://atlanticcoastaerial.com/,Rock Hill,SC
Diversified Fleet Management,sales@dfminc.com,+18155781051,https://www.dfminc.com/,McHenry,IL
Goss Rental Center,sales@gossrental.com,+17404542577,https://www.gossrental.com/,Zanesville,OH
"W T Equipment, Inc.",info@wtequipment.com,+15413181716,https://www.wtequipment.com/,Bend,OR
Stamford Tools & Equipment Rentals,info@stamfordtoolrentals.com,+14754192386,https://stamfordtoolrentals.com/,Stamford,CT
"Handy Andy Rent-A-Tool, Inc.",handyandyrental@aol.com,+12063675050,http://handyandyrentatool.com/,Seattle,WA
The Tool Shack,info@thetoolshack.com,+18509341700,https://www.thetoolshack.com/,Gulf Breeze,FL
Goldcoast Trailer & Equipment,goldcoasttrailer@gmail.com,+15615287306,https://goldcoasttrailer.com/,Boca Raton,FL
"Big Boy Trailer Rentals, LLC",bigboytrailerrentalsllc@gmail.com,+12107808515,https://www.bbtrailerrentals.com/,San Antonio,TX
Handy Equipment Rentals LLC,info@handyeqrents.com,+19205109272,https://www.handyeqrents.com/,Green Bay,WI
S&K Rentals,sandkhaulaway@gmail.com,+18037153700,https://sandkrental.com/,West Columbia,SC
Falcon Trailer Plus,falcontrailerplus@gmail.com,+17192573838,https://falcontrailerplus.com/,Peyton,CO
Rental Station,info@cleaverfarm.com,+16204316070,http://cleaverfarm.com/,Arkansas City,KS
BWM Professional Services,bwmpowerwashing@gmail.com,+19858590675,https://www.bwmproservicesllc.com/,Thibodaux,LA
EZ EXCAVATOR RENTALS,EZExcavatorRentals@gmail.com,+15035044600,https://www.ezexcavatorrentals.com/,Aurora,OR
Sage Equipment Rental,info@sageequipmentrental.com,+16127994969,https://sageequipmentrental.com/,Waconia,MN
Rental Station,info@cleaverfarm.com,+16204316070,http://cleaverfarm.com/,Chanute,KS
Madison Trailer Rentals LLC,madisontrailerrentals@gmail.com,+17279552705,https://madisontrailerrentals.com/,Hudson,FL
Lanning Automotive & Tire,lanningautomotive@att.net,+18123769837,https://www.lanningauto.com/,Columbus,IN
Superiorland Equipment & Tool Rental,info@superiorlandrental.com,+19062730963,https://superiorlandrental.com/,Gwinn,MI
Speed Services & Leasing LLC,Speed.Services.Leasing@gmail.com,+18122765460,https://speedservicesin.com/,Orleans,IN
Interstate Trailer Rentals,InterstateTrailerRentals@gmail.com,+18643817886,http://interstatetrailerrentals.com/,Inman,SC
T & T Trailer and Rental,TandTTrailer@gmail.com,+17154108086,https://www.tt-trailer.com/,Somerset,WI
Show Me Rents,showmerents@gmail.com,+14177770000,https://showmerents.com/,Bolivar,MO
Macon Rental Co.,Macon.Rental@hotmail.com,+18285248911,https://maconrentalco.com/,Franklin,NC
San Flea Beach Service,sanfleabeachservice@gmail.com,+18506284654,https://www.sanfleabeachservice.com/,Port St Joe,FL
Civil Supply Corp.,sales@civilent.com,+15163792861,http://civilsupplyny.com/,Westbury,NY
CCS Contractor Equipment & Supply - Huntley,info@ccs-ces.com,+16306152170,https://ccs-ces.com/,Huntley,IL
Construction Equipment and Supply,office@ces-co.net,+14195592939,https://ces-co.net/,Fremont,OH
Thompson Machinery,leads@tmcat.com,+18002283644,https://thompsonmachinery.com/,Thompson's Station,TN
Priority Airless Equipment,priorityairless1@gmail.com,+18184191425,https://www.priorityairlessequipment.com/,Los Angeles,CA
Atlantic Equipment,info@atlanticeq.com,+17812895764,https://atlanticeq.com/,Tampa,FL
Ziegler CAT New Hampton,media@zieglercat.com,+18003522812,https://www.zieglercat.com/,New Hampton,IA
Ziegler CAT Buhl,media@zieglercat.com,+18003522812,https://www.zieglercat.com/,Mountain Iron,MN
Ziegler CAT Crookston,media@zieglercat.com,+18003522812,https://www.zieglercat.com/,Crookston,MN
Ziegler CAT Postville,media@zieglercat.com,+18003522812,https://www.zieglercat.com/,Postville,IA
Ziegler CAT Altoona,media@zieglercat.com,+18003522812,https://www.zieglercat.com/,Altoona,IA
Ziegler Brainerd,media@zieglercat.com,+18003522812,https://www.zieglercat.com/,Brainerd,MN
Ziegler CAT Fort Dodger,media@zieglercat.com,+18003522812,https://www.zieglercat.com/,Fort Dodge,IA
Ziegler CAT St. Cloud,media@zieglercat.com,+18003522812,https://www.zieglercat.com/,St Cloud,MN
Ziegler CAT Sheldon,media@zieglercat.com,+18003522812,https://www.zieglercat.com/,Sheldon,IA
Ziegler CAT Duluth,media@zieglercat.com,+18003522812,https://www.zieglercat.com/,Duluth,MN
Ziegler CAT Bemidji,media@zieglercat.com,+18003522812,https://www.zieglercat.com/,Bemidji,MN
Ziegler Rental Shakopee 7950,media@zieglercat.com,+18003522812,https://www.zieglercat.com/,Shakopee,MN
Ziegler CAT Marshall,media@zieglercat.com,+18003522812,https://www.zieglercat.com/,Marshall,MN
Ziegler CAT Rochester,media@zieglercat.com,+18003522812,https://www.zieglercat.com/,Rochester,MN
Ziegler CAT Willmar,media@zieglercat.com,+18003522812,https://www.zieglercat.com/,Willmar,MN
Ziegler CAT Mankato,media@zieglercat.com,+18003522812,https://www.zieglercat.com/,Mankato,MN
Ziegler CAT Columbus,media@zieglercat.com,+18003522812,https://www.zieglercat.com/,Hugo,MN
Ziegler CAT Sioux City,media@zieglercat.com,+18003522812,https://www.zieglercat.com/,Sioux City,IA
Ziegler CAT Atlantic,media@zieglercat.com,+18003522812,https://www.zieglercat.com/,Atlantic,IA
Ziegler CAT Jackson,media@zieglercat.com,+18003522812,https://www.zieglercat.com/,Jackson,MN
Ziegler CAT Madison,media@zieglercat.com,+18003522812,https://www.zieglercat.com/,Madison,MN
Tractor Supply F & H,lakeozarkars@gmail.com,+16364627368,http://tractorsupplyfandh.com/,Moscow Mills,MO
Tractor Supply F & H,sandy@advancedrentalandservice.com,+16364627368,http://tractorsupplyfandh.com/,Moscow Mills,MO
Ziegler CAT Shakopee 8000,media@zieglercat.com,+18003522812,https://www.zieglercat.com/,Shakopee,MN
Ziegler Mason City,media@zieglercat.com,+18003522812,https://www.zieglercat.com/,Mason City,IA
Ziegler Minneapolis,media@zieglercat.com,+18003522812,https://www.zieglercat.com/,Bloomington,MN
Ziegler CAT Fergus Falls,media@zieglercat.com,+18003522812,https://www.zieglercat.com/,Fergus Falls,MN
Taylor True Value Rental,taylortruevaluerental@gmail.com,+16163928539,https://taylorrentalholland.com/,Holland,MI
A&J Rental,info@ajrentalinc.com,+13368387368,http://ajrentalinc.com/,Statesville,NC
"Grand Rental Station of Dickson City, PA",sales@grsrental.com,+15703834197,https://grsrental.com/,Scranton,PA
Rent-All Inc.,rentall@rent-all.com,+17127223928,https://rent-all.com/,Storm Lake,IA
All Around Rental Equipment and Party,info.allaroundrental@gmail.com,+18027487841,https://www.allaroundrental.com/,St Johnsbury,VT
"Grand Rental of Greeneville, TN",LeAnna@grandrental.net,+14236396160,https://rentfromgrs.com/,Greeneville,TN
Generation Building Center,contactus@generationhbc.com,+15077443120,https://generationhbc.com/,Lonsdale,MN
Taylor Rental North Kingstown,info@taylorrentalnk.com,+14012950016,https://taylorrentalnk.com/,North Kingstown,RI
Olde Earth Grand Rental Station,oldeearthrentals@gmail.com,+18144439130,https://oldeearthgrandrental.com/,Friedens,PA
True Value Rental (Plant City),lakeland@trc-tampa.com,+18137541587,https://truevaluerentaltampa.com/,Plant City,FL
True Value Rental (Plant City),brandon@trc-tampa.com,+18137541587,https://truevaluerentaltampa.com/,Plant City,FL
True Value Rental (Plant City),plantcity@trc-tampa.com,+18137541587,https://truevaluerentaltampa.com/,Plant City,FL
Aztec Rental Services,billing@aztecrentalservices.com,+17136811383,https://aztecrentalservices.com/,Houston,TX
Aztec Rental Services,service@aztecrentalservices.com,+17136811383,https://aztecrentalservices.com/,Houston,TX
Aztec Rental Services,info@aztecrentalservices.com,+17136811383,https://aztecrentalservices.com/,Houston,TX
Red Hat Rentals,bryan@redhatrentals.biz,+19036773850,https://grs.redhatrentals.com/,Palestine,TX
Capital City Rental,brianj@bobcatofames.com,+15152433353,https://capitalcityequipmentcompany.com/,Des Moines,IA
Quality Rental,info@qualityrental.com,+14017250970,https://qualityrental.com/,Pawtucket,RI
Taylor Rental Center,info@auburntaylorrental.com,+12609253000,http://taylorrentalusa.com/,Auburn,IN
Grand Equipment Rental,grandrental@yahoo.com,+19108922050,https://grandequipmentrental.com/,Clinton,NC
Grand Equipment Rental,grandequipmentrental@gmail.com,+19108922050,https://grandequipmentrental.com/,Clinton,NC
Rally Point Rentals,service@rallypointrentals.com,+17198451000,https://rallypointrentals.com/,Trinidad,CO
True Value Rental,lakeland@trc-tampa.com,+18137541587,https://truevaluerentaltampa.com/,Lakeland,FL
True Value Rental,brandon@trc-tampa.com,+18137541587,https://truevaluerentaltampa.com/,Lakeland,FL
True Value Rental,plantcity@trc-tampa.com,+18137541587,https://truevaluerentaltampa.com/,Lakeland,FL
Allstar Party Rental,party@allstarpartyrents.com,+19785378368,https://www.allstarpartyrents.com/,Leominster,MA
"Atha Equipment Rental & Sales, Inc.",athaequipmentrental@yahoo.com,+17702076041,https://www.atharental.com/,Monroe,GA
General Rental Center,GRC@general-rental-center.com,+17247766990,https://www.general-rental-center.com/,Cranberry Twp,PA
Grand Rental Station of Dupont,sales@grsrental.com,+15703834197,https://grsrental.com/,Avoca,PA
LittleBig Construction Equipment Rental & Hauling,info@littlebigequipment.com,+15104795711,https://littlebigequipment.com/,El Sobrante,CA
Honest Engine Equipment,honestengineinvoices@gmail.com,+19107919340,http://honestengineequipment.com/,Wilmington,NC
TWR Equipment,sales@twrequipment.com,+13059676700,http://twrequipment.com/,Medley,FL
Best Line Equipment / Bobcat of Mechanicsburg,sales@bestline.com,+18006792378,http://bestline.com/,Hampden Township,PA
Kat's Heavy Equipment Rental Inc,katsequipment@gmail.com,+17187777181,https://www.rentmymachine.com/,Staten Island,NY
"Reeco Rental and Supply, Inc.",info@reecorental.com,+19854482270,https://www.reecorental.com/,Thibodaux,LA
Wheeler Cat Rental Store,service@wheelercat.com,+18019740511,https://wheelercat.com/,West Valley City,UT
Wheeler Cat Rental Store,sales@wheelercat.com,+18019740511,https://wheelercat.com/,West Valley City,UT
Wheeler Cat Rental Store,rentals@wheelercat.com,+18019740511,https://wheelercat.com/,West Valley City,UT
Wheeler Cat Rental Store,info@wheelercat.com,+18019740511,https://wheelercat.com/,West Valley City,UT
Wheeler Cat Rental Store,parts@wheelercat.com,+18019740511,https://wheelercat.com/,West Valley City,UT
Community Rental Center,sales@bobcatofwestchester.com,+18558723604,https://www.bobcatofwestchester.com/,Milford,PA
Best Line Equipment / Bobcat of Shippensburg,sales@bestline.com,+18006792378,http://bestline.com/,Shippensburg,PA
Best Line Equipment,sales@bestline.com,+18006792378,http://bestline.com/,Lemont Furnace,PA
Durante Equipment,sales@duranteequip.com,+18009107368,http://duranteequip.com/,Hollywood,FL
AMECO,inquiry@ameco.com,+18642957800,http://ameco.com/,Pelham,AL
AMECO,inquiry@ameco.com,+18642957800,http://ameco.com/,Tyler,TX
RINO Equipment & Rental,Beth@rinorents.com,+18338797466,https://rinorents.com/,Indianapolis,IN
Best Line Equipment / Bobcat of Lehigh Valley,sales@bestline.com,+18006792378,http://bestline.com/,Allentown,PA
Wheeler Cat Rental Store,service@wheelercat.com,+18019740511,https://wheelercat.com/,Sandy,UT
Wheeler Cat Rental Store,sales@wheelercat.com,+18019740511,https://wheelercat.com/,Sandy,UT
Wheeler Cat Rental Store,rentals@wheelercat.com,+18019740511,https://wheelercat.com/,Sandy,UT
Wheeler Cat Rental Store,info@wheelercat.com,+18019740511,https://wheelercat.com/,Sandy,UT
Wheeler Cat Rental Store,parts@wheelercat.com,+18019740511,https://wheelercat.com/,Sandy,UT
Blakley Equipment,sales@blakleytree.com,+19146645500,https://blakleyequipment.com/,Mt Vernon,NY
Agrimerica Farm & Construction,staff@agrimerica-equip.com,+17708343276,https://agrimerica-equip.com/,Carrollton,GA
Able Tool & Equipment,info@abletool.net,+18602892020,https://abletool.net/,West Springfield,MA
M & N Construction Supply,info@mnconstructionsupply.com,+18885118113,http://mnconstructionsupply.com/,Raleigh,NC
M & N Construction Supply,weborders@mnconstructionsupply.com,+18885118113,http://mnconstructionsupply.com/,Raleigh,NC
Best Line Equipment / Bobcat of West Chester,sales@bestline.com,+18006792378,http://bestline.com/,West Chester,PA
"Advanced Geodetic Surveys, Inc.",sales@agsgps.com,+18775554680,https://agsgps.com/,Damon,TX
"Advanced Geodetic Surveys, Inc.",jkaman@agsgps.com,+18775554680,https://agsgps.com/,Damon,TX
"Advanced Geodetic Surveys, Inc.",pj@agsgps.com,+18775554680,https://agsgps.com/,Damon,TX
"Advanced Geodetic Surveys, Inc.",carla@agsgps.com,+18775554680,https://agsgps.com/,Damon,TX
"Advanced Geodetic Surveys, Inc.",bob@agsgps.com,+18775554680,https://agsgps.com/,Damon,TX
"Advanced Geodetic Surveys, Inc.",gmendez@agsgps.com,+18775554680,https://agsgps.com/,Damon,TX
Ohio Power Tool,sales@ohiopowertool.com,+18002424424,https://www.ohiopowertool.com/,Columbus,OH
"Southern Rental Services, LLC",info@southernrentalservicesllc.com,+13372779950,https://www.southernrentalservicesllc.com/,Youngsville,LA
Wheeler Cat Rental Store,service@wheelercat.com,+18019740511,https://wheelercat.com/,Pleasant Grove,UT
Wheeler Cat Rental Store,sales@wheelercat.com,+18019740511,https://wheelercat.com/,Pleasant Grove,UT
Wheeler Cat Rental Store,rentals@wheelercat.com,+18019740511,https://wheelercat.com/,Pleasant Grove,UT
Wheeler Cat Rental Store,info@wheelercat.com,+18019740511,https://wheelercat.com/,Pleasant Grove,UT
Wheeler Cat Rental Store,parts@wheelercat.com,+18019740511,https://wheelercat.com/,Pleasant Grove,UT
IronPower Industries Equipment,info@ironpowerindustries.com,+17863053641,https://ironpowerindustries.com/,Hialeah,FL
IronPower Industries Equipment,support@ironpowerindustries.com,+17863053641,https://ironpowerindustries.com/,Hialeah,FL
Arrow Construction Supply,info@asphaltsupply.net,+15099227847,https://arrowconstructionsupply.com/,Hayden,ID
Ramapo Tool Rental,Ramapotoolrental@gmail.com,+18454260088,https://ramapotoolrental.com/,Airmont,NY
Tool Rental Depot,trdstore@toolrentaldepot.com,+17046366400,https://toolrentaldepot.com/,Salisbury,NC
Best Line Equipment / Bobcat of Philadelphia,sales@bestline.com,+18006792378,http://bestline.com/,Warminster,PA
Wheeler Cat Rental Store,service@wheelercat.com,+18019740511,https://wheelercat.com/,Park City,UT
Wheeler Cat Rental Store,sales@wheelercat.com,+18019740511,https://wheelercat.com/,Park City,UT
Wheeler Cat Rental Store,rentals@wheelercat.com,+18019740511,https://wheelercat.com/,Park City,UT
Wheeler Cat Rental Store,info@wheelercat.com,+18019740511,https://wheelercat.com/,Park City,UT
Wheeler Cat Rental Store,parts@wheelercat.com,+18019740511,https://wheelercat.com/,Park City,UT
JJET Rental Sales & Service,info@jjetrental.com,+12179329033,https://www.jjetrental.com/,Casey,IL
"SES INSTRUMENT & FIELD SUPPLIES, LLC",janetD@forsurveying.com,+17134663363,https://forsurveying.com/,Houston,TX
Charleston Water Slides,contact@charlestonjumpcastles.com,+18439911497,https://charlestonjumpcastles.com/,Ladson,SC
Fun Day Rentals LLC,matt@fundayrentals.com,+17343680744,https://fundayrentals.com/,Chelsea,MI
"QUESCO - Quality Equipment Services Co, Inc",info@quesco.com,+16024378717,https://quesco.com/,Phoenix,AZ
Five Star Equipment,info@fivestarequipment.com,+15855451234,https://fivestarequipment.com/,Rochester,NY
Rushmore Equipment,troy@rushmoreequipment.com,+16054840995,https://www.rushmoreequipment.net/,Black Hawk,SD
Five Star Equipment,info@fivestarequipment.com,+15855451234,https://fivestarequipment.com/,Syracuse,NY
River Valley Tractor,RWallace@rivervalleytractor.com,+15018479043,https://rivervalleytractor.com/,Hope,AR
River Valley Tractor,tcarlow@rivervalleytractor.com,+15018479043,https://rivervalleytractor.com/,Hope,AR
River Valley Tractor,nathana@rivervalleytractor.com,+15018479043,https://rivervalleytractor.com/,Hope,AR
River Valley Tractor,tdickens@texarkanatractor.com,+15018479043,https://rivervalleytractor.com/,Hope,AR
River Valley Tractor,sotwell@rivervalleytractor.com,+15018479043,https://rivervalleytractor.com/,Hope,AR
River Valley Tractor,troberts@rivervalleytractor.com,+15018479043,https://rivervalleytractor.com/,Hope,AR
River Valley Tractor,fredi@rivervalleytractor.com,+15018479043,https://rivervalleytractor.com/,Hope,AR
River Valley Tractor,kkugler@rivervalleytractor.com,+15018479043,https://rivervalleytractor.com/,Hope,AR
River Valley Tractor,kwest@rivervalleytractor.com,+15018479043,https://rivervalleytractor.com/,Hope,AR
River Valley Tractor,cwhite@rivervalleytractor.com,+15018479043,https://rivervalleytractor.com/,Hope,AR
River Valley Tractor,Tdickens@rivervalleytractor.com,+15018479043,https://rivervalleytractor.com/,Hope,AR
Five Star Equipment,info@fivestarequipment.com,+15855451234,https://fivestarequipment.com/,Williamsport,PA
Five Star Equipment,info@fivestarequipment.com,+15855451234,https://fivestarequipment.com/,Kirkwood,NY