business_name,email,phone,website,city,state
Fitness Addiction,info@tennisaddiction.com,+16103631052,https://www.tennisaddiction.com/,Exton,PA
The Fitness Source,info@thefitnesssourcebigbear.com,+19098665300,https://thefitnesssourcebigbear.com/,Big Bear Lake,CA
TruFusion San Francisco,bluediamond@trufusion.com,+17025551234,https://new.trufusion.com/,San Francisco,CA
TruFusion San Francisco,stlouis@trufusion.com,+17025551234,https://new.trufusion.com/,San Francisco,CA
TruFusion San Francisco,sanfrancisco@trufusion.com,+17025551234,https://new.trufusion.com/,San Francisco,CA
TruFusion San Francisco,stlouisfoundry@trufusion.com,+17025551234,https://new.trufusion.com/,San Francisco,CA
TruFusion San Francisco,dubai@trufusion.com,+17025551234,https://new.trufusion.com/,San Francisco,CA
TruFusion San Francisco,bellevue@trufusion.com,+17025551234,https://new.trufusion.com/,San Francisco,CA
TruFusion San Francisco,houston@trufusion.com,+17025551234,https://new.trufusion.com/,San Francisco,CA
TruFusion San Francisco,info@trufusion.com,+17025551234,https://new.trufusion.com/,San Francisco,CA
TruFusion San Francisco,coralgables@trufusion.com,+17025551234,https://new.trufusion.com/,San Francisco,CA
TruFusion San Francisco,summerlin@trufusion.com,+17025551234,https://new.trufusion.com/,San Francisco,CA
TruFusion San Francisco,southaustin@trufusion.com,+17025551234,https://new.trufusion.com/,San Francisco,CA
TruFusion San Francisco,dallas@trufusion.com,+17025551234,https://new.trufusion.com/,San Francisco,CA
TruFusion San Francisco,ballardblocks@trufusion.com,+17025551234,https://new.trufusion.com/,San Francisco,CA
TruFusion San Francisco,weho@trufusion.com,+17025551234,https://new.trufusion.com/,San Francisco,CA
TruFusion San Francisco,denver@trufusion.com,+17025551234,https://new.trufusion.com/,San Francisco,CA
TruFusion San Francisco,universityvillage@trufusion.com,+17025551234,https://new.trufusion.com/,San Francisco,CA
TruFusion San Francisco,walnutcreek@trufusion.com,+17025551234,https://new.trufusion.com/,San Francisco,CA
TruFusion San Francisco,sanantonio@trufusion.com,+17025551234,https://new.trufusion.com/,San Francisco,CA
TruFusion San Francisco,eastern@trufusion.com,+17025551234,https://new.trufusion.com/,San Francisco,CA
Urban Fit Inc,info@urbanfitinc.com,+12676459139,https://urbanfitinc.com/,Hatfield,PA
Mindful Movement & Wellness,mindful.abq@gmail.com,+15054506087,https://mindful.pike13.com/pages/about-mindful,Albuquerque,NM
Commonwealth Sports Club,frontdesk@commonwealthsportsclub.com,+16172541711,http://commonwealthsportsclub.com/,Boston,MA
Instinct Muay Thai,instinctmuaythai@gmail.com,+17866933174,https://instinctmuaythai.com/,Miami,FL
"OMNE Martial Arts, Fitness & Wellness",contact@omnemma.com,+19293511258,https://omnemma.com/,New York,NY
Shape Shift Mind & Body formally VinYoga,Lauren@shiftstudioca.com,,https://www.vinyogacc.com/,Templeton,CA
Shape Shift Mind & Body formally VinYoga,Ali@shiftstudioca.com,,https://www.vinyogacc.com/,Templeton,CA
Musou Movement,Hello@musoumovement.com,+18642091418,https://musoumovement.com/,Greenville,SC
Chelsea Piers Fitness,fitness@chelseapiers.com,+12123366000,https://fitness.chelseapiers.com/,Brooklyn,NY
Chelsea Piers Fitness,fitness@chelseapiers.com,+12123366000,https://fitness.chelseapiers.com/,New York,NY
Chelsea Piers Fitness,fitness@chelseapiers.com,+12123366000,https://fitness.chelseapiers.com/,Brooklyn,NY
The Sporting Club at The Bellevue,memberservice@sportingclubbellevue.com,+12159859876,http://sportingclubbellevue.com/,Philadelphia,PA
The Sporting Club at The Bellevue,Join@sportingclubbellevue.com,+12159859876,http://sportingclubbellevue.com/,Philadelphia,PA
Studio EX Cycle & Group Fitness,studiogroupex@yahoo.com,+17748107912,http://studiogroupex.com/,Hyannis,MA
Freedom Fitness,info@freedomfitness.co,+13056762885,http://freedomfitness.co/,Miami,FL
Green Fitness Studio NYC,info@greenfitnessstudio.com,+13475990663,https://www.greenfitnessstudio.com/,Brooklyn,NY
Robert Wood Johnson Fitness & Wellness Center,newbrunswick@fitnessandwellness.org,+17328731222,https://rwjfitnesswellness.com/,New Brunswick,NJ
"The Mix Fitness Studios (River St., Depot Town location)",hello@the-mix-studios.com,+17348459105,https://the-mix-studios.com/,Ypsilanti,MI
Clubhaus Fitness,mitzi@clubhausfitness.com,+15019169587,https://www.clubhausfitness.com/,Little Rock,AR
Clubhaus Fitness,rush@clubhausfitness.com,+15019169587,https://www.clubhausfitness.com/,Little Rock,AR
Kate Green Pilates,kategreenpilates@gmail.com,+12196295554,https://kategreenpilates.com/,Crown Point,IN
Tribe Pilates,info@tribepilatesstudio.com,+13104056394,https://tribepilatesstudio.com/,Los Angeles,CA
Phoenix Athletica,info@phoenixathletica.com,+15702438880,https://phoenixathletica.com/,Pocono Summit,PA
Hackensack Meridian Fitness & Wellness,maywood@fitnessandwellness.org,+12018434422,https://hackensackmeridianfitness.com/,Maywood,NJ
Providence Health and Fitness,info@providencehealthandfitness.com,+19088980008,https://providencehealthandfitness.com/,New Providence,NJ
RWJ Fitness & Wellness Center,hamiltonfw@fitnessandwellness.org,+16095847600,https://rwjhamiltonwellness.com/,Hamilton Township,NJ
LiveMetta Pilates,huntingtonbeach@livemetta.com,+19498804936,https://livemetta.com/,Newport Beach,CA
LiveMetta Pilates,tustin@livemetta.com,+19498804936,https://livemetta.com/,Newport Beach,CA
LiveMetta Pilates,missionviejo@livemetta.com,+19498804936,https://livemetta.com/,Newport Beach,CA
LiveMetta Pilates,newportbeach@livemetta.com,+19498804936,https://livemetta.com/,Newport Beach,CA
LiveMetta Pilates,longbeach@livemetta.com,+19498804936,https://livemetta.com/,Newport Beach,CA
LiveMetta Pilates,lagunaniguel@livemetta.com,+19498804936,https://livemetta.com/,Newport Beach,CA
LiveMetta Pilates,orange@livemetta.com,+19498804936,https://livemetta.com/,Newport Beach,CA
LiveMetta Pilates,lagunabeach@livemetta.com,+19498804936,https://livemetta.com/,Newport Beach,CA
LiveMetta,huntingtonbeach@livemetta.com,+19498804936,https://livemetta.com/,Tustin,CA
LiveMetta,tustin@livemetta.com,+19498804936,https://livemetta.com/,Tustin,CA
LiveMetta,missionviejo@livemetta.com,+19498804936,https://livemetta.com/,Tustin,CA
LiveMetta,newportbeach@livemetta.com,+19498804936,https://livemetta.com/,Tustin,CA
LiveMetta,longbeach@livemetta.com,+19498804936,https://livemetta.com/,Tustin,CA
LiveMetta,lagunaniguel@livemetta.com,+19498804936,https://livemetta.com/,Tustin,CA
LiveMetta,orange@livemetta.com,+19498804936,https://livemetta.com/,Tustin,CA
LiveMetta,lagunabeach@livemetta.com,+19498804936,https://livemetta.com/,Tustin,CA
Len3a,3A@len3a.com,+13472485020,https://len3a.com/,Brooklyn,NY
LiveMetta,huntingtonbeach@livemetta.com,+19498804936,https://livemetta.com/,Orange,CA
LiveMetta,tustin@livemetta.com,+19498804936,https://livemetta.com/,Orange,CA
LiveMetta,missionviejo@livemetta.com,+19498804936,https://livemetta.com/,Orange,CA
LiveMetta,newportbeach@livemetta.com,+19498804936,https://livemetta.com/,Orange,CA
LiveMetta,longbeach@livemetta.com,+19498804936,https://livemetta.com/,Orange,CA
LiveMetta,lagunaniguel@livemetta.com,+19498804936,https://livemetta.com/,Orange,CA
LiveMetta,orange@livemetta.com,+19498804936,https://livemetta.com/,Orange,CA
LiveMetta,lagunabeach@livemetta.com,+19498804936,https://livemetta.com/,Orange,CA
Plank on Main: Pilates Yoga Barre,inquires@plankonmain.com,+18593197217,https://plankonmain.com/,Danville,KY
All About Kickboxing - Burbank/North hollywood,info@allaboutkickboxing.com,+18185881020,https://www.allaboutkickboxing.com/,North Hollywood,CA
Posh Cycling and Fitness,info@posh.fit,+17407857674,https://www.posh.fit/,College Park,MD
Flow Boxing Club,info@flowhollywood.com,+17863237431,https://www.flowhollywood.com/,Hollywood,FL
Tribe Pilates,info@tribepilatesstudio.com,+13104056394,https://tribepilatesstudio.com/,Studio City,CA
SBG Kalispell - Montana - Brazilian Jiu Jitsu - Martial Arts - Gym,info@sbgmontana.com,+14067527244,http://sbgkalispell.com/,Kalispell,MT
Daruma Yoga & Fitness,info@darumayogastudio.com,+15168721044,https://darumayogastudio.com/,Elmont,NY
Inspired Fitness,inspiredfitnessclub@icloud.com,+19706488356,http://inspiredfitnessclub.com/,Evergreen,CO
CoreFit Training Studio,liz@corefittraining.net,+16109043610,https://corefittraining.net/,Royersford,PA
THE BXNG CLUB East Village,artsdistrict@thebxngclub.com,+18587924008,https://www.thebxngclub.com/,San Diego,CA
THE BXNG CLUB East Village,kearnymesa@thebxngclub.com,+18587924008,https://www.thebxngclub.com/,San Diego,CA
THE BXNG CLUB East Village,Ranchobernardo@thebxngclub.com,+18587924008,https://www.thebxngclub.com/,San Diego,CA
THE BXNG CLUB East Village,solanabeach@thebxngclub.com,+18587924008,https://www.thebxngclub.com/,San Diego,CA
THE BXNG CLUB East Village,eastvillage@thebxngclub.com,+18587924008,https://www.thebxngclub.com/,San Diego,CA
clubX fitness - Coral Gables,info@clubxmiami.com,+13056673539,https://clubxmiami.com/,Coral Gables,FL
The Training Den Helena,thetrainingdenhelena@gmail.com,+14064224985,http://thetrainingdenhelena.com/,Helena,MT
Yogamore,admin@hotyogamore.com,+15093569642,https://www.hotyogamore.com/,Spokane,WA
LiveMetta Pilates and Yoga Laguna Niguel,huntingtonbeach@livemetta.com,+19498804936,https://livemetta.com/,Laguna Niguel,CA
LiveMetta Pilates and Yoga Laguna Niguel,tustin@livemetta.com,+19498804936,https://livemetta.com/,Laguna Niguel,CA
LiveMetta Pilates and Yoga Laguna Niguel,missionviejo@livemetta.com,+19498804936,https://livemetta.com/,Laguna Niguel,CA
LiveMetta Pilates and Yoga Laguna Niguel,newportbeach@livemetta.com,+19498804936,https://livemetta.com/,Laguna Niguel,CA
LiveMetta Pilates and Yoga Laguna Niguel,longbeach@livemetta.com,+19498804936,https://livemetta.com/,Laguna Niguel,CA
LiveMetta Pilates and Yoga Laguna Niguel,lagunaniguel@livemetta.com,+19498804936,https://livemetta.com/,Laguna Niguel,CA
LiveMetta Pilates and Yoga Laguna Niguel,orange@livemetta.com,+19498804936,https://livemetta.com/,Laguna Niguel,CA
LiveMetta Pilates and Yoga Laguna Niguel,lagunabeach@livemetta.com,+19498804936,https://livemetta.com/,Laguna Niguel,CA
Sanctuary Body,info@sanctuarybody.com,+14434383566,http://sanctuarybody.com/,Baltimore,MD
Club Northwest,join@clubnw.com,+15414724800,https://clubnw.com/,Grants Pass,OR
ABSolute Bliss,absoluteblissfitstudio@gmail.com,+18138126043,https://www.absoluteblissfitstudio.com/,Apollo Beach,FL
Quantum Health and Yoga Lounge,contact@quantumyogalounge.com,+13602301349,https://qhyogalounge.com/,Burlington,WA
McCall Pilates Studio,mccallpilates@gmail.com,+12083153730,https://mccallpilates.com/,McCall,ID
Studio 11 in Tremont,teamstudio11tremont@gmail.com,+12164723611,https://studio11tremont.com/index.html,Cleveland,OH
Peak Health and Wellness Center,tyler@peakgreatfalls.com,+14067277325,https://peakgreatfalls.com/,Great Falls,MT
Ken Pilates 1:1 (Private V.I.P studio),contact@kenpilates.com,+12016902565,https://www.kenpilates.com/,Hoboken,NJ
XL Fitness,matt@xlsportsworld.com,+18567785900,https://www.xlfitness.org/,Mt Laurel Township,NJ
RWJ Rahway Fitness & Wellness Center,scotchplains@fitnessandwellness.org,+19082326100,https://rwjrahwayfitness.com/,Scotch Plains,NJ
Tru Barre Studio-Medina,hello@tuckburnshake.com,+13306071272,https://trubarre.org/,Medina,OH
Conquest Mixed Martial Arts & Fitness,learn@bjjconquest.com,+14436689769,https://bjjconquest.com/,Millersville,MD
THE BXNG CLUB Solana Beach,artsdistrict@thebxngclub.com,+18587924008,https://www.thebxngclub.com/,Solana Beach,CA
THE BXNG CLUB Solana Beach,eastvillage@thebxngclub.com,+18587924008,https://www.thebxngclub.com/,Solana Beach,CA
THE BXNG CLUB Solana Beach,kearnymesa@thebxngclub.com,+18587924008,https://www.thebxngclub.com/,Solana Beach,CA
THE BXNG CLUB Solana Beach,Ranchobernardo@thebxngclub.com,+18587924008,https://www.thebxngclub.com/,Solana Beach,CA
THE BXNG CLUB Solana Beach,solanabeach@thebxngclub.com,+18587924008,https://www.thebxngclub.com/,Solana Beach,CA
Westside Yoga Fresno,info@westsideyogafresno.com,+15594205390,http://westsideyogafresno.com/,Fresno,CA
Thermal Horizons Yoga and Wellness Center,thermal@thermalhorizons.com,+16614765372,https://thermalhorizons.com/,Santa Clarita,CA
Bija Yoga and Wellness,bijayogawellness@gmail.com,+18013676867,https://www.bijayogawellness.com/,Orem,UT
Hot Yoga Carle Place,hotyogacarleplace@gmail.com,+15163856787,http://bikramyogacarleplace.com/,Carle Place,NY
Healthtrax Fitness & Wellness,info@healthtrax.com,+18005055000,https://www.healthtrax.com/,Bristol,CT
IconFit,info@iconfit.com,+13108368000,https://iconfit.com/,Los Angeles,CA
Whole Body 20 EMS Fitness,info@be-fit.io,+17034598790,https://wb20.io/,Ashburn,VA
Healthtrax Fitness & Wellness,info@healthtrax.com,+18005055000,https://www.healthtrax.com/,Garden City,NY
Katie Farrell Yoga & Pilates,katiefarrellyoga@gmail.com,,https://www.katiefarrellyoga.com/,McCook,NE
Nautilus Fitness Center,NautilusWV@gmail.com,+13047765115,https://wvfitnessgyms.com/,Charleston,WV
Max Fitness,info@maxfitnesswr.com,+14783135225,https://maxfitnesswr.com/,Warner Robins,GA
805 Get Fit,info@805getfit.com,+18054101390,https://www.805getfit.com/,Camarillo,CA
Jersey Strong Gym,info@jerseystrong.com,+17328567890,https://jerseystrong.com/,Wall Township,NJ
Boston Health and Wellness Physical Therapy,stoneham@bostonhealthwellness.com,+16178435320,https://bostonhealthwellness.com/,Stoneham,MA
IM=X Pilates & Fitness,info@imxpilates.com,+12129975550,https://www.imxpilates.com/,Gaithersburg,MD
NXGen Fitness Center,info@nxgenfitness.com,+12078832979,https://nxgenfitness.com/,Scarborough,ME
Fitness Unlimited for Women,info@fitnessunlimited.com,+16176980260,https://fitnessunlimited.com/,Milton,MA
Fitness Unlimited for Women,dmiller@fitnessunlimited.com,+16176980260,https://fitnessunlimited.com/,Milton,MA
Fitness Unlimited for Women,jcedrone@fitnessunlimited.com,+16176980260,https://fitnessunlimited.com/,Milton,MA
Fitness Unlimited for Women,cmccarthy@fitnessunlimited.com,+16176980260,https://fitnessunlimited.com/,Milton,MA
Fitness Unlimited for Women,jnagode@fitnessunlimited.com,+16176980260,https://fitnessunlimited.com/,Milton,MA
Fitness Unlimited for Women,alison@alisondoak.com,+16176980260,https://fitnessunlimited.com/,Milton,MA
Fitness Unlimited for Women,bwhitney@fitnessunlimited.com,+16176980260,https://fitnessunlimited.com/,Milton,MA
Inspired Fitness Training Center,info@inspired2befit.com,+17073296948,https://www.inspired2befit.com/,Sebastopol,CA
The GYM @ Milford,info@thegymmilford.com,+15082865900,https://www.thegymma.com/,Milford,MA
The GYM @ Milford,info@thegymnorton.com,+15082865900,https://www.thegymma.com/,Milford,MA
FITNESS PROJECT: Magnolia,Michelle.n@fitnessproject.us,+12814414653,https://fitnessproject.us/,Magnolia,TX
FITNESS PROJECT: Magnolia,Pam.f@fitnessproject.us,+12814414653,https://fitnessproject.us/,Magnolia,TX
FITNESS PROJECT: Magnolia,archie.h@fitnessproject.us,+12814414653,https://fitnessproject.us/,Magnolia,TX
FITNESS PROJECT: Magnolia,Neill.m@fitnessproject.us,+12814414653,https://fitnessproject.us/,Magnolia,TX
FITNESS PROJECT: Magnolia,canyon.b@fitnessproject.us,+12814414653,https://fitnessproject.us/,Magnolia,TX
Edge Family Fitness,dominic@edgefamilyfitness.com,+15038265758,https://edgefamilyfitness.com/,Wilsonville,OR
Xcel Fitness,contactus@xcelfitness.com,+18012749235,https://xcelfitness.com/,Holladay,UT
Healthtrax Fitness & Wellness,info@healthtrax.com,+18005055000,https://www.healthtrax.com/,Warwick,RI
CentraState Fitness & Wellness Center,centrastate@fitnessandwellness.org,+17328459400,https://centrastatefitness.com/,Freehold Township,NJ
Griffin Club Los Angeles,membership@griffinclubla.com,+13105586418,https://griffinclubla.com/,Los Angeles,CA
Healthtrax Fitness & Wellness,info@healthtrax.com,+18005055000,https://www.healthtrax.com/,Newington,CT
First Row Fitness,carrie@firstrowfitness.com,+17127963621,https://firstrowfitness.com/,Council Bluffs,IA
First Row Fitness,fit@firstrowfitness.com,+17127963621,https://firstrowfitness.com/,Council Bluffs,IA
FITNESS PROJECT: Conroe,Michelle.n@fitnessproject.us,+12814414653,https://fitnessproject.us/,Conroe,TX
FITNESS PROJECT: Conroe,Pam.f@fitnessproject.us,+12814414653,https://fitnessproject.us/,Conroe,TX
FITNESS PROJECT: Conroe,archie.h@fitnessproject.us,+12814414653,https://fitnessproject.us/,Conroe,TX
FITNESS PROJECT: Conroe,Neill.m@fitnessproject.us,+12814414653,https://fitnessproject.us/,Conroe,TX
FITNESS PROJECT: Conroe,canyon.b@fitnessproject.us,+12814414653,https://fitnessproject.us/,Conroe,TX
Crunch Fitness - South Marlboro,info@jerseystrong.com,+17328567890,https://jerseystrong.com/,Marlboro,NJ
ToddPilates Fitness North Austin,todd@toddpilates.com,+15126596740,https://www.toddpilates.com/,Austin,TX
Jersey Strong Gym,info@jerseystrong.com,+17328567890,https://jerseystrong.com/,Robbinsville Twp,NJ
Healthtrax Fitness & Wellness,info@healthtrax.com,+18005055000,https://www.healthtrax.com/,East Providence,RI
FITNESS PROJECT: Humble,Michelle.n@fitnessproject.us,+12814414653,https://fitnessproject.us/,Humble,TX
FITNESS PROJECT: Humble,Pam.f@fitnessproject.us,+12814414653,https://fitnessproject.us/,Humble,TX
FITNESS PROJECT: Humble,archie.h@fitnessproject.us,+12814414653,https://fitnessproject.us/,Humble,TX
FITNESS PROJECT: Humble,Neill.m@fitnessproject.us,+12814414653,https://fitnessproject.us/,Humble,TX
FITNESS PROJECT: Humble,canyon.b@fitnessproject.us,+12814414653,https://fitnessproject.us/,Humble,TX
Harbor Athletic Club,marketing@harborathletic.com,+16088316500,https://www.harborathletic.com/,Middleton,WI
Sag Harbor Gym,info@hamptonsgymcorp.com,+16312834770,https://www.hamptonsgymcorp.com/,Sag Harbor,NY
The Yoga Room of Montana,info@sbgmontana.com,+14067527244,http://sbgkalispell.com/,Kalispell,MT
Begin Pilates & Yoga,info@beginpilates.com,+14152618764,https://beginpilates.com/,Portland,OR
FITNESS PROJECT: The Woodlands,Michelle.n@fitnessproject.us,+12814414653,https://fitnessproject.us/,The Woodlands,TX
FITNESS PROJECT: The Woodlands,Pam.f@fitnessproject.us,+12814414653,https://fitnessproject.us/,The Woodlands,TX
FITNESS PROJECT: The Woodlands,archie.h@fitnessproject.us,+12814414653,https://fitnessproject.us/,The Woodlands,TX
FITNESS PROJECT: The Woodlands,Neill.m@fitnessproject.us,+12814414653,https://fitnessproject.us/,The Woodlands,TX
FITNESS PROJECT: The Woodlands,canyon.b@fitnessproject.us,+12814414653,https://fitnessproject.us/,The Woodlands,TX
Jersey Strong Gym,info@jerseystrong.com,+17328567890,https://jerseystrong.com/,Manalapan Township,NJ
Blue Moon Pilates,info@bluemoonpilates.com,+19498379999,https://bluemoonpilates.com/,Mission Viejo,CA
Healthtrax Fitness & Wellness,info@healthtrax.com,+18005055000,https://www.healthtrax.com/,East Greenwich,RI
FIT for YOU Fitness,fit4you.ms@yahoo.com,+15074587268,https://www.fityoubeyou.com/,Trempealeau,WI
Quality Fitness Mukilteo,info@qualityfitnessmukilteo.com,+14253475191,https://www.qualityfitnessmukilteo.com/,Mukilteo,WA
Bellaire Women's Fitness,leah@bellairewomensfitness.com,+17133033565,http://bellairewomensfitness.com/,Bellaire,TX
Holm Studio Personal Training & Group Fitness,HolmStudio@live.com,+16304442131,http://holmstudiofitness.com/,Geneva,IL
FitnessWise,info@fitnesswise.net,+13019869473,http://fitnesswise.net/,Bethesda,MD
FITNESS PROJECT: Kingwood,Michelle.n@fitnessproject.us,+12814414653,https://fitnessproject.us/,Kingwood,TX
FITNESS PROJECT: Kingwood,Pam.f@fitnessproject.us,+12814414653,https://fitnessproject.us/,Kingwood,TX
FITNESS PROJECT: Kingwood,archie.h@fitnessproject.us,+12814414653,https://fitnessproject.us/,Kingwood,TX
FITNESS PROJECT: Kingwood,Neill.m@fitnessproject.us,+12814414653,https://fitnessproject.us/,Kingwood,TX
FITNESS PROJECT: Kingwood,canyon.b@fitnessproject.us,+12814414653,https://fitnessproject.us/,Kingwood,TX
Annapolis Athletic Club,karen@annapolisathleticclub.com,+14432210000,https://www.clubaac.com/,Annapolis,MD
Annapolis Athletic Club,info@clubaac.com,+14432210000,https://www.clubaac.com/,Annapolis,MD
Clemson Fitness Company,martha@clemsonfitnesscompany.com,+18648105117,https://www.clemsonfitnesscompany.com/,Clemson,SC
Jersey Strong Gym,info@jerseystrong.com,+17328567890,https://jerseystrong.com/,Ocean Township,NJ
Healthtrax Fitness & Wellness,info@healthtrax.com,+18005055000,https://www.healthtrax.com/,North Dartmouth,MA
Omnibarre,info@omni-barre.com,+15127712427,https://omni-barre.com/,Cedar Park,TX
The Well Studio,hello@wellstudiodublin.com,+19259994320,http://wellstudiodublin.com/,Dublin,CA
Carmel Barre,info@carmelbarre.com,+18312389766,http://carmelbarre.com/,Carmel-By-The-Sea,CA
Moxie Women's Fitness,Help@dsfitnesscv.com,+15105839700,https://www.moxiecv.com/,Castro Valley,CA
Body Tech Total Fitness,bodytech.customerservice@gmail.com,+17084785054,https://bodytechtotalfitness.com/,Mokena,IL
Body Tech Total Fitness,info@bodytechtotalfitness.com,+17084785054,https://bodytechtotalfitness.com/,Mokena,IL
Body Tech Total Fitness,bodytechjoliet@gmail.com,+17084785054,https://bodytechtotalfitness.com/,Mokena,IL
Body Tech Total Fitness,bodytech2002@comcast.net,+17084785054,https://bodytechtotalfitness.com/,Mokena,IL
Jersey Strong Gym,info@jerseystrong.com,+17328567890,https://jerseystrong.com/,Old Bridge,NJ
Pulse Inferno,info@pulseinferno.com,+17037262718,https://www.pulseinferno.com/,Ashburn,VA
Nautilus Fitness Center Cross Lanes,NautilusWV@gmail.com,+13047765115,https://wvfitnessgyms.com/,Charleston,WV
BURN Fitness Studios,jcruz00@gmail.com,,http://burnfitboston.com/,Boston,MA
Vibez Studio,info@vibezstudio.com,+13478896987,https://www.vibezstudio.com/,Flushing,NY
Sana Vita Studio Pilates and Yoga,sanavitachicago@gmail.com,+13128298482,https://www.sanavitastudio.com/,Chicago,IL
Mid American Fitness,info@midamericanfit.com,+12484775248,https://midamericanfit.com/,Farmington Hills,MI
SS Pilates,SSPilatesOCMD@outlook.com,+14434960340,https://pilatesocmd.com/,Berlin,MD
"FLX33 ""More Than a Gym""",info@flx33.com,+13303835333,http://flx33.com/,Port St. Lucie,FL
The Z Spot Fitness Studio,zspotmichigan@gmail.com,+17348122272,https://zspotmichigan.com/index.html,Canton,MI
Balance for Life Fitness Center,bflfitness@msn.com,+16514159500,https://www.balanceforlifefitness.com/,Arden Hills,MN
Healthtrax Fitness & Wellness,info@healthtrax.com,+18005055000,https://www.healthtrax.com/,East Longmeadow,MA
PT Squared: Group Fitness and Personal Training,austin@ptsquaredfitness.com,+19016411315,https://ptsquaredfitness.com/,Collierville,TN
Princeton Fitness & Wellness,princeton@fitnessandwellness.org,+16096837888,https://princetonfitnessandwellness.com/,Princeton,NJ
The GYM @ Norton,info@thegymmilford.com,+15082865900,https://www.thegymma.com/,Norton,MA
The GYM @ Norton,info@thegymnorton.com,+15082865900,https://www.thegymma.com/,Norton,MA
PRO Club Seattle,websitesupport@proclub.com,+14258855566,http://proclub.com/,Seattle,WA
PRO Club Seattle,memberaccounts@proclub.com,+14258855566,http://proclub.com/,Seattle,WA
PRO Club Seattle,membership@proclub.com,+14258855566,http://proclub.com/,Seattle,WA
PRO Club Seattle,propulseads@proclub.com,+14258855566,http://proclub.com/,Seattle,WA
PRO Club Seattle,shop2020@2020lifestyles.com,+14258855566,http://proclub.com/,Seattle,WA
PRO Club Seattle,payroll@proclub.com,+14258855566,http://proclub.com/,Seattle,WA
PRO Club Seattle,procomments@proclub.com,+14258855566,http://proclub.com/,Seattle,WA
PRO Club Seattle,medbilling@proclub.com,+14258855566,http://proclub.com/,Seattle,WA
fit life,info@fitlifema.com,+17816623306,https://www.fitlifema.com/,Melrose,MA
TruFusion Coral Gables,bluediamond@trufusion.com,+17025551234,https://new.trufusion.com/,Coral Gables,FL
TruFusion Coral Gables,stlouis@trufusion.com,+17025551234,https://new.trufusion.com/,Coral Gables,FL
TruFusion Coral Gables,sanfrancisco@trufusion.com,+17025551234,https://new.trufusion.com/,Coral Gables,FL
TruFusion Coral Gables,stlouisfoundry@trufusion.com,+17025551234,https://new.trufusion.com/,Coral Gables,FL
TruFusion Coral Gables,dubai@trufusion.com,+17025551234,https://new.trufusion.com/,Coral Gables,FL
TruFusion Coral Gables,bellevue@trufusion.com,+17025551234,https://new.trufusion.com/,Coral Gables,FL
TruFusion Coral Gables,houston@trufusion.com,+17025551234,https://new.trufusion.com/,Coral Gables,FL
TruFusion Coral Gables,info@trufusion.com,+17025551234,https://new.trufusion.com/,Coral Gables,FL
TruFusion Coral Gables,coralgables@trufusion.com,+17025551234,https://new.trufusion.com/,Coral Gables,FL
TruFusion Coral Gables,summerlin@trufusion.com,+17025551234,https://new.trufusion.com/,Coral Gables,FL
TruFusion Coral Gables,southaustin@trufusion.com,+17025551234,https://new.trufusion.com/,Coral Gables,FL
TruFusion Coral Gables,dallas@trufusion.com,+17025551234,https://new.trufusion.com/,Coral Gables,FL
TruFusion Coral Gables,ballardblocks@trufusion.com,+17025551234,https://new.trufusion.com/,Coral Gables,FL
TruFusion Coral Gables,weho@trufusion.com,+17025551234,https://new.trufusion.com/,Coral Gables,FL
TruFusion Coral Gables,denver@trufusion.com,+17025551234,https://new.trufusion.com/,Coral Gables,FL
TruFusion Coral Gables,universityvillage@trufusion.com,+17025551234,https://new.trufusion.com/,Coral Gables,FL
TruFusion Coral Gables,walnutcreek@trufusion.com,+17025551234,https://new.trufusion.com/,Coral Gables,FL
TruFusion Coral Gables,sanantonio@trufusion.com,+17025551234,https://new.trufusion.com/,Coral Gables,FL
TruFusion Coral Gables,eastern@trufusion.com,+17025551234,https://new.trufusion.com/,Coral Gables,FL
Novalife Fitness,novalifeamy@gmail.com,+14255915113,http://novalifefitness.com/,Issaquah,WA
VIM,hello@vimstrong.com,+13074130441,https://www.vimstrong.com/,Jackson,WY
The M.A.C.,membership@the-mac.com,+13193777758,https://the-mac.com/,Cedar Rapids,IA
Rooted Soul Movement,info@rootedsoulmovement.com,+13104303687,https://rootedsoulmovement.com/,Corona Del Mar,CA
Jersey Strong Gym,info@jerseystrong.com,+17328567890,https://jerseystrong.com/,East Brunswick,NJ
Perfect Fit Health and Fitness,perfectfittm@gmail.com,+12078831770,https://perfectfithealthandfitness.com/?oo-step=true&wait-before-scraping=1000&save-html=false&save-markdown=true,Scarborough,ME
Clayton Health and Fitness,membership@claytonhealthandfitness.com,+17062120001,https://claytonhealthandfitness.com/,Clayton,GA
Crunch Fitness - Tinton Falls,info@jerseystrong.com,+17328567890,https://jerseystrong.com/,Tinton Falls,NJ
The Workout Company,wocoblono@hotmail.com,+13095306090,https://www.workoutcompanyblono.com/,Normal,IL
Unity Movement & Mindfulness,peacefullybalancedyogi@gmail.com,+18033893439,https://unitymovementmindfulness.com/,Stuart,FL
O Athletik,info@oathletik.com,+17133202450,https://www.oathletik.com/,Houston,TX
TruFusion Dallas,bluediamond@trufusion.com,+17025551234,https://new.trufusion.com/,Dallas,TX
TruFusion Dallas,stlouis@trufusion.com,+17025551234,https://new.trufusion.com/,Dallas,TX
TruFusion Dallas,sanfrancisco@trufusion.com,+17025551234,https://new.trufusion.com/,Dallas,TX
TruFusion Dallas,stlouisfoundry@trufusion.com,+17025551234,https://new.trufusion.com/,Dallas,TX
TruFusion Dallas,dubai@trufusion.com,+17025551234,https://new.trufusion.com/,Dallas,TX
TruFusion Dallas,bellevue@trufusion.com,+17025551234,https://new.trufusion.com/,Dallas,TX
TruFusion Dallas,houston@trufusion.com,+17025551234,https://new.trufusion.com/,Dallas,TX
TruFusion Dallas,info@trufusion.com,+17025551234,https://new.trufusion.com/,Dallas,TX
TruFusion Dallas,coralgables@trufusion.com,+17025551234,https://new.trufusion.com/,Dallas,TX
TruFusion Dallas,summerlin@trufusion.com,+17025551234,https://new.trufusion.com/,Dallas,TX
TruFusion Dallas,southaustin@trufusion.com,+17025551234,https://new.trufusion.com/,Dallas,TX
TruFusion Dallas,dallas@trufusion.com,+17025551234,https://new.trufusion.com/,Dallas,TX
TruFusion Dallas,ballardblocks@trufusion.com,+17025551234,https://new.trufusion.com/,Dallas,TX
TruFusion Dallas,weho@trufusion.com,+17025551234,https://new.trufusion.com/,Dallas,TX
TruFusion Dallas,denver@trufusion.com,+17025551234,https://new.trufusion.com/,Dallas,TX
TruFusion Dallas,universityvillage@trufusion.com,+17025551234,https://new.trufusion.com/,Dallas,TX
TruFusion Dallas,walnutcreek@trufusion.com,+17025551234,https://new.trufusion.com/,Dallas,TX
TruFusion Dallas,sanantonio@trufusion.com,+17025551234,https://new.trufusion.com/,Dallas,TX
TruFusion Dallas,eastern@trufusion.com,+17025551234,https://new.trufusion.com/,Dallas,TX
AME FITNESS,amefitness@gmail.com,,https://www.amefitness.com/,Ship Bottom,NJ
TruFusion Eastern,bluediamond@trufusion.com,+17025551234,https://new.trufusion.com/,Las Vegas,NV
TruFusion Eastern,stlouis@trufusion.com,+17025551234,https://new.trufusion.com/,Las Vegas,NV
TruFusion Eastern,sanfrancisco@trufusion.com,+17025551234,https://new.trufusion.com/,Las Vegas,NV
TruFusion Eastern,stlouisfoundry@trufusion.com,+17025551234,https://new.trufusion.com/,Las Vegas,NV
TruFusion Eastern,dubai@trufusion.com,+17025551234,https://new.trufusion.com/,Las Vegas,NV
TruFusion Eastern,bellevue@trufusion.com,+17025551234,https://new.trufusion.com/,Las Vegas,NV
TruFusion Eastern,houston@trufusion.com,+17025551234,https://new.trufusion.com/,Las Vegas,NV
TruFusion Eastern,info@trufusion.com,+17025551234,https://new.trufusion.com/,Las Vegas,NV
TruFusion Eastern,coralgables@trufusion.com,+17025551234,https://new.trufusion.com/,Las Vegas,NV
TruFusion Eastern,summerlin@trufusion.com,+17025551234,https://new.trufusion.com/,Las Vegas,NV
TruFusion Eastern,southaustin@trufusion.com,+17025551234,https://new.trufusion.com/,Las Vegas,NV
TruFusion Eastern,dallas@trufusion.com,+17025551234,https://new.trufusion.com/,Las Vegas,NV
TruFusion Eastern,ballardblocks@trufusion.com,+17025551234,https://new.trufusion.com/,Las Vegas,NV
TruFusion Eastern,weho@trufusion.com,+17025551234,https://new.trufusion.com/,Las Vegas,NV
TruFusion Eastern,denver@trufusion.com,+17025551234,https://new.trufusion.com/,Las Vegas,NV
TruFusion Eastern,universityvillage@trufusion.com,+17025551234,https://new.trufusion.com/,Las Vegas,NV
TruFusion Eastern,walnutcreek@trufusion.com,+17025551234,https://new.trufusion.com/,Las Vegas,NV
TruFusion Eastern,sanantonio@trufusion.com,+17025551234,https://new.trufusion.com/,Las Vegas,NV
TruFusion Eastern,eastern@trufusion.com,+17025551234,https://new.trufusion.com/,Las Vegas,NV
AME FITNESS,amefitness@gmail.com,,https://www.amefitness.com/,Ship Bottom,NJ
TruFusion Bellevue,bluediamond@trufusion.com,+17025551234,https://new.trufusion.com/,Bellevue,WA
TruFusion Bellevue,stlouis@trufusion.com,+17025551234,https://new.trufusion.com/,Bellevue,WA
TruFusion Bellevue,sanfrancisco@trufusion.com,+17025551234,https://new.trufusion.com/,Bellevue,WA
TruFusion Bellevue,stlouisfoundry@trufusion.com,+17025551234,https://new.trufusion.com/,Bellevue,WA
TruFusion Bellevue,dubai@trufusion.com,+17025551234,https://new.trufusion.com/,Bellevue,WA
TruFusion Bellevue,bellevue@trufusion.com,+17025551234,https://new.trufusion.com/,Bellevue,WA
TruFusion Bellevue,houston@trufusion.com,+17025551234,https://new.trufusion.com/,Bellevue,WA
TruFusion Bellevue,info@trufusion.com,+17025551234,https://new.trufusion.com/,Bellevue,WA
TruFusion Bellevue,coralgables@trufusion.com,+17025551234,https://new.trufusion.com/,Bellevue,WA
TruFusion Bellevue,summerlin@trufusion.com,+17025551234,https://new.trufusion.com/,Bellevue,WA
TruFusion Bellevue,southaustin@trufusion.com,+17025551234,https://new.trufusion.com/,Bellevue,WA
TruFusion Bellevue,dallas@trufusion.com,+17025551234,https://new.trufusion.com/,Bellevue,WA
TruFusion Bellevue,ballardblocks@trufusion.com,+17025551234,https://new.trufusion.com/,Bellevue,WA
TruFusion Bellevue,weho@trufusion.com,+17025551234,https://new.trufusion.com/,Bellevue,WA
TruFusion Bellevue,denver@trufusion.com,+17025551234,https://new.trufusion.com/,Bellevue,WA
TruFusion Bellevue,universityvillage@trufusion.com,+17025551234,https://new.trufusion.com/,Bellevue,WA
TruFusion Bellevue,walnutcreek@trufusion.com,+17025551234,https://new.trufusion.com/,Bellevue,WA
TruFusion Bellevue,sanantonio@trufusion.com,+17025551234,https://new.trufusion.com/,Bellevue,WA
TruFusion Bellevue,eastern@trufusion.com,+17025551234,https://new.trufusion.com/,Bellevue,WA
TruFusion Blue Diamond,bluediamond@trufusion.com,+17025551234,https://new.trufusion.com/,Las Vegas,NV
TruFusion Blue Diamond,stlouis@trufusion.com,+17025551234,https://new.trufusion.com/,Las Vegas,NV
TruFusion Blue Diamond,sanfrancisco@trufusion.com,+17025551234,https://new.trufusion.com/,Las Vegas,NV
TruFusion Blue Diamond,stlouisfoundry@trufusion.com,+17025551234,https://new.trufusion.com/,Las Vegas,NV
TruFusion Blue Diamond,dubai@trufusion.com,+17025551234,https://new.trufusion.com/,Las Vegas,NV
TruFusion Blue Diamond,bellevue@trufusion.com,+17025551234,https://new.trufusion.com/,Las Vegas,NV
TruFusion Blue Diamond,houston@trufusion.com,+17025551234,https://new.trufusion.com/,Las Vegas,NV
TruFusion Blue Diamond,info@trufusion.com,+17025551234,https://new.trufusion.com/,Las Vegas,NV
TruFusion Blue Diamond,coralgables@trufusion.com,+17025551234,https://new.trufusion.com/,Las Vegas,NV
TruFusion Blue Diamond,summerlin@trufusion.com,+17025551234,https://new.trufusion.com/,Las Vegas,NV
TruFusion Blue Diamond,southaustin@trufusion.com,+17025551234,https://new.trufusion.com/,Las Vegas,NV
TruFusion Blue Diamond,dallas@trufusion.com,+17025551234,https://new.trufusion.com/,Las Vegas,NV
TruFusion Blue Diamond,ballardblocks@trufusion.com,+17025551234,https://new.trufusion.com/,Las Vegas,NV
TruFusion Blue Diamond,weho@trufusion.com,+17025551234,https://new.trufusion.com/,Las Vegas,NV
TruFusion Blue Diamond,denver@trufusion.com,+17025551234,https://new.trufusion.com/,Las Vegas,NV
TruFusion Blue Diamond,universityvillage@trufusion.com,+17025551234,https://new.trufusion.com/,Las Vegas,NV
TruFusion Blue Diamond,walnutcreek@trufusion.com,+17025551234,https://new.trufusion.com/,Las Vegas,NV
TruFusion Blue Diamond,sanantonio@trufusion.com,+17025551234,https://new.trufusion.com/,Las Vegas,NV
TruFusion Blue Diamond,eastern@trufusion.com,+17025551234,https://new.trufusion.com/,Las Vegas,NV
Bay Club Redondo Beach,info.bcrv@bayclubs.com,+14154332200,https://www.bayclubs.com/,Redondo Beach,CA
Bay Club Redondo Beach,blair.hicks@bayclubs.com,+14154332200,https://www.bayclubs.com/,Redondo Beach,CA
Bay Club Redondo Beach,todd.mcwilliamssr@bayclubs.com,+14154332200,https://www.bayclubs.com/,Redondo Beach,CA
Bay Club Redondo Beach,katrina.lemmon@bayclubs.com,+14154332200,https://www.bayclubs.com/,Redondo Beach,CA
Bay Club Redondo Beach,info.bccv@bayclubs.com,+14154332200,https://www.bayclubs.com/,Redondo Beach,CA
Bay Club Redondo Beach,Laurie.Miner@bayclubs.com,+14154332200,https://www.bayclubs.com/,Redondo Beach,CA
Bay Club Redondo Beach,bayclubconnect@bayclubs.com,+14154332200,https://www.bayclubs.com/,Redondo Beach,CA
Bay Club Redondo Beach,info.bcsc@bayclubs.com,+14154332200,https://www.bayclubs.com/,Redondo Beach,CA
Bay Club Redondo Beach,info.bcssf@bayclubs.com,+14154332200,https://www.bayclubs.com/,Redondo Beach,CA
Bay Club Redondo Beach,david.holter@bayclubs.com,+14154332200,https://www.bayclubs.com/,Redondo Beach,CA
Bay Club Redondo Beach,cori.fanucchi@bayclubs.com,+14154332200,https://www.bayclubs.com/,Redondo Beach,CA
Bay Club Redondo Beach,info.bcsf@bayclubs.com,+14154332200,https://www.bayclubs.com/,Redondo Beach,CA
Bay Club Redondo Beach,info.bcpo@bayclubs.com,+14154332200,https://www.bayclubs.com/,Redondo Beach,CA
Bay Club Redondo Beach,justin.rose@bayclubs.com,+14154332200,https://www.bayclubs.com/,Redondo Beach,CA
Bay Club Redondo Beach,info.bcrs@bayclubs.com,+14154332200,https://www.bayclubs.com/,Redondo Beach,CA
Bay Club Redondo Beach,info.bcbt@bayclubs.com,+14154332200,https://www.bayclubs.com/,Redondo Beach,CA
Bay Club Redondo Beach,info.bcst@bayclubs.com,+14154332200,https://www.bayclubs.com/,Redondo Beach,CA
Bay Club Redondo Beach,info.bcg@bayclubs.com,+14154332200,https://www.bayclubs.com/,Redondo Beach,CA
Bay Club Redondo Beach,tony.allegre@bayclubs.com,+14154332200,https://www.bayclubs.com/,Redondo Beach,CA
Bay Club Redondo Beach,info.bccs@bayclubs.com,+14154332200,https://www.bayclubs.com/,Redondo Beach,CA
Bay Club Redondo Beach,dawn.latreille@bayclubs.com,+14154332200,https://www.bayclubs.com/,Redondo Beach,CA
Bay Club Redondo Beach,info.bcm@bayclubs.com,+14154332200,https://www.bayclubs.com/,Redondo Beach,CA
Bay Club Redondo Beach,concierge@bayclubs.com,+14154332200,https://www.bayclubs.com/,Redondo Beach,CA
Bay Club Redondo Beach,james.lent@bayclubs.com,+14154332200,https://www.bayclubs.com/,Redondo Beach,CA
Bay Club Redondo Beach,nicole.rodman@bayclubs.com,+14154332200,https://www.bayclubs.com/,Redondo Beach,CA
Wicker Park Fitness,info@wickerparkfitness.com,+17732788700,https://www.wickerparkfitness.com/,Chicago,IL
Odyssey Training Center San Diego,info@odysseytcsd.com,+16197016793,https://odysseytcsd.com/,San Diego,CA
Somameta Pilates,somametapilates@icould.com,+18325155837,https://www.somametapilates.com/,Cypress,TX
HeartWaves Creative Well-Being Center,info@heartwavesstudio.com,+15074730002,https://www.heartwavesstudio.com/,Albert Lea,MN
Tuck Barre & Yoga,tuckbarreyoga@gmail.com,+16105533670,http://tuckbarreyoga.com/,Philadelphia,PA
Core 7 Fitness,core7fitness@gmail.com,+18016414938,https://www.core7fitness.com/,Sandy,UT
Studio Physique,info@studio-physique.com,+17274213424,https://studiophysique.com/,St. Petersburg,FL
Gyrotonic Millbrook,millbrookmovementwellness@gmail.com,+19142032707,https://gyrotonicmillbrook.com/,Millbrook,NY
Rescue Yoga,rescueyoga@gmail.com,+19728005819,https://rescueyoga.com/,Carrollton,TX
Vibe 28,Hello@vibe28.com,+17022720142,https://vibe28.com/,Henderson,NV
Salsa City Studio,info@salsacityfitness.com,+19378757082,https://www.salsacityfitness.com/,Troy,OH
The Good Life Fitness Studio,jointhegoodlife10@gmail.com,,https://www.thegoodlifefitnessstudio.com/,Randolph,NJ
2D FIT aka 2D POLE FIT,dawn@2dpolefit.com,+13012037653,http://2dfit.life/,Fort Washington,MD
Studio NiaMoves,info@niamoves.com,+17138644260,https://niamoves.com/index.html,Houston,TX
MVEMENT,info@mvement.com,+12142146831,https://mvement.com/,Dallas,TX
All N 1 Fitness,corporate@alln1fitness.com,+13148211144,http://alln1fitness.com/,St. Louis,MO
Rocky Mountain Sports Club,hello@rockymountainsportsclub.com,+17202880048,https://rockymountainsportsclub.com/,Broomfield,CO
United Athletics Fitness,brit@united-athletics.com,+17177781151,https://www.unitedathleticsfitness.com/,Littlestown,PA
Tennis Addiction Sports Club,info@tennisaddiction.com,+16103631052,https://www.tennisaddiction.com/,Exton,PA
FIT House Davis,info@fithousedavis.com,+15307579295,https://www.fithousedavis.com/,Davis,CA
10 Star Fitness,10Star@10starfitness.com,+18642882667,https://10starfitness.com/,Spartanburg,SC
"Fitness At Socal - Infrared Hot Yoga, CycleFIT & WarriorFIT",info@fitnessatsocal.com,+19514612121,https://fitnessatsocal.com/,Murrieta,CA
"JCC Fitness, Gym, Pool & Sports Leagues",info@lfjcc.org,+18583621178,https://www.lfjcc.org/,La Jolla,CA
Wanessa Anderson,wanrhythmfitness@gmail.com,+12037887818,https://www.wrhythmfitness.com/,Kent,CT
Lisa Spring Studio,info@lisaspring-studio.com,+13125690766,https://www.lisaspring-studio.com/,Chicago,IL
Lakeshore Sport & Fitness,memberservices@lakeshoresf.com,+13128561111,https://lakeshoresf.com/,Chicago,IL
Lakeshore Sport & Fitness,ICMembership@lakeshoresf.com,+13128561111,https://lakeshoresf.com/,Chicago,IL
Wheaton Sport Center,kmartin@wheatonsportcenter.com,+16303155338,http://wheatonsportcenter.com/,Wheaton,IL
Wheaton Sport Center,mspearman@wheatonsportcenter.com,+16303155338,http://wheatonsportcenter.com/,Wheaton,IL
Wheaton Sport Center,aquatics@wheatonsportcenter.com,+16303155338,http://wheatonsportcenter.com/,Wheaton,IL
Wheaton Sport Center,ajury@wheatonsportcenter.com,+16303155338,http://wheatonsportcenter.com/,Wheaton,IL
Indianapolis Healthplex,info@indianapolishealthplex.com,+13179207400,http://indianapolishealthplex.com/,Indianapolis,IN
Norwell Athletic Club,info@norwellathleticclub.com,+17816596565,https://www.norwellathleticclub.com/,Norwell,MA
Auburn Fit1,auburnfit1staff@gmail.com,+15308203513,https://auburnfit1.com/,Auburn,CA
Healthworks Coolidge Corner,info@healthworksfitness.com,+16177313030,https://healthworksfitness.com/,Brookline,MA
Moxie Fitness,moxiefitnesswv@gmail.com,+16814278403,https://www.moxiefitnesswv.com/,Scott Depot,WV
Aptitude Fitness + Yoga,aptituderock@gmail.com,+16167234420,https://www.aptituderock.com/,Rockford,MI
Forrest Pilates Inc.,info@forrestpilates.com,+13056062448,https://www.forrestpilates.com/,Miami,FL
The Suite Studio,info@thesuitestudio.fit,+16037499246,https://www.thesuitestudio.fit/,Dover,NH
Body Tech Total Fitness,bodytech.customerservice@gmail.com,+17084785054,https://bodytechtotalfitness.com/,Joliet,IL
Body Tech Total Fitness,info@bodytechtotalfitness.com,+17084785054,https://bodytechtotalfitness.com/,Joliet,IL
Body Tech Total Fitness,bodytechjoliet@gmail.com,+17084785054,https://bodytechtotalfitness.com/,Joliet,IL
Body Tech Total Fitness,bodytech2002@comcast.net,+17084785054,https://bodytechtotalfitness.com/,Joliet,IL
Enforma Wellness,sales@enformasayulita.com,+14157226716,https://enformawellness.com/,Oakland,CA
The Zen Wellness Company,thezenwellnessco@gmail.com,+18125525900,http://thezenwellnessco.com/,Columbus,IN
Core 24 Gym,Kory@core24gvl.com,+18648860911,https://www.core24gym.com/,Seneca,SC
Reform Fitness - Pilates - Barre - Yoga,reformfitnessla@gmail.com,+12259075959,https://www.reformfitnessprairieville.com/,Prairieville,LA
Medford Fitness,info@medfordfitness.com,+16096541440,https://www.medfordfitness.com/,Medford,NJ
Bodyshop Fitness + Wellness,getfit@bodyshop.fit,+16512430960,https://bodyshop.fit/,St Paul,MN
Studio V Pilates & Fitness,info@studiovpilates.com,+12098822550,https://studiovpilates.com/,Modesto,CA
MB Fit Studio,info@mbfitstudio.com,+18582151161,https://mbfitstudio.com/?oo-step=true&wait-before-scraping=1000&save-html=false&save-markdown=true,Solana Beach,CA
Wilkes Express YMCA,memberservice@ymcanwnc.org,+13367778055,https://ymcanwnc.org/,North Wilkesboro,NC
Wilkes Express YMCA,k.geddings@ymcanwnc.org,+13367778055,https://ymcanwnc.org/,North Wilkesboro,NC
Club Greenwood,membership@clubgreenwood.com,+17208382518,https://clubgreenwood.com/,Greenwood Village,CO
Club Greenwood,businessoffice@clubgreenwood.com,+17208382518,https://clubgreenwood.com/,Greenwood Village,CO
Full Circle Fitness,info@fcfitness.com,+16572316207,https://fcfitness.com/,Tustin,CA
FIT with LIT,fitwithlit@gmail.com,+17147876135,https://fitwithlit.com/,Newport Beach,CA
Art of Pilates LI,huntington@artofpilatesli.com,+16314273200,https://artofpilatesli.com/,Greenvale,NY
Art of Pilates LI,greenvale@artofpilatesli.com,+16314273200,https://artofpilatesli.com/,Greenvale,NY
Elan Health & Fitness Center,elanfitnesscenter@gmail.com,+14154851945,http://elanfitness.com/,San Anselmo,CA
Fulton Family YMCA,memberservice@ymcanwnc.org,+13367778055,https://ymcanwnc.org/,Winston-Salem,NC
Fulton Family YMCA,k.geddings@ymcanwnc.org,+13367778055,https://ymcanwnc.org/,Winston-Salem,NC
LiveFIT,info@livefitperrysburg.com,+14194828175,https://livefitperrysburg.com/,Perrysburg,OH
10 Star Fitness,10Star@10starfitness.com,+18642882667,https://10starfitness.com/,Anderson,SC
Murphy Health & Fitness,membership@murphyhealthandfitness.com,+18282147241,https://murphyhealthandfitness.com/,Murphy,NC
Momentum Fitness,info@momentumfitnessnyc.com,+19174263492,https://www.momentumfitnessnyc.com/,New York,NY
All Sport Health & Fitness,info@allsporthealthandfitness.com,+18458965678,https://allsporthealthandfitness.com/,Fishkill,NY
Jerry Long Family YMCA,memberservice@ymcanwnc.org,+13367778055,https://ymcanwnc.org/,Clemmons,NC
Jerry Long Family YMCA,k.geddings@ymcanwnc.org,+13367778055,https://ymcanwnc.org/,Clemmons,NC
Spa 23 Fitness and Lifestyle,spa23@spa23.com,+19738398823,https://spa23.com/,Pompton Plains,NJ
Woodside,communications@clubwoodside.com,+19138310322,http://clubwoodside.com/,Westwood,KS
Woodside,tdavila@clubwoodside.com,+19138310322,http://clubwoodside.com/,Westwood,KS
Woodside,dgary@clubwoodside.com,+19138310322,http://clubwoodside.com/,Westwood,KS
Woodside,tzahner@clubwoodside.com,+19138310322,http://clubwoodside.com/,Westwood,KS
Woodside,memberbilling@clubwoodside.com,+19138310322,http://clubwoodside.com/,Westwood,KS
Woodside,jbeane@clubwoodside.com,+19138310322,http://clubwoodside.com/,Westwood,KS
Woodside,cnoni@clubwoodside.com,+19138310322,http://clubwoodside.com/,Westwood,KS
Woodside,jrush@clubwoodside.com,+19138310322,http://clubwoodside.com/,Westwood,KS
10 Star Fitness,10Star@10starfitness.com,+18642882667,https://10starfitness.com/,Greenville,SC
PilatesWorks,info@pilatesworksnyc.com,+17184828300,https://www.pilatesworksnyc.com/,Long Island City,NY
The M.A.C. Xtreme,membership@the-mac.com,+13193777758,https://the-mac.com/,Cedar Rapids,IA
the movement,themovementbycf@gmail.com,+16094567941,https://themovementbycf.com/,Allentown,NJ
Salty AF Pilates,info@saltyafpilates.com,+14076205878,https://www.saltyafpilates.com/,Sanford,FL
Kathy Klein Core Fitness,katklein.yoga@gmail.com,+16502691111,http://katklein.net/,Sunnyvale,CA
Clubhaus Fitness @ Mount Sequoyah,mitzi@clubhausfitness.com,+15019169587,https://www.clubhausfitness.com/,Fayetteville,AR
Clubhaus Fitness @ Mount Sequoyah,rush@clubhausfitness.com,+15019169587,https://www.clubhausfitness.com/,Fayetteville,AR
Chi Hive Gym + Wellness,info@thechihive.com,+18452525400,https://www.thechihive.com/,Narrowsburg,NY
Mojo Fit Studios,info@mojofitstudios.com,+14342222222,https://mojofitstudios.com/,West Fargo,ND
Tides Yoga Studio,tidesyogastudio@hotmail.com,+19072529506,https://www.tidesyogastudio.com/,Kenai,AK
Fly Body Fitness,flybodyfitnessmn@gmail.com,+17634633395,http://flybodyfitness.com/,St Louis Park,MN
BellaVita: Fitness & Wellness,info@bellavitaworld.com,+19177222378,http://bellavitaworld.com/,New York,NY
The Mine,info@themine.fit,+14439666463,https://themine.fit/,Towson,MD
Advanced Training Fitness and Yoga,info@advanced1on1training.com,+16147383478,https://advanced1on1training.com/,Canal Winchester,OH
"William G. White, Jr. Family YMCA",memberservice@ymcanwnc.org,+13367778055,https://ymcanwnc.org/,Winston-Salem,NC
"William G. White, Jr. Family YMCA",k.geddings@ymcanwnc.org,+13367778055,https://ymcanwnc.org/,Winston-Salem,NC
Wilkes Family YMCA,memberservice@ymcanwnc.org,+13367778055,https://ymcanwnc.org/,Wilkesboro,NC
Wilkes Family YMCA,k.geddings@ymcanwnc.org,+13367778055,https://ymcanwnc.org/,Wilkesboro,NC
Wings Fitness,info@wingsfitness.com,+17324494244,https://wingsfitness.com/,Sea Girt,NJ
Art of Pilates LI,huntington@artofpilatesli.com,+16314273200,https://artofpilatesli.com/,Huntington,NY
Art of Pilates LI,greenvale@artofpilatesli.com,+16314273200,https://artofpilatesli.com/,Huntington,NY
Littleton Family YMCA,info@denverymca.org,+13039961000,https://denverymca.org/,Littleton,CO
CACFit,service@cacfit.com,+15308851964,https://cacfit.com/,Auburn,CA
Center for Health & Fitness,chfnews@bchd.org,+13103743426,https://beachcitiesgym.org/,Redondo Beach,CA
EveryoneFitness,info@everyonefitness.com,+13022264653,http://everyonefitness.com/,Rehoboth Beach,DE
Studio 108: Body | Mind | Soul,namaste@studio108.net,+12164407410,https://www.studio108.net/,Independence,OH
Inner Balance Mind Body Studio,info@innerbalancemindbody.com,+17863833088,https://www.innerbalancemindbody.com/,North Miami,FL
New Strength Adaptive Fitness,newstrengthinfo@gmail.com,+16828003153,https://www.newstrengthgym.com/,Arlington,TX
Rondeau's Kickboxing and Fitness,info@rkblive.com,+14019965425,https://rkblive.com/,Johnston,RI
The Rec Center Medford,strongerversion@gmail.com,+17157484300,https://www.strongerversionfitness.com/,Medford,WI
Reform Pilates,reformlex@gmail.com,+18592306059,https://www.reformlex.com/,Lexington,KY
The Spot & Spot Stretch'd,thespotbg326@gmail.com,+12709044019,https://www.thespotbg.com/,Bowling Green,KY
SBG Whitefish - Brazilian Jiu Jitsu - Martial Arts - Gym,info@sbgnorth.com,+14068627244,https://sbgwhitefish.com/,Whitefish,MT
LFG Fitness - Life Fitness Goals,info@lfgfitnessnh.com,+16034585899,https://lfgfitnessnh.com/,Salem,NH
House of Champions Academy of Martial Arts,info@houseofchampions.com,+18189967180,https://houseofchampions.com/,Van Nuys,CA
Oceanside Athletic Club,oceansideathleticclubgm@gmail.com,+17609817273,https://oceansideathleticclub.com/,Oceanside,CA
Pier To Point Wellness & Spa,thrive@piertopointwellness.com,+16197629642,https://piertopointwellness.com/,San Diego,CA
Insumataq Studio,oyjourney.co@gmail.com,+17077249522,https://oyjourney.com/,Auburn,CA
The Cocuun,hello@thecocuun.com,+18122879942,https://thecocuun.com/,Bloomington,IN
West Coast Sweat Hermosa Beach,hello@westcoastsweat.com,+15626500538,https://www.westcoastsweat.com/,Hermosa Beach,CA
PhysioFit Physical Therapy & Wellness,info@physiofitpt.com,+16509478500,https://physiofitpt.com/,Los Altos,CA
Greenport Pilates Yoga and Wellness Corp,info@greenportpyw.com,+16314776011,https://www.greenportpyw.com/,Greenport,NY
rhythms community studio,hello@rhythmspdx.com,+15032985088,https://rhythmspdx.com/,Portland,OR
Orlando Hot Yoga and Pilates,info@orlandohotyoga.com,+14072380755,https://orlandohotyoga.com/,Orlando,FL
New Steps Dance & Fitness Center,info@newstepsdanceandfitnesscenter.com,+18604021993,https://www.newstepsdanceandfitnesscenter.com/,Glastonbury,CT
Luxury Wellness Studio,luxurywellstudio@gmail.com,+13362703762,https://www.luxurywellstudio.com/,Haw River,NC
Dryp Yoga & Pilates formerly BYB Yoga & Pilates,info@drypyogaburlington.com,+17812722129,https://drypyogaburlington.com/,Burlington,MA
Hot Yoga Auburn,samgoldm@gmail.com,+15088329642,https://www.hotyogaauburn.com/,Auburn,MA
Amrita Yoga and Wellness,heather@amritayogawellness.com,+12156007544,https://amritayogawellness.com/,Philadelphia,PA
Amrita Yoga and Wellness,info@amritayogawellness.com,+12156007544,https://amritayogawellness.com/,Philadelphia,PA
Studio Thirty A,studiothirtya@gmail.com,+18503592727,https://yogastudio30a.com/,Santa Rosa Beach,FL
Barre Forward - Barre Studio in Annapolis/Severna Park area,Megan@barreforward.com,+14108819019,https://www.barreforward.com/,Arnold,MD
Essence Of Life - Shorewood,essenceoflifeyoga@gmail.com,+13129090011,https://www.essenceol.com/,Shorewood,IL
The Studio Yoga & Fitness,membership@thestudiouv.com,+18026988160,https://thestudiouv.com/,White River Junction,VT
Hot Yoga Sugar Land,bysugarland@gmail.com,+13462913010,https://bikramyogasugarland.com/,Sugar Land,TX
Intuitive Wellness,intuitivewellteam@gmail.com,+17812059533,https://www.intuitivewell.com/,Weston,MA
Brick Canvas,cafe@brickcanvas.com,+18014078620,https://www.brickcanvas.com/,Lehi,UT
Brick Canvas,fitness@brickcanvas.com,+18014078620,https://www.brickcanvas.com/,Lehi,UT
Brick Canvas,info@brickcanvas.com,+18014078620,https://www.brickcanvas.com/,Lehi,UT
Brick Canvas,salon@brickcanvas.com,+18014078620,https://www.brickcanvas.com/,Lehi,UT
Asna Yoga & Wellness,info@asna.studio,+12247862762,https://asna.studio/,Lincolnwood,IL
Silver Pine Pilates,lexiev@silverpinepilates.com,+13072134271,https://parrotfish-raspberry-2b7n.squarespace.com/,Cody,WY
Embra Studio,hello@embrastudio.com,+18593449642,https://www.embrastudio.com/,Crescent Springs,KY
Afterglow Hot Yoga,info@afterglowhotyoga.com,+12817781242,http://afterglowhotyoga.com/,Missouri City,TX
Joya Pleasanton,info@joyayoga.com,+19258289642,https://www.joyayoga.com/,Pleasanton,CA
Alpine Yoga & Wellness | The Woodlands,alpineyogalec@gmail.com,+19362458416,https://alpineyogalec.com/,The Woodlands,TX
Ompractice,info@ompractice.com,,https://www.ompractice.com/,Springfield,MA
Blue Feather Wellness,Christa@startmail.com,+14174831734,https://bluefeatherwellness.com/,Joplin,MO
Indigo Yoga,indigoyogalascruces@gmail.com,+15755203645,https://www.indigoyogalascruces.com/,Las Cruces,NM
Lake Champlain Yoga & Wellness,info@lakechamplainyogaandwellness.com,+18885299642,http://lakechamplainyogaandwellness.com/,Essex,NY
West Coast Sweat Long Beach,hello@westcoastsweat.com,+15626500538,https://www.westcoastsweat.com/,Long Beach,CA
Orange Lotus Hot Yoga & Fitness,team@orange-lotus.com,+14848728308,https://orange-lotus.com/,Exton,PA
nooma,hello@ilovenooma.com,+14793724813,http://noomastudios.com/,Little Rock,AR
Joya Livermore,info@joyayoga.com,+19258289642,https://www.joyayoga.com/,Livermore,CA
Alpine Yoga & Wellness | Conroe,alpineyogalec@gmail.com,+19362458416,https://alpineyogalec.com/,Conroe,TX
Body Intuit,info@bodyintuit.com,+16144500381,https://bodyintuit.com/,Worthington,OH
Fit2Shine Studio,kelly@fit2shinestudio.com,+13015189739,https://www.fit2shinestudio.com/,New Market,MD
InsideOut Gym,mail@insideoutgym.com,+19012785433,https://www.insideoutgym.com/,Memphis,TN
URGE FITNESS Ewing NJ,info@urgefitness.com,+16094038515,https://www.urgefitness.com/,Ewing Township,NJ
Defenders Martial Arts Academy,masterlance@defendersmaa.info,+18328825425,https://www.defendersmaa.info/,Tomball,TX
Black Wolf Academy,academy@blackwolfprotectiongroup.com,+19717102225,https://www.blackwolf.academy/,Milwaukie,OR
Front Street Training Center,Jimmy@frontstreettrainingcenter.com,+12185808453,https://www.frontstreettrainingcenter.com/,Barnum,MN
Bouldering Project Dallas,Brooklyn.Team@boulderingproject.com,+12026672404,https://boulderingproject.com/location/design-district/,Dallas,TX
Bouldering Project Dallas,brittania.turner@boulderingproject.com,+12026672404,https://boulderingproject.com/location/design-district/,Dallas,TX
Bouldering Project Dallas,heather.kram@boulderingproject.com,+12026672404,https://boulderingproject.com/location/design-district/,Dallas,TX
Bouldering Project Dallas,dc.info@boulderingproject.com,+12026672404,https://boulderingproject.com/location/design-district/,Dallas,TX
Bouldering Project Dallas,designdistrict@boulderingproject.com,+12026672404,https://boulderingproject.com/location/design-district/,Dallas,TX
Bouldering Project Dallas,aaron.jeffrey@boulderingproject.com,+12026672404,https://boulderingproject.com/location/design-district/,Dallas,TX
Bouldering Project Dallas,amanda.maze@boulderingproject.com,+12026672404,https://boulderingproject.com/location/design-district/,Dallas,TX
Bouldering Project Dallas,kyle.smith@boulderingproject.com,+12026672404,https://boulderingproject.com/location/design-district/,Dallas,TX
Bouldering Project Dallas,cassk.thomas@boulderingproject.com,+12026672404,https://boulderingproject.com/location/design-district/,Dallas,TX
Bouldering Project Dallas,naomi.tran@boulderingproject.com,+12026672404,https://boulderingproject.com/location/design-district/,Dallas,TX
Bouldering Project Dallas,greg.elgin@boulderingproject.com,+12026672404,https://boulderingproject.com/location/design-district/,Dallas,TX
Bouldering Project Dallas,nadia.mathis@boulderingproject.com,+12026672404,https://boulderingproject.com/location/design-district/,Dallas,TX
Bouldering Project Dallas,nathan.baldry@boulderingproject.com,+12026672404,https://boulderingproject.com/location/design-district/,Dallas,TX
Bouldering Project Dallas,tyler.brent@boulderingproject.com,+12026672404,https://boulderingproject.com/location/design-district/,Dallas,TX
Bouldering Project Dallas,brooks.norton@boulderingproject.com,+12026672404,https://boulderingproject.com/location/design-district/,Dallas,TX
Bouldering Project Dallas,leslie.valdez@boulderingproject.com,+12026672404,https://boulderingproject.com/location/design-district/,Dallas,TX
Bouldering Project Dallas,curran.lemp@boulderingproject.com,+12026672404,https://boulderingproject.com/location/design-district/,Dallas,TX
Bouldering Project Dallas,jo.edmondson@boulderingproject.com,+12026672404,https://boulderingproject.com/location/design-district/,Dallas,TX
Bouldering Project Dallas,ryan.rhoades@boulderingproject.com,+12026672404,https://boulderingproject.com/location/design-district/,Dallas,TX
Bouldering Project Dallas,holly.braun@boulderingproject.com,+12026672404,https://boulderingproject.com/location/design-district/,Dallas,TX
Bouldering Project Dallas,Brooklyn.Info@boulderingproject.com,+12026672404,https://boulderingproject.com/location/design-district/,Dallas,TX
Bouldering Project Dallas,kyle.wiggins@boulderingproject.com,+12026672404,https://boulderingproject.com/location/design-district/,Dallas,TX
Bouldering Project Dallas,kate.bratvold@boulderingproject.com,+12026672404,https://boulderingproject.com/location/design-district/,Dallas,TX
Bouldering Project Dallas,paul.ahnn@boulderingproject.com,+12026672404,https://boulderingproject.com/location/design-district/,Dallas,TX
Bouldering Project Dallas,stefan.yuhasz@boulderingproject.com,+12026672404,https://boulderingproject.com/location/design-district/,Dallas,TX
Bouldering Project Dallas,devin.vernick@boulderingproject.com,+12026672404,https://boulderingproject.com/location/design-district/,Dallas,TX
Bouldering Project Dallas,kristine.kitayama@boulderingproject.com,+12026672404,https://boulderingproject.com/location/design-district/,Dallas,TX
Bouldering Project Dallas,Brooklyn.Programs@boulderingproject.com,+12026672404,https://boulderingproject.com/location/design-district/,Dallas,TX
Bouldering Project Dallas,trinity.johnson@boulderingproject.com,+12026672404,https://boulderingproject.com/location/design-district/,Dallas,TX
Bouldering Project Dallas,shawnee.williams@boulderingproject.com,+12026672404,https://boulderingproject.com/location/design-district/,Dallas,TX
Bouldering Project Dallas,caodan.tran@boulderingproject.com,+12026672404,https://boulderingproject.com/location/design-district/,Dallas,TX
Bouldering Project Dallas,dylan.higginbotham@boulderingproject.com,+12026672404,https://boulderingproject.com/location/design-district/,Dallas,TX
Bouldering Project Dallas,kate.hardy@boulderingproject.com,+12026672404,https://boulderingproject.com/location/design-district/,Dallas,TX
Bouldering Project Dallas,alyssa.chatmon@boulderingproject.com,+12026672404,https://boulderingproject.com/location/design-district/,Dallas,TX
Bouldering Project Dallas,mo.herbert@boulderingproject.com,+12026672404,https://boulderingproject.com/location/design-district/,Dallas,TX
Pacifica Beach Yoga,pacificabeachyoga@gmail.com,+16507337388,https://www.pacificabeachyoga.com/,Pacifica,CA
True40 Tuscaloosa,hello@true40studio.com,+12052245498,https://true40studio.com/,Tuscaloosa,AL
Pilates Barre Studio,info@pilatesbarre.com,+12483456579,https://www.pilatesbarre.com/,Farmington,MI
Carrie's Pilates West Hollywood,info@carriespilatesplus.com,+13103589491,https://westhollywood.carriespilatesplus.com/,West Hollywood,CA
National Fitness Center,info@nfc1.com,+18654292400,https://nfc1.com/,Morristown,TN
SWETSTUDIO,info@swetstudio.com,+16176700631,https://swetstudio.com/,Boston,MA
The Lagree Method,info@thelagreemethod.com,+16142854615,http://thelagreemethod.com/,Dublin,OH
National Fitness Center,info@nfc1.com,+18654292400,https://nfc1.com/,Knoxville,TN
Pilates Room Studios San Diego,info@pilatesroomstudios.com,+16192300889,https://pilatesroomstudios.com/,San Diego,CA
H2L Studio,H2LSTUDIO717@gmail.com,+17176974425,http://h2lstudio.com/,Mechanicsburg,PA
National Fitness Center,info@nfc1.com,+18654292400,https://nfc1.com/,Maryville,TN
"PoleFIT Revolution, LLC",polefit360@gmail.com,+18558582359,http://polefitrevolution.com/,Madison Heights,MI
National Fitness Center,info@nfc1.com,+18654292400,https://nfc1.com/,Knoxville,TN
True40 Studio Auburn,hello@true40studio.com,+12052245498,https://true40studio.com/,Auburn,AL
New Milford Fitness and Aquatic Club,jacindar@nmfac.com,+18607996880,https://nmfac.com/,New Milford,CT
New Milford Fitness and Aquatic Club,suep@nmfac.com,+18607996880,https://nmfac.com/,New Milford,CT
New Milford Fitness and Aquatic Club,jeanned@nmfac.com,+18607996880,https://nmfac.com/,New Milford,CT
New Milford Fitness and Aquatic Club,michellen@nmfac.com,+18607996880,https://nmfac.com/,New Milford,CT
New Milford Fitness and Aquatic Club,jordanp@nmfac.com,+18607996880,https://nmfac.com/,New Milford,CT
One Body Fitness Studio,hello@onebodyfitnessstudio.com,+17194006152,https://www.onebodyfitnessstudio.com/,Colorado Springs,CO
EmpowerFitness,empowerfitnessllc@gmail.com,+19087352955,https://empowerfitnessllc.com/,Clinton,NJ
National Fitness,info@nfc1.com,+18654292400,https://nfc1.com/,Sevierville,TN
The Dailey Method Larkspur,contact@thedaileymethod.com,+14152955952,https://thedaileymethod.com/,Larkspur,CA
Local Barre Uptown,socialclubhoboken@localbarre.com,+12019042330,http://localbarre.com/,Hoboken,NJ
Body Alive Fitness Crestview Hills,info@bodyalivefitness.com,+15133379830,https://bodyalivefitness.com/,Crestview Hills,KY
Studio43 Sweat+Soul,nikki@yogastudio43.com,+18595128599,https://studio43sweatandsoul.com/,Alexandria,KY
National Fitness Center,info@nfc1.com,+18654292400,https://nfc1.com/,Knoxville,TN
North Fork Fun & Fitness & Pilates Physique Studio,northforkpilates@gmail.com,+16317659118,http://northforkfitness.com/,Southold,NY
Mind Over Matter Health & Fitness,info@mindovermatternyc.com,+12128659290,https://www.mindovermatternyc.com/,New York,NY
True40 Studio Homewood,hello@true40studio.com,+12052245498,https://true40studio.com/,Birmingham,AL
Arvada Barre,hello@arvadabarre.com,+17208806447,https://www.arvadabarre.com/,Arvada,CO
STHIEL PILATES & MOVEment Center,sthielpilates@gmail.com,+14129811304,https://www.sthielpilates.com/,Pittsburgh,PA
STHIEL PILATES & MOVEment Center,stephanie.tirdel@sthielpilates.com,+14129811304,https://www.sthielpilates.com/,Pittsburgh,PA
"Core 95 - Fitness That's HOT-Barre, Pilates, Boot Camp, HIIT, Meditation, Sculpt and Fitness Studio",info@core95.com,+15165876517,https://core95.com/,Long Beach,NY
OpenBarre College Park,openbarrestudios@gmail.com,+12405157054,https://openbarrestudios.com/,College Park,MD
BE HOT YOGA + BE University,hanna@behot.com,+14352256529,https://behot.com/,St. George,UT
Sue Garcia Fitness,suegarcia@suegarciafitness.com,+18477556820,https://www.suegarciafitness.com/,Palatine,IL
East Bank Club,memberservices@eastbankclub.com,+13125275800,https://eastbankclub.com/,Chicago,IL
Priv-Swiss Fitness | Madison,info@priveswisswellness.com,+18603918735,https://priveswissfitness.com/,Madison,CT
LITE BARR FITNESS STUDIO,info@elitebarre.com,+15305154744,https://www.elitebarre.com/,Redding,CA
Studio Elevate Fit,sarah@studioelevatefit.com,+12244336510,https://studioelevatefit.com/,Libertyville,IL
The Diva Dive Pole & Aerial Fitness Studio,info@thedivadive.com,+14798564308,https://www.thedivadive.com/,Fayetteville,AR
"PLAY FUN: Tennis, Yoga, Fitness, Pilates, Basketball, Soccer & More",play@playfun.io,+17868418416,https://playfun.io/,Miami,FL
Studio Rue Ltd Saint Louis,info@studiorue.net,+13146510418,https://studiorue.net/,Webster Groves,MO
Shine Alternative Fitness,info@shinealternativefitness.com,+17026851864,https://www.shinealternativefitness.com/,Las Vegas,NV
Fly Freak Studio,hayley@flyfreakstudio.com,+16519001636,https://www.flyfreakstudio.com/,St Paul,MN
Lifemoves Studio,dana@lifemovesstudio.com,+14702383983,https://lifemovesstudio.com/,Buford,GA
Lifemoves Studio,shelly@lifemovesstudio.com,+14702383983,https://lifemovesstudio.com/,Buford,GA
Xtend Barre Arlington,arlington@xtendbarre.com,+17035287846,https://xtendbarre.com/studio/xtend-barre-arlington/,Arlington,VA
Chattanooga Pilates Co,mike.l.kyser@gmail.com,+14232555527,https://www.chattanoogapilatesco.com/,Chattanooga,TN
The Sweat Lab,info@sweatlabstudios.com,+19194015559,https://sweatlabstudios.com/,Durham,NC
Kaia Yoga and Meditation New Canaan,info@kaiayoga.com,+12035941427,http://kaiayoga.com/,New Canaan,CT
MOSSA,mossaondemand@mossa.net,+18007297837,https://www.mossaondemand.net/,Marietta,GA
Owl's Head Yoga Studio,om@owlsheadyoga.com,+13477192363,http://owlsheadyoga.com/,Brooklyn,NY
Ignite Fitness,ignitefitnessnewtown@gmail.com,+12674101284,https://www.ignitefitnessnewtown.com/,Newtown,PA
Carrie's Pilates Trinity Groves,info@carriespilatestrinitygroves.com,+14698820864,https://trinitygroves.carriespilatesplus.com/,Dallas,TX
Dance Fit Flow,info@dancefitflow.com,+18163016468,https://www.dancefitflow.com/,Kansas City,MO
Carries Pilates Saddleback,hello@carriespilatessaddleback.com,+19492320939,https://saddleback.carriespilatesplus.com/,Trabuco Canyon,CA
KnuckleUp Fitness,cancellations@knuckleupfitness.com,+14043395425,https://knuckleupfitness.com/,Sandy Springs,GA
KnuckleUp Fitness,info@knuckleupfitness.com,+14043395425,https://knuckleupfitness.com/,Sandy Springs,GA
"Capital MMA & Elite Fitness | Alexandria, VA",takoma@capitalmma.com,+17033468828,https://capitalmma.com/,Alexandria,VA
"Capital MMA & Elite Fitness | Alexandria, VA",burke@capitalmma.com,+17033468828,https://capitalmma.com/,Alexandria,VA
"Capital MMA & Elite Fitness | Alexandria, VA",alexandria@capitalmma.com,+17033468828,https://capitalmma.com/,Alexandria,VA
"Capital MMA & Elite Fitness | Alexandria, VA",loudoun@capitalmma.com,+17033468828,https://capitalmma.com/,Alexandria,VA
"Capital MMA & Elite Fitness | Alexandria, VA",lorton@capitalmma.com,+17033468828,https://capitalmma.com/,Alexandria,VA
"Capital MMA & Elite Fitness | Alexandria, VA",fairfax@capitalmma.com,+17033468828,https://capitalmma.com/,Alexandria,VA
"Capital MMA & Elite Fitness | Alexandria, VA",sean.emery@capitalmma.com,+17033468828,https://capitalmma.com/,Alexandria,VA
Thrive Fitness,joekhechef@hotmail.com,+16576005892,https://www.gothrive.fitness/,Costa Mesa,CA
"Bomber Squad Academy | San Diego's Best Boxing, Muay Thai, and Strength & Conditioning",bsquadacademy@gmail.com,+16193121133,https://bombersquadacademy.com/,El Cajon,CA
Pro Boxing Fitness & Gym,info@proboxingfitness.com,+12242277785,https://www.proboxingfitness.com/,Elgin,IL
Cutting Edge Core,info@cuttingedgecore.com,+16366992602,https://www.cuttingedgecore.com/,Houston,TX
Upgraded Industries,sales@upgradedindustries.com,+14405108246,https://www.upgradedindustries.com/,Mentor,OH
Hype House Cycle and Fitness Studio,hypehousefitness@gmail.com,+12546303216,https://hypehousecycleandfitness.com/,Great Mills,MD
AB Mixed Martial Arts Academy,info@ab-mma.com,+14154676740,https://www.ab-mma.com/,San Francisco,CA
CULTR Fight Club,info@cultrfightclub.com,+12013459311,https://www.cultrfightclub.com/,Jersey City,NJ
Disciple MMA Academy,info@disciplemma.com,+15713779339,https://www.disciplemmaacademy.com/,Sterling,VA
Williamsburg MMA,WilliamsburgMMA@gmail.com,+17189167492,https://www.williamsburgmma.com/,Brooklyn,NY
Body Haus Lifestyle Club,matthew@bodyhauslifestyleclub.com,+12312460326,https://www.bodyhauslifestyleclub.com/,Spring Lake,MI
Pugilist Gym,contact@pugilist-gym.com,+18058187464,https://www.pugilist-gym.com/,Thousand Oaks,CA
Rise Up Fitness,RiseUpFitnessCT@gmail.com,+12039397552,https://www.riseupfitnessct.com/,Norwalk,CT
DiversaFit Functional Fitness,diversafit@gmail.com,+12036685627,https://www.diversafit.com/,Wallingford,CT
VIBE Fitness Studio,vibefitlife@gmail.com,+18145808423,http://vibefitlife.com/,Elton,PA
Forged Soul Fitness & Yoga,Team@forgedsoulfitness.com,+18562103612,https://www.forgedsoulfitness.com/,Hammonton,NJ
Northeastern Ju Jitsu,NortheasternJuJitsu@gmail.com,+15707143839,https://nejujitsu.com/,Swoyersville,PA
Boombox Mixed Martial Arts,boomboxdet@gmail.com,+12488205654,https://www.boomboxdet.com/,Ferndale,MI
Delta Valley Health Club,info@deltavac.com,+19252402990,https://deltavac.com/,Brentwood,CA
Vertical Rock Climbing & Fitness Center,info@climb-va.com,+17037127060,https://climb-va.com/,Manassas,VA
Powerumba Fitness,info@powerumba.com,+13059569100,https://www.powerumba.com/,North Miami Beach,FL
Accountability First Fitness,admin@mya1fit.com,+12149006161,https://www.accountabilityfirstfitness.com/,DeSoto,TX
Mash Gym Brazilian Jiu Jitsu,todd@mashgym.com,+13133875801,https://www.mashgym.com/,Redford Charter Twp,MI
Soulhouse Venice,soulhousevenice@gmail.com,+13103108090,https://soulhousevenice.com/,Venice,CA
The Root Wellness Center,rootwellnessinfo@gmail.com,+13137219625,https://theroot-wellnesscenter.com/,Caro,MI
Clairevista Holistic Health & Fitness,info@clairevista.com,+12147445400,https://clairevista.com/,Dallas,TX
Redemption Brazillian JiuJitsu and MMA,info@redemptionbjj.com,+15098684271,https://redemptionbjj.com/,Spokane,WA
Ken's Fitness & Nutrition Studio: Personal Trainer & Boot Camp Classes Jacksonville,kennethtyreejenkins@gmail.com,+19047316883,http://kenxtremefit.com/,Jacksonville,FL
URGE FITNESS Fairless Hills PA,info@urgefitness.com,+12158745700,https://www.urgefitness.com/,Fairless Hills,PA
URGE FITNESS Olney Philadelphia,info@urgefitness.com,+12152786397,https://www.urgefitness.com/,Philadelphia,PA
SWEAT Studio Cape Cod,Jenny@sweatstudiocapecod.fitness,+17743922686,https://www.sweatstudiocapecod.fitness/,Falmouth,MA
Oxford Athletic Club,info@oxfordathleticclub.com,+17249331911,https://www.oxfordathleticclub.com/,Wexford,PA
Total Fitness of West Union,totalfitnessofoconee@gmail.com,+18644013757,http://totalfitnessoconee.com/,West Union,SC
Power Pack Fitness,powerpackfit@gmail.com,+12096276953,https://www.powerpackfit.com/,Sacramento,CA
The Workout Warehouse,workoutwarehousewow@gmail.com,+13133635579,https://the-workout-warehouse.gymdesk.com/,Riverview,MI
"W.L.I Fitness (Personal Training,-StretchTherapy-Nutrition)",weightlossinc4u@gmail.com,+17084992111,https://www.wlifitness.com/,Evergreen Park,IL
Focus Barre and Yoga,focusbarreandyoga@gmail.com,+12157014913,https://focusbarreandyoga.com/,Philadelphia,PA
The Pilates Point Studio,info@thepilatespointstudio.com,+14016484333,https://thepilatespointstudio.com/,Cumberland,RI
The Studio BE,info@thestudiobe.com,+17133962189,https://thestudiobe.com/,Houston,TX
Shape Method,info@shapemethodpilates.com,+15123829150,https://shapemethodpilates.com/,Austin,TX
Pilates & Or,info@pilatesandor.com,+18058560080,http://pilatesandor.com/,Santa Barbara,CA
The Studio on Third,lynette@thestudiocr.com,+13192001015,https://www.thestudiocr.com/,Cedar Rapids,IA
The Studio on Third,angela@thestudiocr.com,+13192001015,https://www.thestudiocr.com/,Cedar Rapids,IA
Rare Body Pilates,info@rarebody.com,+17273006693,https://www.therarebodystudio.com/,St. Petersburg,FL
Lagree Plus,lagreeplus@gmail.com,+15417990343,https://lagreeplus.com/,Springfield,OR
Elektren,jordan@elektrenstudio.com,+18312647724,https://www.elektrenstudio.com/,Seaside,CA
Endeavor Yoga + Pilates,info@endeavoryoga.com,+12702531234,https://www.endeavorpilates.com/,Duluth,GA
Jane DO - Charleston Fitness Studio,hoboken@janedo.com,+12019381000,https://www.janedo.com/,Charleston,SC
Jane DO - Charleston Fitness Studio,charleston@janedo.com,+12019381000,https://www.janedo.com/,Charleston,SC
Jane DO - Charleston Fitness Studio,jerseycity@janedo.com,+12019381000,https://www.janedo.com/,Charleston,SC
Mission Hills Racquet and Swim Club,management@themissionhillsclub.com,+15106562250,https://www.themissionhillsclub.com/,Fremont,CA
WorkLife WellBeing at THE MART,officesuites@worklifebyvornado.com,+16468529355,https://www.worklifebyvornado.com/,Chicago,IL
WorkLife WellBeing at THE MART,hello@worklifebyvornado.com,+16468529355,https://www.worklifebyvornado.com/,Chicago,IL
WorkLife WellBeing at THE MART,wellbeing@worklifebyvornado.com,+16468529355,https://www.worklifebyvornado.com/,Chicago,IL
WorkLife WellBeing at THE MART,health@worklifebyvornado.com,+16468529355,https://www.worklifebyvornado.com/,Chicago,IL
WorkLife WellBeing at THE MART,hospitality@worklifebyvornado.com,+16468529355,https://www.worklifebyvornado.com/,Chicago,IL
WorkLife WellBeing at THE MART,events@worklifebyvornado.com,+16468529355,https://www.worklifebyvornado.com/,Chicago,IL
WorkLife WellBeing at THE MART,meetings@worklifebyvornado.com,+16468529355,https://www.worklifebyvornado.com/,Chicago,IL
Bay Club Fremont,info.bcrv@bayclubs.com,+14154332200,https://www.bayclubs.com/,Fremont,CA
Bay Club Fremont,blair.hicks@bayclubs.com,+14154332200,https://www.bayclubs.com/,Fremont,CA
Bay Club Fremont,todd.mcwilliamssr@bayclubs.com,+14154332200,https://www.bayclubs.com/,Fremont,CA
Bay Club Fremont,katrina.lemmon@bayclubs.com,+14154332200,https://www.bayclubs.com/,Fremont,CA
Bay Club Fremont,info.bccv@bayclubs.com,+14154332200,https://www.bayclubs.com/,Fremont,CA
Bay Club Fremont,Laurie.Miner@bayclubs.com,+14154332200,https://www.bayclubs.com/,Fremont,CA
Bay Club Fremont,bayclubconnect@bayclubs.com,+14154332200,https://www.bayclubs.com/,Fremont,CA
Bay Club Fremont,info.bcsc@bayclubs.com,+14154332200,https://www.bayclubs.com/,Fremont,CA
Bay Club Fremont,info.bcssf@bayclubs.com,+14154332200,https://www.bayclubs.com/,Fremont,CA
Bay Club Fremont,david.holter@bayclubs.com,+14154332200,https://www.bayclubs.com/,Fremont,CA
Bay Club Fremont,cori.fanucchi@bayclubs.com,+14154332200,https://www.bayclubs.com/,Fremont,CA
Bay Club Fremont,info.bcsf@bayclubs.com,+14154332200,https://www.bayclubs.com/,Fremont,CA
Bay Club Fremont,info.bcpo@bayclubs.com,+14154332200,https://www.bayclubs.com/,Fremont,CA
Bay Club Fremont,justin.rose@bayclubs.com,+14154332200,https://www.bayclubs.com/,Fremont,CA
Bay Club Fremont,info.bcrs@bayclubs.com,+14154332200,https://www.bayclubs.com/,Fremont,CA
Bay Club Fremont,info.bcbt@bayclubs.com,+14154332200,https://www.bayclubs.com/,Fremont,CA
Bay Club Fremont,info.bcst@bayclubs.com,+14154332200,https://www.bayclubs.com/,Fremont,CA
Bay Club Fremont,info.bcg@bayclubs.com,+14154332200,https://www.bayclubs.com/,Fremont,CA
Bay Club Fremont,tony.allegre@bayclubs.com,+14154332200,https://www.bayclubs.com/,Fremont,CA
Bay Club Fremont,info.bccs@bayclubs.com,+14154332200,https://www.bayclubs.com/,Fremont,CA
Bay Club Fremont,dawn.latreille@bayclubs.com,+14154332200,https://www.bayclubs.com/,Fremont,CA
Bay Club Fremont,info.bcm@bayclubs.com,+14154332200,https://www.bayclubs.com/,Fremont,CA
Bay Club Fremont,concierge@bayclubs.com,+14154332200,https://www.bayclubs.com/,Fremont,CA
Bay Club Fremont,james.lent@bayclubs.com,+14154332200,https://www.bayclubs.com/,Fremont,CA
Bay Club Fremont,nicole.rodman@bayclubs.com,+14154332200,https://www.bayclubs.com/,Fremont,CA
Skylight Yoga & Fitness,info@skylightyogafit.com,+12396495002,https://www.skylightyogafit.com/,Naples,FL
nooma,hello@ilovenooma.com,+14793724813,http://noomastudios.com/,Rogers,AR
The Balance Culture,lakeland@thebalanceculture.com,+18633230831,https://thebalanceculture.com/,Lakeland,FL
The Balance Culture,winterhaven@thebalanceculture.com,+18633230831,https://thebalanceculture.com/,Lakeland,FL
Stone's Studio,info@stonesfitness.com,+12814802255,https://stonesfitnesscenter.com/,Houston,TX
Banyan Tree Pilates & Yoga,banyantreepilatesandyoga@comcast.net,+19419644404,http://banyantreepilatesandyoga.com/,Boca Grande,FL
The Furnace - Hot Yoga & Pilates,info@thefurnacenewyork.com,+13479421683,https://www.thefurnacenewyork.com/,Brooklyn,NY
DCW Studio,dylan@dcwellclub.com,,https://www.dylancaltabiano.com/,Ocean City,NJ
Annex Pilates,annexpilates@gmail.com,+19296068933,https://www.annexpilates.com/,Brooklyn,NY
GoodWolf Power Yoga / Pilates Studio,toni@goodwolfyoga.com,+13372071750,https://www.goodwolfyoga.com/,Lafayette,LA
GoodWolf Power Yoga / Pilates Studio,info@goodwolfyoga.com,+13372071750,https://www.goodwolfyoga.com/,Lafayette,LA
Straightline Dance Fitness,straightlinedancefitness@gmail.com,+16123854218,https://www.straightlinedancefitness.com/,Minneapolis,MN
Practice Room NYC,info@practiceroomnyc.com,+16463703501,https://practiceroomnyc.com/,New York,NY
EMOTION Yoga | Pilates | Barre | Fitness Training,hello@emotionfitnessandstudio.com,+19104089576,https://www.emotionfitnessandstudio.com/,Wilmington,NC
Balance Yoga Barre | Tulsa,bybokc@balanceyogabarre.com,+19188002292,https://www.balanceyogabarre.com/,Tulsa,OK
Balance Yoga Barre | Tulsa,bybtulsa@balanceyogabarre.com,+19188002292,https://www.balanceyogabarre.com/,Tulsa,OK
Windsor Fitness Club,info@windsorfitnessclub.com,+17077574441,https://windsorfitnessclub.com/,Santa Rosa,CA
Armadillo Boulders,powell@armadilloboulders.com,+15126677452,http://armadilloboulders.com/,San Antonio,TX
Armadillo Boulders,dbudilo@armadilloboulders.com,+15126677452,http://armadilloboulders.com/,San Antonio,TX
Armadillo Boulders,korina@armadilloboulders.com,+15126677452,http://armadilloboulders.com/,San Antonio,TX
Tuck Barre & Yoga,tuckbarreyoga@gmail.com,+16105533670,http://tuckbarreyoga.com/,Philadelphia,PA
YO BK - Greenpoint,info@yo-bk.com,+17863963696,https://www.yo-bk.com/,Brooklyn,NY
YO BK - Greenpoint,miami@yo-bk.com,+17863963696,https://www.yo-bk.com/,Brooklyn,NY
Wel at Humana,wel@humana.com,+15025809354,http://welathumana.com/,Louisville,KY
Original Hot Yoga Huntington Beach - Hot Yoga and Fitness,info@bikramyogahb.com,+17147332204,http://originalhotyogahb.com/,Huntington Beach,CA
The Dancing House,hello@thedancinghouse.com,+15345443030,https://www.thedancinghouse.com/,Hudson,WI
Prana Hot Yoga + Bodyworks,info@pranahotyoga.com,+19545230047,http://mypranabodyworks.com/,Fort Lauderdale,FL
"McKinney Movement Center - Pilates, GYROTONIC Exercise, Yoga",info@mckinneymovementcenter.com,+14692131227,http://mckinneymovementcenter.com/,McKinney,TX
TWST Fitness Central Park,info@twstfitness.com,+17202371206,https://www.twstfitness.com/,Aurora,CO
Hot Yoga Columbia,info@hotyogacolumbiatn.com,+19312235698,https://www.hotyogacolumbiatn.com/,Columbia,TN
Suryaside Wellness,info@suryasideyoga.com,,https://www.suryasideyoga.com/,Woodside,NY
Embra Studio,hello@embrastudio.com,+18593449642,https://www.embrastudio.com/,Cincinnati,OH
Gyrotonic and Pilates Boston MetroWest,info@gyrotonicmedfield.com,+15084981451,https://www.movementcenterofmedfield.com/,Medfield,MA
Yoga House RGV | Hot Yoga and Pilates Studio,info@yogahousergv.com,+19564462425,https://www.yogahousergv.com/,McAllen,TX
Bend Yoga Studio,info@bendstudiori.com,+14019359617,https://www.bendstudiori.com/,Kingston,RI
The Foundry Flagstaff,info@thefoundryyoga.com,+19287745435,https://thefoundryyoga.com/,Flagstaff,AZ
Move Studio Pilates - Palatine,movestudiopilatesfitness@gmail.com,+12243192666,https://www.movestudiopilates.com/,Palatine,IL
u4ic yoga,info@u4icyoga.com,+12058749333,https://www.u4icyoga.com/,Birmingham,AL
Energetic Motion Studio,energeticmotionstudio@gmail.com,+14054771083,http://energeticmotionstudio.com/,Edmond,OK
You Matter Fitness Hampstead,youmatterfit@gmail.com,+16155251251,https://youmatterfitness.com/,Hampstead,NC
"Soul Barre Studio | Barre, Fitness & Yoga in Spokane Valley",info@soulbarrestudio.com,+15099992195,http://soulbarrestudio.com/,Spokane,WA
USA Fitness 24/7,usafitness247@gmail.com,+15085408896,https://www.usafitnessfalmouth.com/,East Falmouth,MA
YogaSource,info@yogasource.com,+16503280924,https://yogasource.com/,Palo Alto,CA
Everglow Wellness,info@everglow-wellness.com,+16037629166,http://everglow-wellness.com/,Keene,NH
Pure Hot Yoga St. Louis,ellen@purehotyogastl.com,+13146442226,https://purehotyogastl.com/,St. Louis,MO
Pure Hot Yoga St. Louis,Hello@purehotyogastl.com,+13146442226,https://purehotyogastl.com/,St. Louis,MO
Active Studios NYC,info@activestudiosnyc.com,+19173882729,https://activestudiosnyc.com/,New York,NY
Nashville Bodyworks,nashvillebodyworks@gmail.com,+16154767998,https://nashvillebodyworks.com/,Nashville,TN
SANA Yoga - East Memphis / Germantown,amy@sanayogastudio.com,+19017164447,https://sanayogastudio.com/,Memphis,TN
Beyond Body Yoga,info@beyondbodyyogastudio.com,+18479969014,https://www.beyondbodyyoga.com/,Niles,IL
Collective Studios,bedford@thecollective-studios.com,+16037823321,https://thecollective-studios.com/,Londonderry,NH
Collective Studios,londonderry@thecollective-studios.com,+16037823321,https://thecollective-studios.com/,Londonderry,NH
Collective Studios,hello@thecollective-studios.com,+16037823321,https://thecollective-studios.com/,Londonderry,NH
Heated Room,info@heatedroom.com,+13233946558,https://www.heatedroom.com/,Los Angeles,CA
Hot Yoga University,hello@hotyogau.com,+14806642299,https://hotyogau.com/,Scottsdale,AZ
RHYTHM Cycle & Sculpt,shawnee@rhythmcyclesculpt.com,+19136697396,https://www.rhythmcyclesculpt.com/,Shawnee,KS
SHIFT Movement & Healing Arts,rentals@shiftseattle.com,,https://shiftseattle.com/,Seattle,WA
The R3finery,info@ther3finery.com,+19082637398,https://www.ther3finery.com/,Summit,NJ
Neighborhood barre Oswego,info@neighborhoodbarre.com,+16307653886,https://neighborhoodbarre.com/,Oswego,IL
Coastal Pilates and Yoga,coastalclassicalpilates@gmail.com,+17574474742,https://www.coastalpilatesandyoga.com/,Virginia Beach,VA
"The Zen Den- HOT Yoga, HIIT, Barre and Pilates classes in Margate NJ",goodkarmagirl@gmail.com,+16093356232,https://goodkarmaguide.com/,Margate City,NJ
Onyx Cycle and Flow,onyxcycleandflow@gmail.com,+12393263010,https://onyxcycleandflow.com/,Naples,FL
The Tennis and Fitness Centre,info@tenandfit.com,+17083862175,https://www.tenandfit.com/,Oak Park,IL
Your Yoga Bozeman,youryogabozeman@gmail.com,+14065995005,https://www.youryogabozeman.com/,Bozeman,MT
Team Pilates Barre & Yoga,ZaneMelzer@teampilates.com,+15092320714,https://teampilates.com/,Nine Mile Falls,WA
GOOD MOVE,hello@goodmovenyc.com,+19739519429,https://www.goodmovenyc.com/,Brooklyn,NY
Downdog Flow Yoga & Pilates-Bedford NH,downdogflow@gmail.com,+16032038020,https://www.downdogflow.com/,Bedford,NH
The Grande,yourspace@thegrandefitness.com,+12707760462,https://thegrandefitness.com/,Franklin,KY
Inspire Pilates Center,info@inspirepilateskc.com,+19138000357,http://inspirepilateskc.com/,Leawood,KS
FlightFORM Fitness,info@flightformfitness.com,+13605583335,http://flightformfitness.com/,Vancouver,WA
8th Limb Yoga,info@8thlimbyoga.com,+17162896263,https://www.8thlimbyoga.com/,Fort Mill,SC
True40 Studio Downtown Birmingham,hello@true40studio.com,+12052245498,https://true40studio.com/,Birmingham,AL
Wendy Fit Yoga Pilates & Personal Training Studio,studio@wendyfit.com,+17277583280,https://wendyfit.com/,Dunedin,FL
Alana Life & Fitness,info@alanalife.com,+17186827355,https://alanalife.lpages.co/bayridge/,Brooklyn,NY
Yoga House RGV | Hot Yoga and Pilates Studio,info@yogahousergv.com,+19564462425,https://www.yogahousergv.com/,Mission,TX
Fly Fitness (NOLNK),flystudio@feelsfly.com,+17015321368,https://feelsfly.com/,Lincoln,NE
Fly Fitness (NOLNK),fargo@feelsfly.com,+17015321368,https://feelsfly.com/,Lincoln,NE
Northern Illinois Dance Center,atlee@nidancecenter.com,+17792200308,https://nidancecenter.com/,Sycamore,IL
Northern Illinois Dance Center,raelyn@nidancecenter.com,+17792200308,https://nidancecenter.com/,Sycamore,IL
Twisted Bodies Pilates and Yoga,twistedbodiestx@gmail.com,+19405141170,https://www.twistedbodies.com/,Denton,TX
Crestview Riviera Fitness,crestviewrivierafitness@gmail.com,+18506838700,https://www.crestviewrivierafitness.com/,Crestview,FL
Windsor Fitness Club,info@windsorfitnessclub.com,+17077574441,https://windsorfitnessclub.com/,Windsor,CA
Balance Studio,hello@balancestudiomt.com,,https://balancestudiomt.com/,Lewistown,MT
Lake Norman Pilates & Movement Studio,juli@lakenormanpilates.com,+17049661232,http://lakenormanpilates.com/,Denver,NC
Yoga Garden,yogagardenduvall@gmail.com,+12069403104,https://www.loveyogagarden.com/,Duvall,WA
Katie & Irwin Kahn JCC,info@jcccolumbia.org,+18037872023,https://kahnjcc.org/,Columbia,SC
"SOULIFT Yoga, Pilates and Barre in Florence",connect@souliftflo.com,+18437994397,https://souliftflo.com/,Florence,SC
Core,hello@coreclovis.com,+15597974304,https://www.coreclovis.com/,Clovis,CA
Midtown Pilates,hello@midtownpilates.com,+16627221038,https://midtownpilates.com/,Starkville,MS
Plank Katonah,linda@plankkatonah.com,+19148936713,https://www.plankkatonah.com/,Katonah,NY
LifeCenter Plus,fitfriends@lifecenterplus.com,+13306552377,http://lifecenterplus.com/,Hudson,OH
Prenatal Fit,adinaprenatalfit@gmail.com,+18449970129,http://prenatalfit.com/,Chicago,IL
The Studio by M,m@thestudiobym.com,+16124601231,https://thestudiobym.com/,Minneapolis,MN
BODYBARRE,office@bodybarre.com,+18322844569,https://www.bodybarre.com/,Houston,TX
HOT Yoga on the Island,info@yogaontheisland.com,+13214529642,https://yogaontheisland.com/,Merritt Island,FL
Be Fitness,info@befitnesscle.com,+14409415034,https://befitnesscle.com/,Cleveland,OH
String Circus,info@stringcircus.com,+16512338823,https://www.stringcircus.com/,Balsam Lake,WI
Studio LIT - Infrared Hot Fitness - Yoga - Wellness,GetLIT@studiolitfit.com,,https://studiolitfit.com/,Newtown,PA
Yoga Hell Petaluma,info@yogahell.com,+17077752400,https://yogahell.com/,Petaluma,CA
Laughing Buddha Hot Yoga - West Deptford,amy@hotyoga.guru,+18566243835,https://www.hotyoga.guru/,West Deptford,NJ
Pilates Loft,info@pilatesloftny.com,+19148470505,https://www.pilatesloftny.com/,Briarcliff Manor,NY
Stone Wave Yoga,liz@stonewaveyoga.com,+18454195219,https://www.stonewaveyoga.com/,Gardiner,NY
Mt. Hope Chiropractic and Wellness,info@mthopechiro.com,+15854458584,http://mthopechiropractic.com/,Penfield,NY
REYA Barre & Yoga,info@reyabarreyoga.com,+17179183636,https://www.reyabarreyoga.com/,Lafayette Hill,PA
The Aerial House,info@theaerialhouse.com,+13234045214,https://www.theaerialhouse.com/,Los Angeles,CA
Flip & Twist,info@flipandtwistidahofalls.com,+12083467070,https://www.flipandtwistidahofalls.com/,Ammon,ID
Triumph Boxing & Martial Arts,seaneichenberg@att.net,+13173894861,https://www.triumphboxingma.com/,Indianapolis,IN
northpenn boxing and kickboxing,email@northpennboxing.com,+12153935425,http://northpennboxingkickboxing.com/,Lansdale,PA
Level Up Boxing & Fitness,frontdesk@levelupgym.com,+14436034027,https://www.levelupgym.com/,Lanham,MD
5th Element MMA & Fitness,5thelementmma@gmail.com,+13604526121,https://5thelementmma.com/,Port Angeles,WA
REMIX MMA,RemixMMA2020@gmail.com,+12013108381,https://www.remixmma.com/,Hoboken,NJ
Poway Martial Arts | Kenpo Karate - Boxing - Muay Thai Kickboxing,info@powaymartialarts.com,+18584861003,http://powaymartialarts.com/,Poway,CA
Poway Martial Arts | Kenpo Karate - Boxing - Muay Thai Kickboxing,msjess@powaymartialarts.com,+18584861003,http://powaymartialarts.com/,Poway,CA
Misfits Fitness Gym,info@misfits.fitness,+17325039744,https://misfits.fitness/,Toms River,NJ
American Killer Bees Fitness,info@akbboro.com,+19126234585,https://akbboro.com/,Statesboro,GA
Motiv8 Fitness,motiv8lexky@gmail.com,+18593333140,https://www.motiv8lexky.com/,Lexington,KY
FX Fitness Studio,info@fxfitnessstudio.com,+18136437007,https://fxfitnessstudio.com/,Brandon,FL
Michigan Institute of Athletics,instituteofathletics@gmail.com,+18105226030,https://instituteofathletics.com/,Brighton,MI
Rawmana Fitness,info@rawmanafitness.com,+18777184874,https://www.rawmanafitness.com/,San Diego,CA
Straight Blast Gym of Bend,SBGBend@gmail.com,+15413500914,https://sbgbend.com/,Bend,OR
"Nuleeu Nutrition and Wellness, LLC",reception@nuleeu.com,+17573393624,https://nuleeu.com/,Chesapeake,VA
FitnessSocial I LLC,info@fitnesssocial.com,+15593248500,https://www.fitnesssocial.com/,Fresno,CA
MOVE CrossFit,movedaytona@gmail.com,+13862959787,https://movecrossfit.com/,Daytona Beach,FL
Flushing Fitness 247,help@gymmaster.com,+14159150375,https://flushingfitness247.gymmasteronline.com/login,Flushing,MI