business_name,email,phone,website,city,state
"D.W. Wilburn, Inc.",info@dwwilburn.com,+18592635692,http://dwwilburn.net/,Lexington,KY
"Hunter Contractors, LLC",info@huntercontractors.net,+18509999999,https://huntercontractors.net/,Orlando,FL
Terry Brodnik Group - Contracting and Home Services,office@tbrodnikgroup.com,+13175238886,https://tbrodnikgroup.com/,Brownsburg,IN
Ed Green Construction,EGC@edgreenconstruction.com,+17194750922,http://edgreenconstruction.com/,Colorado Springs,CO
GT Builders,info@gtdevelopmentllc.com,+18302150252,https://gtdevelopmentfbg.com/,Fredericksburg,TX
Tradewerks Construction,Liz.Lundberg@pnpa.us,+14067552489,http://tradewerks.com/,Kalispell,MT
Tradewerks Construction,Josh.Turner@pnpa.us,+14067552489,http://tradewerks.com/,Kalispell,MT
JDB BUILDERS INC. GENERAL CONTRACTOR,info@jdb-builders.com,+18557828453,http://jdb-builders.com/,Riverside,CA
Mastercraft Home Improvement,info@mastercrafthi.com,+18559330732,https://mastercrafthi.com/,Murrieta,CA
Fulton Quality Construction,fultonqc@gmail.com,+12082679086,http://fultonqualityconstruction.com/,Bonners Ferry,ID
J.M. Holmes & Sons Inc.,jholmesinc@gmail.com,+13092081597,https://www.jmholmesinc.com/,Groveland,IL
"Bob Grill General Contractor, Inc.",info@bobgrill.com,+13015777768,https://bobgrill.com/,Lanham,MD
PJ Dick,info@pjdick.com,+14128072000,https://pjdick.com/,West Chester,PA
Granite Environmental LLC,info@gellcnyc.com,+17189715572,https://gellcnyc.com/,Brooklyn,NY
Chase Group Construction LLC,info@chasegroupcc.com,+13373660092,https://www.chasegroupconstruction.com/,Lafayette,LA
Thomas Construction Group LLC,charles@thomashomesdmv.com,+14434045102,https://tcg-knights.com/,Baltimore,MD
Silva Built Homes,SilvaBuiltHomes@gmail.com,+16193999394,https://silvabuilthomes.com/,Temecula,CA
Allied Contracting Group,Kent@acgbuild.com,+12702455150,https://www.acgbuild.com/,Madisonville,KY
Allied Contracting Group,Nicole@acgbuild.com,+12702455150,https://www.acgbuild.com/,Madisonville,KY
Santicraft Home Improvement Corp,santicrafthome@gmail.com,+16465336936,https://santicrafthome.com/,Corona,NY
Contractor Building Pros,DarylsQualityConstruction@gmail.com,+16193000552,https://www.contractorbuildingpros.com/,San Diego,CA
CBT Builders,info@cbtbuilders.com,+19543550272,http://cbtbuilders.com/,Fort Lauderdale,FL
C&K Builders,ckbuilders743@gmail.com,+19164620718,https://www.ckbuilders.biz/,Sacramento,CA
BWC Construction Florida General Contractor,info@bwc-construction.com,+13526448383,https://www.bwc-construction.com/,Ocala,FL
Lobar Associates,info@lobareng.com,+17174323429,https://lobarassoc.com/,Dillsburg,PA
Lobar Associates,info@lobarproperties.com,+17174323429,https://lobarassoc.com/,Dillsburg,PA
Lobar Associates,info@lobarsitedevelopment.com,+17174323429,https://lobarassoc.com/,Dillsburg,PA
Lobar Associates,info@lobarassoc.com,+17174323429,https://lobarassoc.com/,Dillsburg,PA
Lobar Associates,info@lobarcm.com,+17174323429,https://lobarassoc.com/,Dillsburg,PA
United Family Construction,canelo@ufconstruction.com,+17737192658,http://ufconstruction.com/,Melrose Park,IL
Comex Corporation,yourmail@comexcorp.com,+12814792322,https://comexcorp.com/,La Porte,TX
American Building Systems Co.,bjgrant@absco.us,+15018473051,http://absco.us/,Bryant,AR
"McDermott Construction, LLC",info@mcdermottcg.com,+19792912199,https://mcdermottconstructiongroup.com/,College Station,TX
Markovich Construction Inc.,cmarkovich@markovichinc.com,+14064943901,https://www.markovichconst.com/,Butte,MT
Benike Construction,benikebuilt@benike.com,+15072886575,https://benike.com/,Rochester,MN
"Firestone Builders, Inc.",info@firestonebuilders.com,+17603041234,https://www.firestonebuilders.com/,San Marcos,CA
ALEX CONSTRUCTION & RENOVATION,info@alexconstructionusa.com,+16172990531,https://alexconstructionusa.com/,Canton,MA
StructuralMD/Lallygone,info@lallygone.com,+19738844466,https://www.structuralmd.com/,Whippany,NJ
StructuralMD/Lallygone,info@structuralmd.com,+19738844466,https://www.structuralmd.com/,Whippany,NJ
Boulevard Constructions,info@theboulevard.us,+19163304200,https://theboulevard.us/,Sacramento,CA
S&M Carolina Construction,info@smcarolinaconstruction.com,+17047733388,https://smcarolinaconstruction.com/,Indian Trail,NC
Bibi Construction Inc,info@bibiconstruction.com,+18448418101,https://bibiconstruction.com/,Tarzana,CA
Custom Design Construction,jared@cdc.build,+17602183300,https://cdc.build/,Vista,CA
Storm Force Roofing + Construction,info@stormforceroof.com,+18178138887,https://stormforceroof.com/,Southlake,TX
Classic Construction,accounting@classicconstruction.com,+19724370909,https://classicconstruction.com/,Garland,TX
Classic Construction,sendmeinfo@classicconstruction.com,+19724370909,https://classicconstruction.com/,Garland,TX
Carolina Design & Construction,info@carolina-construction.com,+19198326273,https://carolina-construction.com/,Raleigh,NC
Build Once Construction,justin@buildonceconstruction.com,+17017381010,https://buildonceconstruction.com/,Grand Forks,ND
Natay Construction,office@natayconstruction.com,+14352003164,https://www.natayconstruction.com/,Farmington,UT
Render Solutions Custom Homes,info@render-solutions.com,+17205519013,https://www.render-solutions.com/,Parker,CO
REMCON Design Build | San Diego Remodeling Contractor,info@remcondesignbuild.com,+18588748779,https://www.remcondesignbuild.com/,San Diego,CA
Sega Contracting Corp.,info@segacontracting.com,+17183333400,https://segacontracting.com/,Brooklyn,NY
Bluemark Construction,mason@bluemarkconstruction.com,+18016982813,https://www.bluemarkconstruction.com/,Layton,UT
KEAR Civil Corporation,info@kearcorp.com,+16235801100,https://kearcorp.com/,Phoenix,AZ
BGC Expert Contractors,brian@bgcexperts.com,+18646330581,https://bgcexperts.com/,Raleigh,NC
AIC General Contractors,questions@aic-gc.com,+15058814242,https://aic-gc.com/,Albuquerque,NM
Yanover Construction,office@yanoverconstruction.com,+14043818947,https://yanoverconstruction.com/,Alpharetta,GA
AllPro Contracting,info@allprorepairs.com,+17086583500,https://allprorepairs.com/,Bridgeview,IL
Bang-Up Construction,bangup@live.com,+16055450769,http://bangupconstruction.com/,Rapid City,SD
"Simcity Construction, Inc.",info@scgeneralcontractor.com,+12133857447,http://scgeneralcontractor.com/,Los Angeles,CA
Charles Grey Roofing & Construction Co.,admin@charlesgreyconstruction.com,+19858606725,https://charlesgreyconstruction.com/,Gray,LA
Cianci Construction,info@cianciconstruction.com,+19544340023,https://www.cianciconstruction.com/,Davie,FL
Texas Built Construction,projects@txbuiltconstruction.com,+19722190729,https://www.txbuiltconstruction.com/,Plano,TX
De Bernardi Construction Co,mainoffice@dccwyo.com,+13073828034,https://www.dccwyo.com/,Rock Springs,WY
D&N Construction & Consulting Inc.,arfanmuhmood@gmail.com,+16467305552,https://dncontractingnyc.com/,Staten Island,NY
DJ CUSTOM CONTRACTING LLC,info@djcustomcontracting.com,+15164010820,https://www.djcustomcontracting.com/,Bronx,NY
The Washington Building Group,info@thewbgllc.com,+14436519610,https://www.thewbgllc.com/,Baltimore,MD
Construction Source HTX LLC,constructionsourcehtx@gmail.com,+17132614262,http://constructionsourcetx.com/,Cypress,TX
Build with Ryan,rkbuildersus@gmail.com,+15592068446,https://buildwithryannow.com/,Oakhurst,CA
D Price Customs LLC,Quote@dpricecustoms.com,+15035834043,https://dpricecustoms.com/,Salem,OR
D Price Customs LLC,info@dpricecustoms.com,+15035834043,https://dpricecustoms.com/,Salem,OR
Affordable Remodeling,HuntWarner@gmail.com,+14045319292,https://www.affordableremodelingatl.com/,Atlanta,GA
DiMeo Construction,office@dimeocc.com,+12039811244,https://dimeocc.com/,Norwalk,CT
"A+ Home Improvements, LLC",office@remodeltoledo.com,+14194781633,https://remodeltoledo.com/,Toledo,OH
M J Robbins Construction Inc,11890562@qq.com,+15884406440,http://melfixit.com/,Indianapolis,IN
Pioneer General Construction US Corp,pioneergcmarketing@gmail.com,+19174779667,http://pioneergeneralco.com/,Bronx,NY
Steele's Roofing & Construction,info@steelesconstruction.com,+13085320575,https://steelesconstruction.com/,North Platte,NE
Ace General Contracting,info@acecontractingcorp.com,+19172519472,https://www.acecontractingcorp.com/,Bronx,NY
Coastal Construction Inc,info@cci-florida.com,+13862424228,https://cci-florida.com/,New Smyrna Beach,FL
Kingdom Way Works,kingdomwayworks@yahoo.com,+13613563682,https://kwwbuilders.com/,Corpus Christi,TX
Trumbull Corp.,info@trumbullcorp.com,+14128072000,https://www.trumbullcorp.com/,Pittsburgh,PA
Midwest Contracting Inc.,info@midwest-contracting.com,+14198664560,https://www.midwest-contracting.com/,Holland,OH
Midwest Contracting Inc.,pat.nawrocki@midwest-contracting.com,+14198664560,https://www.midwest-contracting.com/,Holland,OH
Midwest Contracting Inc.,frankie.blackwood@midwest-contracting.com,+14198664560,https://www.midwest-contracting.com/,Holland,OH
Midwest Contracting Inc.,jarek.griffiths@midwest-contracting.com,+14198664560,https://www.midwest-contracting.com/,Holland,OH
Midwest Contracting Inc.,pat.alfano@midwest-contracting.com,+14198664560,https://www.midwest-contracting.com/,Holland,OH
Midwest Contracting Inc.,mike.keller@midwest-contracting.com,+14198664560,https://www.midwest-contracting.com/,Holland,OH
Midwest Contracting Inc.,curtis.meuleman@midwest-contracting.com,+14198664560,https://www.midwest-contracting.com/,Holland,OH
Midwest Contracting Inc.,konor.crandell@midwest-contracting.com,+14198664560,https://www.midwest-contracting.com/,Holland,OH
Midwest Contracting Inc.,kyle.fackler@midwest-contracting.com,+14198664560,https://www.midwest-contracting.com/,Holland,OH
Midwest Contracting Inc.,adam.milhouse@midwest-contracting.com,+14198664560,https://www.midwest-contracting.com/,Holland,OH
Midwest Contracting Inc.,aaron.koder@midwest-contracting.com,+14198664560,https://www.midwest-contracting.com/,Holland,OH
Midwest Contracting Inc.,dean.schiavone@midwest-contracting.com,+14198664560,https://www.midwest-contracting.com/,Holland,OH
Midwest Contracting Inc.,randy.hayes@midwest-contracting.com,+14198664560,https://www.midwest-contracting.com/,Holland,OH
Midwest Contracting Inc.,marcus.price@midwest-contracting.com,+14198664560,https://www.midwest-contracting.com/,Holland,OH
Midwest Contracting Inc.,jennifer.koder@midwest-contracting.com,+14198664560,https://www.midwest-contracting.com/,Holland,OH
Morgan’s Construction LLC,Morgans.const.llc@gmail.com,+18642475064,https://www.morgansconstructionllc.com/,Fair Play,SC
"Comer Construction, Inc.",info@comerconstruction.com,+14108796094,https://www.comerconstruction.com/,Forest Hill,MD
"Shorecrest Construction, Inc. - Luxury Builder",collab@shorecrestgc.com,+13053475409,https://shorecrestgc.com/,Miami,FL
Garcia And Sons Construction LLC,info@garciaandsonsconstruct.com,+15616312025,http://garciaandsonsconstruct.com/,Port St. Lucie,FL
Miami Pro Construction,info@miamiproconstruction.com,+13058505123,https://miamiproconstruction.com/,Miami,FL
McDowell Mountain Builders,info@mcdowellmountainbuilders.com,+14808459621,https://mcdowellmountainbuilders.com/,Scottsdale,AZ
"Daugaard Construction, LLC",devin@daugaard.co,+13077520056,http://daugaard.co/,Sheridan,WY
NextDay Remodeling,info@nextdayremodeling.net,+15712158006,https://nextdayremodeling.net/,Alexandria,VA
Fairway Construction,fairwayconstruction951@gmail.com,+19517128074,https://www.fairwayconstruction.com/,Wildomar,CA
Bayside Home Improvement Inc,info@baysidehi.net,+14086820554,https://baysidehomeimprovement.com/,San Jose,CA
Nejasmich Developments,matt@nejasmich.com,+16506102600,https://nejasmichinc.com/,San Mateo,CA
Half Moon Hollow Development and Design LLC,kevin@halfmoonhollow.com,+18284509089,https://www.halfmoonhollow.com/,Arden,NC
Chicago General Contractor,info@chicagogeneralcontractor.net,+17089562761,https://chicagogeneralcontractor.net/,Chicago,IL
Adkins Building & Construction,admin@adkinsbuilt.com,+19418963012,https://adkinsbuilt.com/,Bradenton,FL
4 Gen Homes LLC,david@4genhomes.com,+16026947030,https://www.4genhomes.com/,Phoenix,AZ
Witty Innova Solutions LLC,wittyinnovasolutions@gmail.com,+14077130027,https://wittyinnovasolutions.com/,Orlando,FL
Marwood Construction,info@marwoodconstruction.com,+17138181720,https://www.marwoodconstruction.com/,Houston,TX
1 Smart Build - Construction Company,info@1smart.build,+18664198840,https://1smart.build/,Woodland Hills,CA
Grimes Construction,Grimesconst@gmail.com,+13024626533,https://grimesconstructionllc.com/,Georgetown,DE
Nola Build Construction & Design,nolabuild@yahoo.com,+15043392480,https://nolabuild.com/,Chalmette,LA
Kabela & Co,izabela@kabela.co,+19143308491,http://kabela.co/,Dobbs Ferry,NY
Lerno Construction Inc.,info@lernoconstructioninc.com,+18053692074,http://lernoconstructioninc.com/,Templeton,CA
K Construction & Remodeling,Kconstruct@gmail.com,+19544579212,https://kconstructioncorp.com/,Surfside,FL
Capitol Roofing & Construction LLC,info@capitolrcllc.com,+19724748955,http://capitolrcllc.com/,Rowlett,TX
North Texas Contractors Group,info@ntxcg.com,+14697674846,https://www.ntxcg.com/,Fort Worth,TX
North Texas Contractors Group,wholman@ntxcg.com,+14697674846,https://www.ntxcg.com/,Fort Worth,TX
Groen Construction Inc.,info@groenconstruction.com,+16033326551,https://www.groenconstruction.com/,Rochester,NH
EIC Associates Inc,info@eicassociates.com,+19733150200,https://www.eicassociates.com/,Springfield,NJ
"605 Companies, Inc",estimating@605inc.com,+16052513185,https://605inc.com/,Sioux Falls,SD
Osborne Contractors LLC,info@osbornecontractors.com,+15043045578,https://www.osbornecontractors.com/,New Orleans,LA
Osborne Contractors LLC,MattO@osbornecontractors.com,+15043045578,https://www.osbornecontractors.com/,New Orleans,LA
Chris Thieme Building,Chris@thiemebuilding.com,+15413577602,https://thiemebuilding.com/,Westfir,OR
Meta Construction Inc.,metaconinc@yahoo.com,+19042881372,https://www.metaconinc.com/,Jacksonville,FL
Atl Basement Pros,atlbasementpros@gmail.com,+14709649990,https://atlbasementpros.com/,Mableton,GA
Supreme Remodeling Inc,info@supremeremodelinginc.com,+18885588394,https://supremeremodelinginc.com/,Van Nuys,CA
"SkyReach Construction, LLC",info@skyreachconstruction.com,+18506840006,https://www.skyreachconstruction.com/,Niceville,FL
"BRIGHT BUILDERS PNW - ""Highly Recommended, General Contractor, Trusted by Homeowners"" - (Residential & Commercial Services)",office@brightbuilderspnw.com,+12533080338,https://brightbuilderspnw.com/,Orting,WA
"LuxHome, Inc.",info@luxhomeinc.com,+14434175652,http://luxhomeinc.com/,North East,MD
Emerald Coast HomeScapes,mike.echomescapes@gmail.com,+13162495887,https://emeraldcoasthomescapes.com/,Daphne,AL
LaRue Custom Homes LLC,laruecustomhomes@gmail.com,+19032722111,https://www.laruecustomhomes.com/,Caddo Mills,TX
Core Construction Group,info@coreconstructiongroup.com,+12129201926,https://coreconstructiongroup.com/,Brooklyn,NY
"SolidConst LLC – Concrete, Structural Repairs & Screen Enclosures",info@solidconst-llc.com,+15714329018,https://solidconst-llc.com/,Sarasota,FL
WestPro Contracting Inc.,lynn@westprocontracting.com,+19516986588,https://www.westprocontracting.com/,Murrieta,CA
MASSCON Inc,mike@massconinc.com,+17244385240,https://www.massconinc.com/,Oliver,PA
SH5 Construction Corporation,info@sh5construction.com,+17182592625,http://sh5construction.com/,Brooklyn,NY
Top Rated Construction NYC Inc,topratedconstructionnyc@gmail.com,+16468669527,https://topratedconstructionnyc.com/,Long Island City,NY
APX Construction Group,info@apxconstructiongroup.com,+15072672807,https://apxconstructiongroup.com/,Mankato,MN
B L Law Construction Co,steve@bllawconstruction.com,+17709418545,http://bllawconstruction.com/,Austell,GA
Dotson Home Improvement LLC,Mike@dotson-homeimprovement.com,+14027148955,https://dotson-homeimprovement.com/,West Point,NE
MBC Management | Commercial Construction,info@mbcmusa.com,+17135884453,https://mbcmusa.com/,Navasota,TX
DIMS Home Improvement,daniel@dimshomeimprovement.com,+12254683467,https://dimshomeimprovement.com/,Gonzales,LA
B&D Construction Brownstone Restoration & Masonry Contractor,bndconstructionnyc@gmail.com,+17185522445,https://www.bnd1construction.com/,Brooklyn,NY
Zacchero Construction LLC,info@zaccheroconstruction.com,+14127158695,https://www.zaccheroconstruction.com/,Bethel Park,PA
Asset Builders & Construction,info@abcchicagoconstruction.com,+17736982860,https://abcchicagoconstruction.com/,Chicago,IL
AMC Contracting Group,info@amccontractinggroup.com,+14406478788,http://amccontractinggroup.com/,Amherst,OH
Ballard Construction LLC,office@ballardconstructllc.com,+15413212090,https://www.ballardconstruction.net/,Corvallis,OR
Grinder Taber & Grinder Inc,info@grindertaber.com,+19017672400,https://grindertaber.com/,Memphis,TN
"Renaissance Building, Inc",info@renaissancebuilding.com,+12488595943,http://renaissancebuilding.com/,Wixom,MI
"D&S Elite Construction, Inc.",info@dseliteconstruction.com,+16103850475,https://dseliteconstruction.com/,Douglassville,PA
Bay Country Associates Inc,paul@baycountryassociates.com,+13025404106,https://baycountryassociates.com/,Elkton,MD
JFC Pros Construction,sales@jfcpros.com,+15083291808,http://jfcpros.com/,Westborough,MA
Painting Contractor Quotes,santopaints@gmail.com,+14405211022,https://www.paintingcontractorquotes.com/,Parma,OH
TT&T General Contractor LLC,info@tttcontractors.com,+13012755183,https://tttcontractors.com/,Burtonsville,MD
Reagan Construction Group,reaganconstructiongroup@yahoo.com,+18606255870,https://www.reaganconstructiongroup.com/,Waterford,CT
A2Z Builders,scheduling@a2zbuilders.com,+17206649230,https://www.a2zbuilders.com/,Denver,CO
Amaral Services LLC,amaralservices1@gmail.com,+15083796189,https://amaralservicesllc.com/,Swansea,MA
"Uhrig Construction, Inc",info@uhrigconstruction.com,+16103731612,https://www.uhrigconstruction.com/,Reading,PA
Scharf Building Services,info@scharfbuildingservices.com,+16184072425,https://www.scharfbuildingservices.com/,Millstadt,IL
TriCon Builders,raymond@tricontn.com,+14233289115,http://tricontn.com/,Johnson City,TN
A List Development inc,ALDINC770@gmail.com,+18002658390,https://alistdevelopmentinc.com/,Van Nuys,CA
Dualcore Construction Management,info@dualcorecm.com,+19177402298,https://dualcorecm.com/,West New York,NJ
Sunstate Builders-South,sales@sunstatebuilder.com,+17862321459,https://www.sunstatebuilder.com/,Sunny Isles Beach,FL
Brothers Remodeling Group LLC,office@brothersremodelingct.com,+12037519222,https://brothersremodelingct.com/,Derby,CT
Bonn Group America Construction,rnjankenji@bonngroupamerica.com,+12024519558,https://www.bonngroupamerica.com/,Washington,DC
K & X Construction Services LLC,kx.services.llc@gmail.com,+12039547087,https://www.kandxservices.com/,Shelton,CT
GTex General Contracting,GTexLLC@yahoo.com,+12109021027,https://gtexgc.com/,San Antonio,TX
"Valley View Home Improvements, LLC",Valleyviewhillc@gmail.com,+17173210863,https://valleyviewbuilds.com/,Gettysburg,PA
"Valley View Home Improvements, LLC",info@valleyviewhomeimprovement.com,+17173210863,https://valleyviewbuilds.com/,Gettysburg,PA
Skyler Design Build,contactus@skylerdesignbuild.com,+12818913884,https://skylerdesignbuild.com/,Houston,TX
Raybrook Homes,info@raybrookhomes.com,+18644165763,https://www.raybrookhomes.com/,Greer,SC
Aliz Renovation,alizrenovation@gmail.com,+16303648722,https://alizrenovation.com/,Naperville,IL
Bryce Johnson Construction Services,BryceJohnsonConstruction@gmail.com,+19137774147,https://www.brycejohnsonconstruction.com/,Shawnee,KS
"Rolo Construction, Inc.",rolo@mt.net,+14062021882,https://roloconstructioninc.com/,Helena,MT
Fine Remodeling,randy@fineremodelingde.com,+13026350375,https://www.fineremodelingde.com/,Wilmington,DE
Bath Envy Remodeling,info@bathenvy.com,+14699053201,https://bathenvy.com/,McKinney,TX
MM Services 4U,info@mmservices4u.com,+16179357796,https://www.mmservices4u.com/,Everett,MA
DreamMaker of West Collin County,marketing@dreammakerbk.com,+18335691386,https://www.dreammaker-remodel.com/,McKinney,TX
"Skyden Contractors, Inc.",skydencontractors@gmail.com,+13214994282,https://brevardkitchenandbathremodeling.com/,Palm Bay,FL
MB Design and Remodel,info@medranobros.com,+14435905048,https://mbsvcs.com/,Crofton,MD
Dayside Construction,info@dayside-va.com,+15403055698,https://www.dayside-va.com/,Front Royal,VA
Quaker Home and Commercial Contractors,quakercontractors@gmail.com,+12678974289,https://quakercontractors.com/,Quakertown,PA
Odell Construction Inc.,info@odellconstructioninc.com,+14404717935,https://odellconstructioninc.com/,Westlake,OH
Sankar Construction,SankarConstructionLLC@gmail.com,+19733904966,https://sankarconstruction.com/,Wayne,NJ
"RK Design, Inc. | Remodeling NYC",Imagine@rkrok.com,+19179632144,http://rkrok.com/,Flushing,NY
Le Gourmet Kitchen Remodeling Orange County,LGKinfo@legourmetkitchen.com,+17149396227,http://legourmetkitchen.com/,Orange,CA
Right Choice Construction Corp,info@rightchoiceconstructioncorp.com,+17188449384,https://rightchoiceconstructioncorp.com/,Ridgewood,NY
"Emerald C's Development, Inc.",frontdesk@emerald-cs.com,+19047170333,https://ecdjax.com/,Jacksonville,FL
SGA Construction,travis@sgaconstruction.net,+13196272990,https://sgaconstruction.net/,West Liberty,IA
Alfred's Construction and Renovation,houston@alfredsconstruction.com,+17132728985,https://www.alfredsconstruction.com/,Austin,TX
Grace General Construction Corp,info@gracegeneralconstruction.com,+17187758519,https://gracegeneralconstruction.com/,Bronx,NY
Prime Home Design-Remodeling Contractors,primehomedesignca@gmail.com,+18888403188,https://primehomedesignca.com/,Los Angeles,CA
OKC Renovations,OKCRENOVATIONS@gmail.com,+14056420015,https://okc-renovations.com/,Oklahoma City,OK
OKC Renovations,okcrenovations@gmail.com,+14056420015,https://okc-renovations.com/,Oklahoma City,OK
"BluRock Services, inc.",email@blurockservices.com,+15163684533,https://blurockservices.com/,Bayside,NY
"J&S Siding and Gutters, LLC",info@jandssiding.com,+16514596635,https://www.jandssiding.com/,Newport,MN
North Texas Renovations LLC,info@northtexasrenovations.com,+14696186841,https://northtexasrenovationsllc.com/,Plano,TX
Buck Construction,support@buckconstruction.org,+12676567077,https://buckconstruction.org/,Glenside,PA
"Compass Restoration Group, LLC",info@infocrg.com,+18447663274,http://infocrg.com/,Vero Beach,FL
Zicklin Contracting Corp.,zicklin@zicklincontracting.com,+17185502779,https://www.zicklincontracting.com/,New York,NY
Best Budget Construction,bestbudgetconstruction@gmail.com,+19176749488,https://www.bestbudgetconstruction.com/,Brooklyn,NY
Fab Build Pro,info@fabbuildpro.com,+17037666599,https://fabbuildpro.com/,Vienna,VA
United Construction Solutions INC,info@unitedconstructionfl.com,+14073341235,https://www.unitedconstructionfl.com/,St Cloud,FL
T. W. Spinks Home Improvements,twspinks85@gmail.com,+14107871215,https://twspinks.com/,Odenton,MD
E&E General Contracting,info@eecontractingllc.com,+17174424814,https://www.eecontractingllc.com/,Gap,PA
PJ Dick,info@pjdick.com,+14128072000,https://pjdick.com/,Pittsburgh,PA
"Ray's Construction & Rehab, Inc",buildyourdream@rcrbgky.com,+12707099233,https://www.rcrbgky.com/,Bowling Green,KY
Above The Competition Llc,jerodpalmer313@abovethecompetitionllc.net,+15153818553,http://abovethecompetitionllc.net/,Muskogee,OK
"Blucor Contracting, Inc.",info@blucor.com,+14805958073,https://blucor.com/,Mesa,AZ
MCON Construction/Fern Creek Group,build@mconconstruction.com,+18037896266,https://mconconstruction.com/,Chester,SC
MCON Construction/Fern Creek Group,ferncreekgroup@gmail.com,+18037896266,https://mconconstruction.com/,Chester,SC
Green Future Construction,info@green-future.us,+18185101845,http://green-future.us/,Van Nuys,CA
Ramate Construction,RamsJF@comcast.net,+19419150189,https://ramateconstruction.com/,Sarasota,FL
Greater Pacific Construction,info@greaterpacificconstruction.com,+19499796177,https://greaterpacificconstruction.com/,Santa Ana,CA
Dovetail Group LLC,info@dovetailgroupllc.com,+14846392776,http://dovetailgroupllc.com/,West Chester,PA
Buckingham Bath & Home Remodeling,BuckinghamBNH@gmail.com,+12674463324,https://buckinghambnh.com/,Buckingham,PA
Alpine Painting LLC,Alpinepainting503@gmail.com,+19713710784,https://alpinepaintingllc.com/,Hillsboro,OR
Builders Innovation Group,big.office@buildersig.com,+17143611257,https://www.buildersig.com/,Murrieta,CA
Cloud Nine Construction,info@cloud9construction.net,+15592898991,https://cloudnineconstruction.net/,Fresno,CA
Improved Space LLC,Brian@improvedspace.com,+17818971730,https://www.improvedspace.com/,Norton,MA
Prescott & Sons Construction,info@prescottandsons.com,+18038194142,https://prescottandsons.com/,North Augusta,SC
"Bernier Building & Remodeling, Inc.",info@bernierremodeling.com,+12034358074,https://www.bernierremodeling.com/,Milford,CT
Legendary Custom Homes & Renovations,jonl@legendaryrenovationsinc.com,+16785926961,https://legendaryrenovationsinc.com/,Woodstock,GA
Sockaci Contracting LLC,email@sockacicontracting.com,+17242729554,http://sockacicontractingllc.com/,Ellwood City,PA
"Gabbert Construction, Inc.",info@gabbertconstruction.com,+12098335050,http://gabbertconstruction.com/,Tracy,CA
McClurg | Design Build Remodel Repair,appointments@mcclurgteam.com,+13156732051,http://mcclurgteam.com/,Marcellus,NY
C. Quinn Construction Inc.,chuckquinn9@gmail.com,+12525048082,https://cquinnconstruction.com/,Newport,NC
Dc Home Renovations Inc.,Denny@dchomerenovationsinc.com,+18189843376,http://dchomerenovationsinc.com/,Los Angeles,CA
Contractor 2.0,contractor2.0service@gmail.com,+17077207826,https://contractor20.com/,Fairfield,CA
Stoney Brooke Home Renovations & Design,ssaurs@stoneybrookehrd.com,+17176579339,https://www.stoneybrookehrd.com/,Harrisburg,PA
Stoney Brooke Home Renovations & Design,csteach@stoneybrookehrd.com,+17176579339,https://www.stoneybrookehrd.com/,Harrisburg,PA
RB Construction USA,RBConstructionUSA.Dallas@gmail.com,+18176630104,https://rbconstructionusa.com/,Dallas,TX
"Phoenix Rising Renovations, LLC",phoenixrisingrenovationsllc@gmail.com,+18065001551,https://www.phoenixrisingrenovationsllc.com/,Lubbock,TX
Taurus Commercial Inc,info@tauruscommercial.com,+19722435444,https://tauruscommercial.com/,Dallas,TX
"J&J Construction Of Illinois, Inc.",info@jandjconstruction.com,+16309048500,http://jandjconstruction.com/,Aurora,IL
J.B. Donaldson Company,info@jbdonaldson.com,+12483449045,https://jbdonaldson.com/,Farmington Hills,MI
D.H. Griffin Construction Co.,information@dhgc.com,+13363161181,https://www.dhgc.com/,Greensboro,NC
"Wojcik Builders, Inc",nchilds@wojcikbuilders.com,+14407861776,https://wojcikbuilders.com/,Oakwood,OH
Reed Construction,contactus@reedcorp.com,+13129438100,https://reedcorp.com/,Chicago,IL
"AAG & Associates, Inc.",george@aagincnj.com,+19738098287,http://aagincnj.com/,Linden,NJ
Inexterior Dezign LLC,inexteriordezign@gmail.com,+13305757732,https://inexteriordezignllc.com/,Massillon,OH
"Tri-Town Construction, LLC",Connect@tri-townconstruction.com,+12398952058,https://www.tri-townconstruction.com/,Fort Myers,FL
Muirhead Home Restorations,info@muirheadhomes.com,+16178719839,https://muirheadhomes.com/,Maynard,MA
RL Remodeling,info@rl-remodeling.com,+18883241144,https://rl-remodeling.com/,Woodland Hills,CA
Graphite Construction Group,info@graphitegrp.com,+15152789446,https://graphitegrp.com/,Des Moines,IA
Nick Management Inc,inquiries@nickmgmt.com,+19176429979,https://nickmgmt.com/,Brooklyn,NY
"DESCCO Design & Construction, Inc.",info@descco.com,+16104261578,https://descco.com/,Lancaster,PA
Centrum Construction Inc General Contractors Denver,gary@centrumci.com,+13036377094,https://centrumci.com/,Fort Lupton,CO
"Hammers Construction, Inc.",cschmitz@hammersconstruction.com,+13036882011,https://hammersconstruction.com/,Colorado Springs,CO
"Hammers Construction, Inc.",info@hammersconstruction.com,+13036882011,https://hammersconstruction.com/,Colorado Springs,CO
Roider Contracting,paulroider@roidercontracting.com,+13148070492,http://roidercontracting.com/,Columbia,IL
TopLevel Construction - Home Remodeling,support@toplevel.construction,+18087078887,https://toplevel.construction/,Aiea,HI
TopLevel Construction - Home Remodeling,ceo@toplevel.construction,+18087078887,https://toplevel.construction/,Aiea,HI
TopLevel Construction - Home Remodeling,office.manager@toplevel.construction,+18087078887,https://toplevel.construction/,Aiea,HI
"Legacy Construction Services, LLC",info@legacy-cs.com,+12315822236,https://www.legacy-cs.com/,Boyne City,MI
"The Stukel Group, LLC",info@stukelgroup.com,+15086251020,https://stukelgroup.com/,Hopkinton,MA
"VRD Contracting, Inc.",solutions@vrdcontracting.com,+16319567000,https://vrdcontracting.com/,Holbrook,NY
Yoder Remodels,info@yoderremodels.com,+12816422902,http://yoderremodels.com/,Houston,TX
BEC Austin General Contractor,info@becaustin.com,+15123273951,http://becaustin.com/,Austin,TX
Bentz Contracting L.L.C.,Brandon@bentzcontractingllc.com,+15093003715,https://bentzcontractingllc.com/,Elk,WA
Valentin Builders,info@valentinbuilders.com,+15612525139,https://valentinbuilders.com/,West Palm Beach,FL
Valentin Builders,info@valentinbuilders.com,+15612525139,https://valentinbuilders.com/,West Palm Beach,FL
TM-International Construction,info@tm-intel.com,+18446335500,https://tm-intel.com/,Arlington,VA
GCA Miami Permit Concepts LLC,gcamiamipermitconcepts@gmail.com,+17863890330,https://gcmiamipermits.com/,Weston,FL
Bela Development,info@beladevelopment.com,+13107421261,https://beladevelopment.com/,Venice,CA
Silver Hammer Builders Roofing I Construction I Design,info@silverhammerbuilders.com,+13102691551,https://silverhammerbuilders.com/,Los Angeles,CA
Sobe Builders Florida,info@sobebuilders.com,+18332477623,https://www.sobebuilders.com/,Sunrise,FL
Miniopolis LLC,info@miniopolisbuilders.com,+12393298804,https://miniopolisbuilders.com/,Fort Myers,FL
Hershberger Construction,matt@hershbergerconstruction.net,+17192169545,https://hershbergerconstruction.net/,Westcliffe,CO
Icon Home Remodeling Inc,Iconhomeremodeling@gmail.com,+18335005550,http://iconhomeremodeling.com/,Reseda,CA
Icon Home Remodeling Inc,pandabuildersinc@gmail.com,+18335005550,http://iconhomeremodeling.com/,Reseda,CA
"BLM Construction & Remodeling, LLC",quality@blmconstruction.net,+17179317456,https://blmconstruction.net/,York,PA
Brock Construction Services,manager@contactbrock.com,+15095570911,http://contactbrock.com/,Kennewick,WA
1st Choice Design & Development,info@1stchoicedevelopment.com,+18442923700,https://www.1stchoicedevelopment.com/,Orange,CA
JR Allen Construction,jrallenconstruction@yahoo.com,+12074464055,https://jrallenconstruction.net/,Augusta,ME
Freedom Construction,freedomconstruction.travis@gmail.com,+14024401268,https://freedomconstructionlincoln.com/,Lincoln,NE
Pine and Peak Renovations,info@pineandpeakservices.com,+14693449550,https://pineandpeakservices.com/,McKinney,TX
"Northern Contracting, LLC",mnnortherncontracting@gmail.com,+12183284984,https://www.mnnortherncontracting.com/,Grand Rapids,MN
"Alltrade Construction Services, LLC",info@alltradeconstructionmn.com,+17632447021,https://www.alltradeconstructionmn.com/,Blaine,MN
Ibco Builders,support@ibcobuilders.com,+17135740242,https://ibcobuilders.com/en,Pearland,TX
Creekside Pro Construction,creekconstruction.net@gmail.com,+19259403135,https://creeksideproconstruction.com/,Pleasant Hill,CA
Bran Construction,branconstruction11@gmail.com,+14154973414,https://branconstruction.com/,Novato,CA
DuPaul Construction,info@dupaulconstruction.com,+13042589800,http://dupaulconstruction.com/,Martinsburg,WV
Fryar Construction,office@fryarconstructionllc.com,+17066202663,https://www.fryarconstructionllc.com/,LaFayette,GA
Captivating Construction Group,info@captivatingconstruction.com,+17325479151,https://captivatingconstruction.com/,Colts Neck,NJ
Ortiz Building Contractor,ortizbuildingcontractor@gmail.com,+13863136055,http://ortizcontractingservices.com/,Bunnell,FL
Ortiz Roofing Contractor,ortizbuildingcontractor@gmail.com,+13863136055,http://ortizcontractingservices.com/,Bunnell,FL
Ortiz Pool Contractor,ortizbuildingcontractor@gmail.com,+13863136055,http://ortizcontractingservices.com/,Bunnell,FL
E J Perry Construction Co Inc,info@ejperry.com,+12076222259,http://ejperry.com/,Hallowell,ME
Vibe Remodeling,viberemodeling@gmail.com,+18559998666,https://www.viberemodeling.com/,Marina Del Rey,CA
Triple Creek Concrete & Masonry LLC,support@triplecreekconcrete.com,+15075129228,https://www.triplecreekconcrete.com/,Zumbro Falls,MN
Alltech Construction,info@alltechcontractors.net,+15129667468,https://alltechcontractors.net/,Cedar Park,TX
OED Tiny Home Development Services,create@oedtinyhomebuilders.com,+18005180413,https://www.oedtinyhomebuilders.com/,Talladega,AL
OED Tiny Home Development Services,sales@oedprefabhomes.com,+18005180413,https://www.oedtinyhomebuilders.com/,Talladega,AL
MF Construction Inc.,mattfleck@mfconstruction.com,+12547607978,http://mfconst.com/,Belton,TX
MF Construction Inc.,carolfleck@mfconstruction.com,+12547607978,http://mfconst.com/,Belton,TX
Nill Construction Inc.,office@nillconstruction.com,+17012526077,https://nillconstruction.com/,Jamestown,ND
SEMCO Construction,debi@semcohomes.com,+14055201144,http://semcohomes.com/,Yukon,OK
"American Building Systems, LLC",bids@absnevada.com,+17022708485,http://absnevada.com/,Henderson,NV
"McGuire Contracting Co., LLC",william@mcguire-contracting.com,+15405267814,https://mcguirecontractingcompany.com/,Salem,VA
Ridgeway Construction Inc.,contact@ridgewayconstructionmt.com,+14065524663,http://ridgewayconstructionmt.com/,St Ignatius,MT
"MP Excavation, LLC",mike@mpexcavation.com,+18608858182,https://mpexcavation.com/,Oakdale,CT
SunTrust Remodeling,Hello@suntrustremodeling.com,+19494903074,https://suntrustremodeling.com/,Irvine,CA
Gus & Sons Home Services LLC,Gus@gusandsons.com,+17037750000,https://gusandsons.com/,Springfield,VA
NOMI - Bathroom Remodel,info@nomibath.com,+18003718970,https://nomibath.com/,Southlake,TX
Rise Construction,sales@riseconstructiontx.com,+12818177160,https://riseconstructiontx.com/,Houston,TX
Alpha Omega Contractors,anthony@aocontractors.com,+17142063466,https://aocontractors.com/,Irvine,CA
Home Concepts Construction,info@homeconceptsnj.com,+19083631938,https://homeconceptsnj.com/,New Providence,NJ
Nip Tuck Remodeling,info@ntremodel.net,+14256897266,https://niptuckremodel.com/,Snohomish,WA
JSM Custom Remodels,info@jsmcustomremodels.com,+13473055961,https://jsmcustomremodels.com/,New York,NY
"Sebring Design Build, Remodeling",BRYAN@sebringdesignbuild.com,+16157162080,https://sebringdesignbuild.com/,Brentwood,TN
JMF Commercial Construction,info@jmfcommercialconstruction.com,+15625728354,http://jmfcommercialconstruction.com/,Whittier,CA
Metro Construction Group,metro@metrocg.net,+17203172275,http://metroconstructiongroup.com/,Englewood,CO
INS Contractors,press@ins-contractors.com,+12125979292,https://ins-contractors.com/,Brooklyn,NY
INS Contractors,accounting@ins-contractors.com,+12125979292,https://ins-contractors.com/,Brooklyn,NY
INS Contractors,office@ins-contractors.com,+12125979292,https://ins-contractors.com/,Brooklyn,NY
INS Contractors,info@ins-contractors.com,+12125979292,https://ins-contractors.com/,Brooklyn,NY
Elite General Contracting,ron@elitegcnm.com,+15055084568,https://www.elitegeneralcontractingnm.com/,Rio Rancho,NM
"Designs by Mark, Inc.",info@designsbymarkinc.com,+12396318155,https://www.designsbymarkinc.com/,Naples,FL
Eckelkamp Construction Inc.,info@eciflorida.com,+17273333333,http://eciflorida.com/,St. Petersburg,FL
Schwabe Contracting Inc,info@schwabecontractinginc.com,+19735123933,http://schwabecontractinginc.com/,Sparta,NJ
"J & J 2000, Inc. dba J & J Construction",info@jandjtech.net,+18009614313,https://www.jandj2000.net/,Westminster,MD
"J & J 2000, Inc. dba J & J Construction",info@jandjconst.net,+18009614313,https://www.jandj2000.net/,Westminster,MD
Axion Concept,info@axionconcept.com,+18887338220,https://axionconcept.com/,Coral Springs,FL
BAJCO Construction,bajcoconstruction@yahoo.com,+14022172469,https://bajcoconstruction.com/,Lincoln,NE
BAJCO Construction,bajco24@yahoo.com,+14022172469,https://bajcoconstruction.com/,Lincoln,NE
Elite Contractors Services Inc,info@elitecontractorservices.com,+17038131768,https://elitecontractorservices.com/,Annandale,VA
Honeywill Construction,paul@myhoneywill.com,+19516420651,https://myhoneywill.com/,Hemet,CA
CK Commercial,info@ck-commercial.com,+14107152221,https://www.ck-commercial.com/,Millersville,MD
Brutsky Builds,hello@brutskybuilds.com,+12063169937,https://www.brutskybuilds.com/,Bellevue,WA
ANTOVA LLC,paul@antovaluxury.com,+13213021893,https://antovaluxury.com/,Melbourne,FL
ANTOVA LLC,tina@antovaluxury.com,+13213021893,https://antovaluxury.com/,Melbourne,FL
Squared Construction of the Desert,info@squaredconst.com,+17606258019,https://squaredconst.com/,Palm Springs,CA
The Cher Group Contractors,corporate@thechergroup.com,+13052903323,https://thechergroup.com/,Miami,FL
NYKB: New York Kitchen & Bath Contractors,karina@nykb.com,+12122423500,https://www.nykb.com/,New York,NY
NYKB: New York Kitchen & Bath Contractors,info@nykb.com,+12122423500,https://www.nykb.com/,New York,NY
GGP Construction Management INC,GGPConstructionManagementINC@gmail.com,+17187261616,https://www.ggpconstructionmanagementinc.com/,Astoria,NY
Robensky's Construction,robensky101@gmail.com,+15084056428,https://robenskysconstruction.com/,Randolph,MA
American Contractor Near Me,admin@americancontractornearme.com,+12404486336,https://americancontractornearme.com/,Wheaton,MD
Urban Construction Corp,rs@urbanconstructioncorp.com,+19142004487,http://urbanconstructioncorp.com/,Rye Brook,NY
Superior Construction and Design,elizabeth@scdtn.com,+16159693354,https://superior-construction-and-design.com/,Lebanon,TN
Select Building Group Commercial,csacco@sbg-commercial.com,+13033090366,https://sbg-commercial.com/,Denver,CO
"Paragon Construction of VA, Inc.",paragonconstruction@cox.net,+17578426535,http://paragonconstructionofva.com/,Chesapeake,VA
Build Well Northwest,info@buildwellnw.com,+15039917104,http://buildwellnw.com/,Woodburn,OR
Paravati Kitchen & Bath,luke.perry@paravati-inc.com,+14076150793,https://paravati-inc.com/,Wallingford,PA
Grove Structures Inc.,grovestructures@gmail.com,+17204027836,https://www.grovestructures.com/,Wheat Ridge,CO
EZO Design & Build,emin@ezodes.com,+12027139855,https://ezodes.com/,Columbia,MD
Schock Construction and Design,hello@schockinc.com,+14257660479,http://schockinc.com/,Issaquah,WA
HELLO Renovation,hello@hellorenovation.co,+14256711550,https://hellorenovation.co/,Bellevue,WA
Northeast Kitchen Remodel & Design Build,info@northeastdesignbuild.com,+14019341074,http://northeastdesignbuild.com/,Johnston,RI
North Vision Builders,northvisionbuilders@gmail.com,+12062229609,https://northvisionbuilders.com/,Bellevue,WA
JP Grabenstetter Construction,info@jpgrabenstetterconstruction.com,+14152222222,https://www.jpgrabenstetter.com/,Akron,OH
Complete Home Remodeling LLC,danielchicas16@gmail.com,+19366486737,https://completehomeremodelingtx.com/,The Woodlands,TX
Del Mar Interiors Inc.,info@delmarinteriors.com,+17863564778,http://delmarinteriors.net/,Lauderdale-By-The-Sea,FL
"Renovate It, Inc.",contact@renovateit.com,+12082709425,https://renovateit.com/,Ammon,ID
Proper contracting NY inc,propercontractingny@gmail.com,+17182137646,https://propercontractingny.com/,Brooklyn,NY
Proper contracting NY inc,info@propercontractingny.com,+17182137646,https://propercontractingny.com/,Brooklyn,NY
Clar Construction,dan@clarconstruction.com,+18022233447,https://clarconstruction.com/,Montpelier,VT
"HNB Services, LLC",info@hnbservicesllc.com,+14435954621,https://hnbservicesllc.com/,Cockeysville,MD
D & R Design,sales@dandrdesignaz.com,+14803951509,https://dandrdesignaz.com/,Gilbert,AZ
BDM Construction Inc.,info@bdmconstructs.com,+14077305737,http://bdmconstruct.com/,Orlando,FL
SKYVIEW BUILDERS LLC,info@skyviewbuilders.com,+12032745756,https://skyviewbuilders.com/,Norwalk,CT
White Construction,white@whitecon.com,+13138726700,http://whitecon.com/,Detroit,MI
Construction & Remodeling Solutions,scott@bestremodelever.com,+12052308016,https://bestremodelever.com/,Pelham,AL
Advanced Construction And Design,advancedca09@gmail.com,+16614349154,https://advancedconstructionanddesign.com/,Lancaster,CA
Remnant Construction,info@remnantconstruction.com,+17725775850,https://remnantconstruction.com/,Fort Pierce,FL
Nailed It 440 LLC,Nailedit440@gmail.com,+14402650078,https://www.nailedit440.com/,Ashtabula,OH
"Wexford Commercial Construction, LLC",info@wexfordcc.com,+19527463400,https://www.wexfordcc.com/,Edina,MN
Coastal Custom Construction,coastalcustomconstruction@gmail.com,+19416629062,https://coastalcustom.construction/,Englewood,FL
"ElmStreet Exteriors - Windows, Doors, and Siding",tim@elmstreetexteriors.com,+18566493004,https://elmstreetexteriors.com/,Wenonah,NJ
Overland Remodeling & Builders,office@overlandremodeling.com,+18664245184,http://overlandremodeling.com/,Van Nuys,CA
NOMI - Bathroom Remodel,info@nomibath.com,+18003718970,https://nomibath.com/,Addison,TX
Criterion Contractors Inc.,info@criterioncontractors.com,+19729082539,http://criterioncontractors.com/,Allen,TX
"Art + 1, INC",info@artplusone.com,+16465857162,http://artplus1inc.com/,New York,NY
D.A.M. Fine Carpentry,DAMFINECARPENTRY@gmail.com,+18042294577,http://damfinecarpentry.com/,Richmond,VA
"Design to Finish General Contracting, Inc.",hello@designtofinish.com,+18607492660,https://designtofinish.com/,Enfield,CT
DLI Commercial,info@dlicommercial.com,+18009166080,https://dlicommercial.com/,West Chester,PA
ZEAC - Designs and Permits For Contractors,info@zeaccorporation.com,+16199402174,https://zeaccorporation.com/,San Diego,CA
Bruchey Builders Inc,estimating@brucheybuilders.com,+13014734400,https://www.brucheybuilders.com/,Frederick,MD
NEO CONSTRUCTION GROUP,info@neoconstructiongroup.com,+13058123443,https://neoconstructiongroup.com/,Doral,FL
Contour Construction LLC,contact@contour-gc.com,+12404050123,https://contour-gc.com/,Frederick,MD
Fredenhagen Remodel & Design,info@fredenhagenremodel.com,+16159823717,http://fredenhagenremodel.com/,Franklin,TN
Clazak Kitchen & Bathroom,lyndsey@clazak.com,+13302644691,https://www.clazak.com/,Apple Creek,OH
Demotik Commercial Construction,info@demotik.com,+18333366845,https://www.demotik.com/,Cypress,TX
Demotik Commercial Construction,estimate@demotik.com,+18333366845,https://www.demotik.com/,Cypress,TX
Maglux Construction and Restoration LLC,info@magluxusa.com,+17087221999,https://magluxusa.com/,Burr Ridge,IL
Langley Remodeling,info@langleyremodeling.com,+17038431856,https://langleyremodeling.com/,Ashburn,VA
Kellyn Dean Interior Design,kellyn@kellyndean.com,+18179969014,https://kellyndean.com/,Fort Worth,TX
Luxury Builders Group LLC.,info@luxbuildersgroup.com,+15616608965,https://www.luxbuildersgroup.com/,Jupiter,FL
VCV Services,info@vcvservices.com,+15809191386,http://vcvservices.com/,Lawton,OK
"Custom Crafted Structures, LLC",customerservice@ccsbuilders.com,+14066962296,http://ccsbuilders.com/,Belgrade,MT
"MCG Corp: Kitchen, Bathroom, Basement, Apartment, Condo and Whole House Remodeling and Renovation Contractors",billy@mcgcorp.us,+19174457155,https://mcgcorp.us/,New York,NY
Kavanah Construction LLC,marcus@kafcon.com,+12066184813,https://www.kafcon.com/,Maple Valley,WA
iBuilders Design and Build,info@ibuilderspro.com,+16507703586,http://ibuilderspro.com/,Sunnyvale,CA
Cloud City Construction Inc.,Casey@cloudcitycc.com,+17149305469,https://www.cloudcityconstruction.com/,Chino,CA
Abernathy Roofing and Construction Company - Joplin Roofing & Missouri Roofer Contractor,info@abernathyconst.net,+14172222504,https://abernathyroofingandconstruction.com/,Joplin,MO
Dream Building LLC,DREAMBUILDING1LLC@gmail.com,+19204608534,https://dreambuildingllc.com/,Appleton,WI
BOANERG LLC,info@boanergllc.com,+12028170178,https://www.boanergllc.com/,Washington,DC
California Building Innovations,info@californiabuildinginnovations.com,+18885527571,https://www.californiabuildinginnovations.com/,Los Angeles,CA
K Construction,JoshuCooper@kconstructionsd.com,+16056603204,http://kconstructionsd.com/,Yankton,SD
K Construction,LeeRettig@kconstructionsd.com,+16056603204,http://kconstructionsd.com/,Yankton,SD
K Construction,RyanChartier@kconstructionsd.com,+16056603204,http://kconstructionsd.com/,Yankton,SD
Great Additions Construction Company Inc.,leads@mygreataddition.com,+15168045389,https://mygreataddition.com/,Levittown,NY
Futura Building Systems,support@ehlenanalytics.net,+12145308374,https://futurabuildingsystems.com/,Dallas,TX
Prime Construction and Remodeling,info@primetxbuilders.com,+15129489398,http://primetxbuilders.com/,Austin,TX
RL Remodeling,info@rl-remodeling.com,+18883241144,https://rl-remodeling.com/,Costa Mesa,CA
"Renovation Works, Inc.",todd@myrenovationworks.com,+13364277391,https://www.myrenovationworks.com/,Stokesdale,NC
RL Remodeling,info@rl-remodeling.com,+18883241144,https://rl-remodeling.com/,Venice,CA
Angelo Elite Remodeling,angeloeliteremodel@gmail.com,+13252456054,https://angeloeliteremodeling.com/,San Angelo,TX
Ellison Earthworks LLC,info@ellisonearthworks.com,+15095785389,https://ellisonearthworks.com/,Richland,WA
Epic Industries Inc,info@epicindustriesinc.com,+18779669322,https://www.epicindustriesinc.com/,Houston,TX
A1 Construction Services,A1Sales@a1sp.com,+17139751819,https://a1sp.com/,Houston,TX
A-ROD Construction,info@arodco.com,+19566083020,http://arodco.com/,Laredo,TX
A-ROD Construction,mando@arodco.com,+19566083020,http://arodco.com/,Laredo,TX
Aycon Inc Demolition Company,estimating@ayconinc.com,+18585312312,https://ayconinc.com/,San Diego,CA
Kunz Boyz Construction LLC,kunzboyz@gmail.com,+18018150449,http://kunzboyz.com/,Erda,UT
Rash and Sons Contractor and Landscape LLC,customercare@rashandsons.com,+14127317274,http://rashandsonsllc.com/,Pittsburgh,PA
Top General Contractors Ct,info@topgeneralcontractorsct.com,+12037174705,https://www.topgeneralcontractorsct.com/,Stamford,CT
TX Construction Restoration and Remodeling LLC (Roofing),Wcknight@txconstructionco.com,+14699336166,https://txconstructionco.com/,Princeton,TX
RENOVA - Kitchen & Bathroom Remodeling Contractors,hello@letrenova.com,+15617596300,http://letrenova.com/,Delray Beach,FL
Professional General Contracting,pgsnewyork@gmail.com,+17189792685,https://professionalgeneralcontracting.com/,New York,NY
Ruiz Remodeling and Painting,riccardo2026@gmail.com,+18066404422,https://ruizremodelingpaintingcom.wordpress.com/,Amarillo,TX
Avery and Company LLC,AveryandCompanyllc@gmail.com,+18599622280,https://averyandcompanynky.com/,Covington,KY
Gridcore Group,omair@gridcoregroup.com,+17745107849,https://gridcoregroup.com/,New Bedford,MA
Master Construction Combined LLC,masterconstructionco1@yahoo.com,+16182421417,https://www.masterconstructionmtv.com/,Mt Vernon,IL
Lara's Services Group LLC,info@laraservicesgroup.com,+13252329786,http://lsgresto.com/,Abilene,TX
"RPC Industries, Inc.",info@rpcindustries.com,+17578279625,https://rpcindustries.com/,Hampton,VA
Ikeya Construction LLC,kekoa@ikeyaconstruction.com,+18086756520,http://ikeyaconstruction.com/,Kapolei,HI
Clay Building Solutions LLC.,solutions.clay@gmail.com,+14123045039,https://www.claybuildingsolutions.com/,Pittsburgh,PA
Hollywood Refinishing,quotes.hollywoodrefinishing@gmail.com,+18189884240,https://hollywoodrefinishing.com/,North Hollywood,CA
Epic Kitchen and Bathroom Remodeler,epickitchenandbath@outlook.com,+13013635531,https://www.epickitchenandbath.net/,Ijamsville,MD
Unified Home Remodeling,unified@unifiedwindows.com,+17183625222,https://www.unifiedhomeremodeling.com/,Huntington,NY
Liberty General Contracting Inc,info@libertygcny.com,+13476829840,https://libertygcny.com/,Port Chester,NY
Homeland Construction,nyhomelandconstruction@gmail.com,+13477282857,https://homelandconstructioninc.com/,Brooklyn,NY
Dry Basement Foundation Repair,info@drybasement.com,+18167418500,https://www.drybasement.com/,Kansas City,MO
Goldenline Construction,info@goldenlineconstruction.com,+18187248494,https://www.goldenlineconstruction.com/,Woodland Hills,CA
FD Building Co.,jason@fdbuilding.com,+16316417641,https://www.fdbuilding.com/,Westhampton Beach,NY
Superior Construction Services,info@buildwithsuperior.com,+19102262080,http://buildwithsuperior.com/,Washington,DC
JM Construction,info@jmconstruction.com,+18054722400,https://jmconstruction.com/,Paso Robles,CA
Twin Mar Construction,sales@twinmar.com,+17173974816,https://www.twinmar.com/,Lancaster,PA
Capstone Design + Build,info@capstonebuilt.com,+15742613258,https://capstonebuilt.com/,Granger,IN
Baker Contracting LLC,info@baker-contracting.com,+17654326631,https://www.baker-contracting.com/,Kokomo,IN
Avila Construction,avilaconstructionnm@gmail.com,+15055014604,http://santafebuild.com/,Santa Fe,NM
Kenneth Vona And Son Construction,hello@kennethvona.com,+16177443077,https://kennethvona.com/,Natick,MA
Quicksilver Custom Builders Inc.,casey@quicksilver-inc.com,+19806215894,https://quicksilvercustombuilders.com/,Mt Pleasant,NC
CalHomeCo Construction,info@calhomeco.com,+18586337812,https://calhomeco.com/,San Diego,CA
CalHomeCo Construction,contact@calhomeco.com,+18586337812,https://calhomeco.com/,San Diego,CA
The Backwoods Design Build Company,janelle@backwoodsdesignbuild.com,+17343559800,https://backwoodsdesignbuild.com/,Plymouth,MI
"Tranquility Builders, Inc.",ryan@tranquilitybuilders.com,+16308092693,https://tranquilitybuilders.com/,Plainfield,IL
R Builders,info@rbuildersllc.com,+15123439313,https://www.rbuildersllc.com/,Austin,TX
MBK Constructors Inc,info@mbkconstructors.com,+17349944644,https://mbkconstructors.com/,Whitmore Lake,MI
WA Construct,support@waconstruct.com,+12014972883,http://waconstruct.com/,Mountainside,NJ
JY Mega FC Construction Inc,jymegaconstruction@gmail.com,+19543993278,https://jymegaconstruction.com/,Tamarac,FL
Wow Construction LLC,sam@wowconstruction.net,+18574992788,http://wowconstruction.net/,Braintree,MA
"Hemme Construction, LLC",jeff@hemmeconstruction.com,+15739996944,https://www.hemmeconstruction.com/,Columbia,MO
Platinum Touch Industries LLC,Vince@pti-llc.net,+17737759988,https://www.pti-llc.net/,Lake Forest,IL
Stone Hammer Homes,info@stonehammerhomes.com,+13154307981,https://stonehammerhomes.com/,Syracuse,NY
"MAC Home Improvements, LLC",Marcin@acrenovation.net,+18474314433,https://www.acrenovation.net/,Bensenville,IL
Beaver Construction,lilo@beaverconstructionut.com,+18019819668,https://www.beaverconstructionut.com/,Bluffdale,UT
TCR BUILDERS,crm@tcrbuilders.com,+15167273060,https://tcrbuilders.com/,West Babylon,NY
Houston’s Construction,ryan@houstonsconstruction.com,+15419776486,https://houstons-construction.com/,Sisters,OR
Phillip Price Construction,nick.price.ppc@gmail.com,+14084998093,http://ppc-ca.com/,Morgan Hill,CA
Phillip Price Construction,phil.price.ppc@gmail.com,+14084998093,http://ppc-ca.com/,Morgan Hill,CA
Jazz Construction Group,jazzconstructiongroup@gmail.com,+19083806304,https://www.jazzconstructiongroup.com/,North Brunswick Township,NJ
Nehemiah General Contractors,office@nehemiahgc.com,+13038051975,https://nehemiahgc.com/,Denver,CO
Venue Construction Group,info@venueconstructiongroup.com,+14077562994,https://www.venueconstructiongroup.com/,Orlando,FL
Molek Development LLC,peter@molekdevelopment.com,+16303088090,https://www.molekdevelopment.com/,Bridgeview,IL
Wow Construction LLC,sam@wowconstruction.net,+18574992788,http://wowconstruction.net/,Auburndale,MA
"Precision Renovations, LLC",info@renovationsbyprecision.com,+14847641472,https://www.renovationsbyprecision.com/,Easton,PA
Somerset Contractors,steve@somersetcontractors.com,+18563400747,http://somersetcontractors.com/,Bellmawr,NJ
Rick Sutter Builders Inc.,ricksutterbuilders@gmail.com,+15037794202,https://www.ricksutterbuilders.com/,Keizer,OR
Grant Custom Homes & Landscaping,info@grantcustomhomes.com,+15418888888,https://grantcustomhome.com/,La Grande,OR
Reese's General Contracting,reeses.contracting@gmail.com,+18458076179,https://reeses-contracting.com/,Middletown,NY
Camerucci Montenegro,remodel@cameruccimontenego.com,+14804472411,http://cameruccimontenegro.com/,Mesa,AZ
Sustainable Solutions General Contracting,ssgcfl@gmail.com,+17274091790,https://sustainablesolutionsbuilding.com/,St. Petersburg,FL
Spinieo Inc.,spinieoinc@msn.com,+12156194544,https://spinieo.com/,Montgomeryville,PA
"C & R Asphalt, LLC",candrasphalt@asphaltanimals.com,+18592550077,https://asphaltanimals.com/,Lexington,KY
"Brown Bros Grading, Excavation & Utility",info@brownbros.co,+14238939595,https://brownbros.co/,East Ridge,TN
"McCartney Industries, LLC",mccartneyind@gmail.com,+12533048557,https://mccartneyindustries.com/,Lake Tapps,WA
WJV General Contractors,office@wjvcontractors.net,+18562998240,https://wjvgeneralcontractors.com/,Pedricktown,NJ
"Alto Contracting, Inc.",AltoContracting@gmail.com,+19147349739,https://altocontracting.com/,Cortlandt,NY
San Antonio Constructors & Consulting,sacc99210@gmail.com,+12102028181,https://sa-construct.com/,San Antonio,TX
Woodward Co. Utah LLC,info@woodwardco.com,+18018715827,https://woodwardco.com/,West Jordan,UT
Crescent Design & Construction Inc|Loudoun County|Ashburn|Fairfax|Stone Patio Contractor|New Pool Construction|Driveways,info@crescentdc.com,+17036653545,http://crescentdc.com/,Herndon,VA
TLC Design Co.,info@tacticallandcare.com,+17038797091,https://tlcdesign.co/,Alexandria,VA
AZ Contracting,info@sfldesignbuild.com,+17542228550,https://sfldesignbuild.com/,Fort Lauderdale,FL
Five Oak Construction,info@five-oak.com,+19797325001,http://five-oak.com/,Columbus,TX
Homeowner Services of Michigan,office@hsm-build.com,+17343857244,http://homeownerservicesmi.com/,Chelsea,MI
Homeowner Services of Michigan,paul@hsm-build.com,+17343857244,http://homeownerservicesmi.com/,Chelsea,MI
Centurion Construction,centurionconstructionmi@gmail.com,+16162044888,https://centurionconstruction.net/,Rockford,MI
"DLF De La Fuente Construction, Inc.",info@dlfci.com,+16195125505,https://dlfci.com/,San Diego,CA
Evans Engineering Civil Site Development,james@evansengineeringanddesign.com,+17278314662,http://evansengineeringanddesign.com/,St. Petersburg,FL
TSD Construction,TSDSacramento@gmail.com,+19168387578,https://www.tsdsacramento.com/,Sacramento,CA
C S D Construction,Csdconstruction2016@gmail.com,+17146568451,https://www.csdconstructionoc.com/,Orange,CA
Cortez Concrete,info@cortezconcrete.com,+16232389652,https://cortezconcrete.com/,Scottsdale,AZ
SJ Hauck Construction,info@sjhauck.com,+16099276700,https://www.sjhauckconstruction.com/,Absecon,NJ
Bealer Family Builders,citypave@sbcglobal.com,+13097817879,http://bealerfamilybuilders.com/,Moline,IL
"Bear Mountain Contracting, LLC",dfertig@bearmountain307.com,+13072625755,https://bearmountain307.com/,Wheatland,WY
MTR Contractors,office@mtrcontractors.com,+19724327011,https://www.mtrcontractors.com/,Frisco,TX
PANDEN Construction and Basement Finishing,info@pandenconstruction.com,+12108300000,https://www.pandenconstruction.com/,Lehi,UT
"Agolli Development Inc, Construction Contractor",info@agolliconstruction.com,+17278991190,http://agolli.co/,Clearwater,FL
NMG Contracting,help@nmgcontracting.com,+14022060381,https://www.nmgcontracting.com/,Omaha,NE
Harrod Built,michael@harrodbuilt.com,+18057128993,https://harrodbuilt.com/,Paso Robles,CA
SouthSTAR Construction,Contact@southstarusa.com,+16576648268,https://southstarusa.com/,Corona,CA
Husky Builders,office@huskybuilding.com,+18646923330,https://www.huskybuilding.com/,Fountain Inn,SC
KKS Services (Kemper Construction),Tim@kks.services,+18596094751,http://kksservices.com/,Covington,KY
Tuscany Construction Co.,Brad@tuscany1.com,+19495483355,https://www.tuscany1.com/,Costa Mesa,CA
Imbuia Construction Inc,warren@imbuia.com,+18187837808,https://imbuia.com/,Woodland Hills,CA
JFA Construction LLC,info@jfaconstruction.com,+14326994133,https://jfaconstruction.com/,Midland,TX
Performance Construction,info@performanceconstruction.info,+19524401663,http://performanceconstruction.info/,Prior Lake,MN
Garden State Renovations NJ,marshall@wefixit.us,+18486671400,http://gardenstaterenovate.com/,Long Branch,NJ
"Tampa Bay Construction & Plumbing Services, LLC",info@constructionservicesfl.com,+18135330070,http://constructionservicesfl.com/,Tampa,FL
Bison Construction and Roofing Pros,info@bisonpros.com,+19035204111,https://bisonpros.com/,Flint,TX
Third Gen Construction LLC,brad@thirdgenconstructionllc.com,+13154164480,https://thirdgenconstructionllc.com/,Cortland,NY
Southern Exposure LLC,sales@southernexposurellc.com,+13607634001,https://www.southernexposurellc.com/,Homer,AK
Native Excavating Inc,native@nativeexcavating.com,+19708796231,https://nativeexcavating.com/,Steamboat Springs,CO
Level Industries,contact@levelinds.com,+12253805126,https://levelinds.com/,Walker,LA
Grant Excavation LLC,info@grantexcavation.com,+18017703118,https://www.grantexcavation.com/,Cottonwood Heights,UT
"Lyness Construction, LP",info@lynessconstruction.com,+18175583556,http://lynessconstruction.com/,Cleburne,TX
"MH Civil Constructors, Inc.",bid@mh-civil.com,+18063676043,https://mh-civil.com/,Amarillo,TX
Westcon Construction Corporation,employment@westconconstruction.com,+19166632448,https://westconconstruction.com/,Newcastle,CA
Evans Engineering & Design Build Services Inc.,james@evansengineeringanddesign.com,+17278314662,http://evansengineeringanddesign.com/,Oldsmar,FL
APEX Underground - Sewer & Septic,info@apexundergroundkc.com,+18162232400,https://www.apexundergroundkc.com/,Raymore,MO
Marwood General Construction,office@marwoodgc.com,+13603283322,https://marwoodgc.com/,Poulsbo,WA
Giovanni's Construction & Restoration LLC,Vaccarellastevo@gmail.com,+17172227909,https://giovannisconstruction.com,Annville,PA
"MSI Construction, INC.",office@msi-construction.com,+17658289723,http://msi-construction.com/,Clinton,IN
Concrete Mystique Engraving,info@concretemystique.com,+16158283806,https://concretemystique.com/,Antioch,TN
Green Solution LLC,greensolutionllc01@gmail.com,+12403557506,http://greensolution-llc.com/,Beltsville,MD
Adam's Handyman & Contracting,adamshandymanserviceslancaster@gmail.com,+17173335339,https://www.adamshandycontracting.com/,Lancaster,PA
ON Group Remodeling & Construction,contact@ongroupconstructions.com,+13104849487,https://ongroupconstructions.com/,Dallas,TX
HC7 Construction LLC,hc7constructionllc@gmail.com,+15098608375,https://hc7construction.llc/,East Wenatchee,WA
FLEXSPACE,info@flexspace360.com,+18772270255,https://flexspace360.com/,Charleston,SC
Streamline Enterprises,jessica@sei-az.com,+19283140920,http://streamlineenterprisesinc.com/,Yuma,AZ
Streamline Enterprises,krista@sei-az.com,+19283140920,http://streamlineenterprisesinc.com/,Yuma,AZ
Streamline Enterprises,alec@sei-az.com,+19283140920,http://streamlineenterprisesinc.com/,Yuma,AZ
Streamline Enterprises,jay@sei-az.com,+19283140920,http://streamlineenterprisesinc.com/,Yuma,AZ
Streamline Enterprises,davidp@sei-az.com,+19283140920,http://streamlineenterprisesinc.com/,Yuma,AZ
Streamline Enterprises,pablo@sei-az.com,+19283140920,http://streamlineenterprisesinc.com/,Yuma,AZ
Streamline Enterprises,cesareo@sei-az.com,+19283140920,http://streamlineenterprisesinc.com/,Yuma,AZ
G. M. McCrossin Inc.,info@gmmccrossincorp.wpengine.com,+18143554848,https://mccrossin.com/,Bellefonte,PA
Design - Build by Dylan Crew,business@dylancrew.com,+14438215175,https://cantilevered.com/,Bethany Beach,DE
Palladium Construction,palladiumconstructionfl@gmail.com,+19548992329,https://palladiumconstruction.com/,Fort Lauderdale,FL
Palladium Construction,info@palladiumconstruction.com,+19548992329,https://palladiumconstruction.com/,Fort Lauderdale,FL
Palerider Construction LLC,paleriderconstruction@gmail.com,+19288133822,https://paleriderconstruction.com/,Dewey,AZ
Craft and Trade LLC,info@craftandtradenc.com,+17042660844,https://www.craftandtradenc.com/,Mooresville,NC
Biermann Construction,david@biermannconstruction.com,+19282020339,http://biermannconstruction.com/,Sedona,AZ
Imagine Builders,info@imaginebuildersaz.com,+14809919489,https://www.imaginebuildersaz.com/,Scottsdale,AZ
Shaara Contracting Inc,shaara201303@yahoo.com,+13472914057,https://shaaragroupusa.com/,Brooklyn,NY
"Supreme Brick NYC - Masonry Contractor Brooklyn, Queens, Bronx, NY",info@supremebrick.com,+17189244235,https://www.supremebrick.com/,Elmont,NY
"City Wide Construction, Inc.",alex@citywide-inc.com,+13132910699,https://www.citywide-inc.com/,Dearborn Heights,MI
CRC Remodeling Corp,cortezremodelingco@gmail.com,+19092129713,https://crcremodelingcorp.com/,Colton,CA
Hulks Construction & Roofing,Hulksconstruction@gmail.com,+18502960000,https://hulksroofing.com/,Pensacola,FL
Sky Tech Construction Inc,skytechinc1@yahoo.com,+13473027563,https://skytechconstructioninc.com/,Bronx,NY