business_name,email,phone,website,city,state
Garrison African Hair Braiding,elianmoma@gmail.com,+14437296420,https://garrison-african-hair-braiding.chrone.work/,Baltimore,MD
"Prestige Hair Salon - Bellmore, New York",prestige2707@gmail.com,+15162215253,http://prestigesalon.net/,Bellmore,NY
QB Wig Collections,qbwigcollections@gmail.com,+19092767557,https://qbwigcollections.com/,Claremont,CA
HAIR BY KARMA BLACK (QUICK WEAVE & SEW IN),support@karmablackhair.com,+19547169292,https://karmablackhair.com/,Lauderdale Lakes,FL
La'shus Hair Designs & Day Spa,info@lashushair.com,+16199931431,http://lashushair.com/,El Cajon,CA
Robert Richard Salon,RobertRichardSalon@gmail.com,+17757226966,https://www.robertrichardsalon.com/,Reno,NV
Brazilian Straightening Salon,evo2807@gmail.com,+12018633900,https://www.haircutterinthemeadow.com/,Secaucus,NJ
Beauty SalonBnB,info@beautysalonbnb.com,+18885086410,https://beautysalonbnb.com/index?v=4.0.700,Bowie,MD
"Color, Cut, Hair Extensions with April Snow Hair Studio",aprilsnowhairstudio@gmail.com,+18582436728,https://invisiblebeadextensionslv.com/,Las Vegas,NV
Anjel Hair and Beauty Studios,anjelhairandbeautystudios@gmail.com,+16787676255,https://www.anjelhairandbeautystudios.com/,College Park,GA
"“Hair By Iri"" Atlanta",hairbyiri@gmail.com,+15046690783,https://hair-by-iri.chrone.work/,Morrow,GA
Lauren Decosimo Beauty,lauren@laurendecosimo.com,+16318071636,https://laurendecosimo.com/,New York,NY
Ennabis Dominican Hair Salon,ennabishairsalon@gmail.com,+14077238429,https://ennabishairsalon.com/,Orlando,FL
Raninessas Beauty Salon,raninessasbeautysalon@gmail.com,+13365758184,https://www.raninessa.com/,Rural Hall,NC
"Mobile Barbershop of Virginia Beach, Norfolk, & Chesapeake",mobile.barber.va@gmail.com,+17573675917,https://mobile-barber-of-virginia-beach.com/,Virginia Beach,VA
Dinkum Hair,mark@dinkumhair.com,+19142978425,https://dinkumhair.com/,Buchanan,NY
Hair Extensions NY & Hair Salon,info@abcednet.ca,+17184409063,https://hairextensionshairsalon.com/,Astoria,NY
"VIP Brazilian Beauty Salon | You are so Beautiful ! Hairs, Nails and more",info@vipbbs.salon,+19787263892,https://vipbrazilianbeautysalon.com/,Jacksonville,FL
Bonita's Extensions and Braids,bonitasbeauty@yahoo.com,+16124239480,https://bonitasextensions.com/,Minneapolis,MN
VIP Braids Salon,vipbraids1@gmail.com,+17705458299,https://vipbraids.com/,Lawrenceville,GA
Augusta Hair Braiding and Micro Locs,georgiahairandbeauty@gmail.com,+19103793408,https://augusta-hair-braiding.chrone.work/,Augusta,GA
The Salon 619,thesalon619@gmail.com,+19173744878,http://thesalon619.com/,San Diego,CA
Jolley Beauty Co.,jolleybeautyco@yahoo.com,+14842640614,https://www.jolleybeautyco.com/,Emmaus,PA
PRIM SALON,primsalons@gmail.com,+19049624247,http://primsalons.com/,Ponte Vedra Beach,FL
Bella Angel Hair & Makeup,info@bella-angel.com,+18562277774,https://bella-angel.com/,Philadelphia,PA
Zeal Hair Studio and Hair Replacement,laurenpezoldllc@gmail.com,+16018428806,https://zealhairstudio.com/,Flowood,MS
CC Styling Studio,iwakeupinyourmakeup@gmail.com,+19415382924,https://www.wakeupinyourmakeup.net/,Bradenton,FL
Golden Heart African Hair Braids,goldenheartahb@gmail.com,+18177934575,https://goldenheartafricanhairbraids.com/,Arlington,TX
The Root & Bark,info@rootandbark.com,+13058496434,https://rootandbark.com/,Miami,FL
Kijana Salon & Blow Dry Bar,kijanaspa@gmail.com,+13056628080,https://www.kijanasalonspa.com/,South Miami,FL
Modish Beauty Salon & Spa,modishsalonnc@gmail.com,+19196857430,https://www.modishsalonnc.com/,Raleigh,NC
Matthew Morris Salon and Skincare - DTC,info@matthewmorrissalon.com,+13037154673,https://matthewmorrissalon.com/,Denver,CO
Get Primped,contact@getprimped.com,+16266659329,http://getprimped.com/,Pasadena,CA
Awe Glammed Up,Amanda@aweglammedup.com,+14076001868,https://www.aweglammedup.com/,Sanford,FL
Renardé Salon,info@renardesalon.com,+17324494300,https://renardesalon.com/,Wall Township,NJ
Vered Hair Salon Hair Extensions,Hair@veredsalon.com,+13106593030,https://www.veredsalon.com/,West Hollywood,CA
Mobile Salon,support@mobilesalon.com,+19522405153,https://mobilesalon.com/,Apple Valley,MN
Hair Dynamics Salon,filler@godaddy.com,+19045793387,https://hairdynamicssalon.com/,Orange Park,FL
Couture Blo,appointments@couture-blobar.com,+17047541307,https://couture-blobar.com/,Mooresville,NC
Mora Salon,wanda@morasalon.com,+18566630600,http://morasalon.com/,Cherry Hill,NJ
Savannah Rae Beauty,savannah@savannahraebeauty.com,+18506502233,https://www.savannahraebeauty.com/,Miramar Beach,FL
Ivy & Stone - A Salon Concept,ivyandstone.salon@gmail.com,+17604506065,https://www.ivyandstonesalon.com/,Escondido,CA
Original Me Beauty Salon,originalmebeauty@gmail.com,+18176574189,https://originalmebeautysalon.com/,North Richland Hills,TX
Bella Sirena Salon,info@bellasirenasalon.com,+14258226040,http://bellasirenasalon.com/,Kirkland,WA
PRIVI (Karen Ricci Salon),privisalon@gmail.com,+17812372566,https://privisalon.com/,Wellesley,MA
LAVISH HAIR LOUNGE - PREMIER HAIR SALON,Lavishhairsalon@yahoo.com,+13176251200,https://lavishhairlounge.us/,Greenwood,IN
Sasha Lindsey Hair Studio 205,lindseysasha@yahoo.com,+18106247013,https://hairbysasha.glossgenius.com/,St. Augustine,FL
Salon Blonde,salonblondeny@gmail.com,+16313312421,https://www.salonblondeny.com/,Port Jefferson,NY
Great Hair Affair,ale@greathairaffair.com,+17604859639,https://www.greathairaffair.com/,Palm Desert,CA
Salon Strut and Suites,camieferguson@icloud.com,+19097906270,https://www.salonstrut.net/,Calimesa,CA
Hair by Alyssa,alyssa@hairbyalyssa.com,+19786995573,https://hairbyalyssab.glossgenius.com/,Acton,MA
Simply Lovely Salon,info@simplylovelysalon.com,+12176412555,https://www.simplylovelysalon.com/,Quincy,IL
Hair Tyme Beauty Lounge,hairtyme@gmail.com,+17138558800,https://itshairtyme.com/,Sugar Land,TX
Hair by Paula Marchetti,hairbypaulamarchetti@gmail.com,+13103174247,https://www.hairbypaulamarchetti.com/,Malibu,CA
Hudson Styling Co.,info@hudsonstyling.com,+13134740823,https://hudsonstyling.com/,Detroit,MI
L.A.B “Like A Boss” Salon,likeabosssalon@gmail.com,+17134443036,https://www.likeabosssalon.com/,Spring,TX
Hair Tamers Studio LLC,hairtamersstudio@gmail.com,+12253359851,https://www.hairtamersstudio.com/,Baton Rouge,LA
Hair by Jess Muraro,jsalonllc@yahoo.com,+12513085910,https://salontalk.org/,Fairhope,AL
Cole Temp Studios,Nicole@coletempstudios.com,+17077420637,https://www.coletempstudios.com/,Fairfield,CA
Melissa Marie Salon & Spa,melissamariesalon@gmail.com,+17156754247,https://www.melissamariesalon.com/,Wausau,WI
Above & Beyond Hair Studio,wendyplatt665@gmail.com,+17573252019,https://www.aboveandbeyondbeautysalon.com/,Chester,VA
Epoch Studio Salon,CREATE@epochchicago.com,+13126754930,https://epochchicago.com/,Chicago,IL
SD Luxuri Salon and Beauty Bar,info@sdluxurisalon.com,+12702222222,https://www.sdluxurisalon.co/,Atlanta,GA
Glam Color Bar,info@glamcolorbar.com,+18636480133,https://www.glamcolorbar.com/,Lakeland,FL
Salon George De Mello,salongeorgedemello@gmail.com,+16175361290,https://salongd.com/,Boston,MA
Revive Hair & Lash Studio LLC,revivehairandlashstudio@gmail.com,+12082345069,https://revivehairandlashstudio.com/,Pocatello,ID
"ARYA HAIR SALON NYC, Highlights,Balayage Highlights,Hair Color,Color Correction,Ammonia Free,Extensions,Keratin Treatment",info@arya.salon,+12127722799,https://www.arya.salon/,New York,NY
Desert Beauty,courtneyhill.hairstylist@example.com,+17752320539,https://www.desertbeautynv.com/,Reno,NV
Desert Beauty,jamybethextensions@example.com,+17752320539,https://www.desertbeautynv.com/,Reno,NV
Desert Beauty,tuckertechnique@example.com,+17752320539,https://www.desertbeautynv.com/,Reno,NV
Desert Beauty,mrsfantaski@example.com,+17752320539,https://www.desertbeautynv.com/,Reno,NV
Desert Beauty,dnihair@example.com,+17752320539,https://www.desertbeautynv.com/,Reno,NV
Desert Beauty,thepinkhairfairy@example.com,+17752320539,https://www.desertbeautynv.com/,Reno,NV
Desert Beauty,blendsandbolds@example.com,+17752320539,https://www.desertbeautynv.com/,Reno,NV
Desert Beauty,kaylaaalalahair@example.com,+17752320539,https://www.desertbeautynv.com/,Reno,NV
Salon Social - Cool Springs,contact@thesalonsocial.com,+16154728875,https://thesalonsocial.com/,Franklin,TN
3D HAIR STUDIO,Devinyashothair@gmail.com,,http://devinyas.com/,Panama City,FL
HONORABLE BEAUTY STUDIO,hesstudios1@gmail.com,+17343406503,https://hesstudios.com/,Belleville,MI
Salon Melange,kco22355@gmail.com,+17248104111,https://salonmelange.glossgenius.com/,Upper St Clair,PA
Akachi Beauty Salons LLC,customersupport@akachibeautysalons.com,+17049864699,https://akachibeautysalons.com/,Albemarle,NC
The Blowout Blowdry Bar,salon@theblowoutfl.com,+19543683926,https://theblowoutfl.com/,Plantation,FL
Ohana Hair Salon LLC,info@ohanahairsalon.com,+16154571043,https://ohanahairsalon.com/index.html,Nashville,TN
Styles By Missy @ Hi-Maintenance Salon Suites,missy.moreno@example.com,+16038979305,https://stylesbymissy.glossgenius.com/,Salem,NH
Hair's Talent / GinaCurl,gina@hairstalent.com,+12034661246,https://hairstalent.com/,East Haven,CT
Inscape Beauty Salon,contact@inscapesalon.com,+19546979028,https://www.inscapebeautysalon.com/,Davie,FL
Inscape Beauty Salon,info@inscapesalon.com,+19546979028,https://www.inscapebeautysalon.com/,Davie,FL
Jon David Salon,bh.jondavidsalon@gmail.com,+12145745800,https://www.jondavidsalon.co/,Irving,TX
Prism Rose Salon,prismrosesalon@gmail.com,+17852480449,http://prismrosesalon.com/,Overland Park,KS
N O V A S A L O N,thenovasalon@gmail.com,+12568086138,https://thenovasalon.com/,Huntsville,AL
J. Avienda Salon,info@javiendasalon.com,+17734998661,https://www.javiendasalon.com/,Chicago,IL
Giovanni & Pileggi,info@giovannipileggi.com,+12155683040,https://giovannipileggi.com/,Philadelphia,PA
MB Salon,management@mbhairsalon.com,+12055471588,https://www.mbhairsalon.com/,Birmingham,AL
Gleaming Goddess Hair Lounge,roe@gleaminggoddesshairlounge.com,+13018828844,https://www.gleaminggoddesshairlounge.com/,Chevy Chase,MD
Harlow Beauty and Hair Salon,info@harlowaustin.com,+15128129012,https://harlowaustin.com/,Austin,TX
Fluff Bar,info@fluffbar.com,+17202953583,https://www.fluffbar.com/,Denver,CO
Salon Beautifull Strands,info@salonbeautifullstrands.com,+17708379757,https://www.salonbeautifullstrands.com/,Snellville,GA
Hair Studio 101,info@hairstudio101.com,+17608051585,https://hairstudio101ca.com/,Oceanside,CA
Manny's Styles Salon,manny@mannystylesalon.com,+17753798509,https://mannystylesalon.com/,Reno,NV
Three Ways Beautiful Salon & Spa,threewaysbeautifulsalon@gmail.com,+15712845986,https://threewaysbeautifulsalon.com/,Gainesville,VA
Cheveux Salon & Day Spa,cheveuxspa@comcast.net,+14105693299,https://www.cheveuxsalonanddayspa.com/,Bel Air,MD
Amanda Moncur Salon,amandamoncursalon@gmail.com,+18014416666,https://www.amandamoncursalon.com/,South Jordan,UT
Sage Salon,frontdesk@sagesalonva.com,+18045159030,https://www.sagesalonva.com/,Richmond,VA
Glo Hair Studio by Gabriella,gabriella@glohairstud.io,+18478869028,https://glohairstud.io/,Rolling Meadows,IL
Blonde Pearl Hair Salon + Color Bar,contact@blondepearl.com,+14057039323,http://blondepearl.com/,Norman,OK
DA3A Hair Studio,danielle@da3ahairstudio.com,+16104571200,https://da3ahairstudio.squarespace.com/,Bryn Mawr,PA
Diverse Roots,diverserootssalon@gmail.com,+19162567828,http://diverserootssalon.net/,Roseville,CA
Every Piece Hair Salon Honolulu,hair@everypiecesalon.com,+18085171000,https://everypiecesalon.com/,Honolulu,HI
Every Piece Hair Salon Honolulu,everypiecesalon@gmail.com,+18085171000,https://everypiecesalon.com/,Honolulu,HI
Blowtox Premier Hair Salon,service@blowtoxpga.com,+15616221177,http://blowtoxpga.com/,Palm Beach Gardens,FL
ME on 2ND Hair Salon,info@meon2nd.com,+12155303358,https://meon2nd.com/,Philadelphia,PA
Beauty By V Hair Studio,VJStylist@gmail.com,+18054037384,https://beautybyv.org/,Santa Barbara,CA
Priority Salon,prioritysalons@gmail.com,+18016189919,https://www.prioritysalons.com/,Sandy,UT
Head Case Hair Studio,info@headcasehairstudio.com,+16825937425,https://headcasehairstudio.com/,Keller,TX
Heavenly Designs By Ebony Hair Salon,heavenlydesignsebony@gmail.com,+18665403229,https://heavenlydesignsbyebony.com/,Athens,GA
Glamour & Grace Salon + Spa Suites,heather@glamourgracebeauty.com,+15732006462,https://glamourgracebeauty.com/,Camdenton,MO
Salon Dulay - Mills 50 District,orlando@salondulay.com,+14079855243,https://salondulay.com/,Orlando,FL
Salon Dulay - Mills 50 District,drphillips@salondulay.com,+14079855243,https://salondulay.com/,Orlando,FL
Salon Dulay - Mills 50 District,windermere@salondulay.com,+14079855243,https://salondulay.com/,Orlando,FL
A & Beauty hair boutique,abspaboutique@gmail.com,+12039174999,https://www.abeautyhairboutique.com/,Danbury,CT
Soho Studios Salon,sohostudiossalon@gmail.com,+17324010124,https://sohostudiossalon.com/,Holmdel,NJ
ML Hair Braiding,admin@mlbeautysalons.com,+4692226348,https://mlbeautysalons.com/,McKinney,TX
HAIRBOX 5,dan@hairbox5.com,+13055327333,https://hairbox5.com/,Miami Beach,FL
Nick M Hairdresser,nickmhairdresser@gmail.com,+17088409117,https://www.nickmhairdresser.com/,Buffalo Grove,IL
Kismet,kristinkismet@gmail.com,+16086355364,http://kismetmadison.com/,Sun Prairie,WI
Kismet,nicolemkismet@gmail.com,+16086355364,http://kismetmadison.com/,Sun Prairie,WI
Pariz Salon,team.parizsalon@gmail.com,+17255294247,https://parizsalon.com/,Henderson,NV
Liquid Scissors,aschroeder@sanoahealth.com,+14802543955,https://liquidscissors.com/,Scottsdale,AZ
Styling Zone By Magdalena,stylingzonebym@gmail.com,+15612228354,https://stylingzonebym.com/,Palm Beach Gardens,FL
The Blowout Blowdry Bar,salon@theblowoutfl.com,+19543683926,https://theblowoutfl.com/,Fort Lauderdale,FL
Studio Elevation Salon,a.queenzcrown@gmail.com,+15107478094,https://aqueenzcrown.com/,El Cerrito,CA
Georgette's Beauty Salon,rosie.myhairandmakeupartist@gmail.com,+18322836940,https://www.georgettesbeautysalon.com/,Houston,TX
Rooted Beauty Studios,rootedbeautystudios@gmail.com,+17073423801,https://rootedbeautystudios.com/,Benicia,CA
Virgin Hair Extensions,sales@discountbeautydepot.com,+18004569236,https://www.discountbeautydepot.com/,Atlanta,GA
Hair Alchemy,contact@truehairalchemy.com,+12813468029,https://www.truehairalchemy.com/,Fulshear,TX
SALON 10,info@torisalon10.com,+16154795915,https://torisalon10.com/,Brentwood,TN
Erin Winter Hair Studio,contactewhs@gmail.com,+17704859478,https://www.erinwinterhairstudio.com/,Kennesaw,GA
Live Free & Dye Salon,livefreedye@gmail.com,+18455945335,https://www.livefreedyesalon.com/,Poughkeepsie,NY
Victoria Rose Studios,Info.VictoriaRoseStudios@gmail.com,+19135222050,https://www.victoriarosestudios.com/,Louisburg,KS
Chop Salon,chopsalonberkeley@gmail.com,+15106497843,https://www.chopsalon.net/,El Cerrito,CA
Hairapy by Bre | Hair Salon | Hair Stylist | Coloring & Cuts,hairapybre@gmail.com,+13109806701,https://www.hairapybre.com/,Santa Monica,CA
Sarah Cooper Does Hair,sarah@sarahcooperdoeshair.com,+14634020099,http://sarahcooperdoeshair.com/,Carmel,IN
"The Shears Lounge Beauty Salon, LLC",shearslounge@gmail.com,+17573954276,https://www.shearslounge757.com/,Norfolk,VA
Sasha Lindsey Hair Studio 205,lindseysasha@yahoo.com,+18106247013,https://hairbysasha.glossgenius.com/,St. Augustine,FL
Lotus Hair Co | Extensions,ryan.jeffrey.larson@gmail.com,+13855765528,https://lotus-hair-company.chrone.work/,Riverton,UT
Wild Olive Salon,wildolivesalon@gmail.com,+19103257026,https://wildolivesalon.com/,Morehead City,NC
Hair by Azia inside Sola Salon CDA,hairbyalc@icloud.com,+18332784315,https://hairbyaziacarter.square.site/,Coeur d'Alene,ID
Curl Revolution Salon,valdeh@curlrevolution.com,+12147075554,https://curlrevolution.com/,Frisco,TX
Lavishbeauty.ByLori,lori.cuevas@example.com,+14028093695,https://lavishbeautybylori.glossgenius.com/,Columbus,NE
The Hair Cafe,info@loveyourhaircafe.com,+19095274294,https://loveyourhaircafe.com/,Rancho Cucamonga,CA
Sila's Salon & Spa,salonmanager@hairbysila.com,+16784012691,https://www.hairbysila.com/,Acworth,GA
Yuri Hairdresser,yurihairdresser@gmail.com,+19723221413,https://yuri-hairdresser.chrone.work/,Lewisville,TX
Salon X Change near The Domain Atx,salonxchange@yahoo.com,+15124209445,https://salonxchangeatx.com/,Austin,TX
Color fanaddict salon,colorfanaddic@gmail.com,+12157880111,https://www.colorfanaddict.net/,Bristol,PA
Bal-Lance Salon,Contact.ballancesalon@gmail.com,+16692693114,https://ballancesalon.com/,Saratoga,CA
Bal-Lance Salon,TheBallanceSalon@gmail.com,+16692693114,https://ballancesalon.com/,Saratoga,CA
Bal-Lance Salon,Hiring.BallanceSalon@gmail.com,+16692693114,https://ballancesalon.com/,Saratoga,CA
Bleach Hair Salon,thebleachmail@gmail.com,+17322026122,https://www.bleachhairsalon.com/,Point Pleasant Beach,NJ
"Kim Collinsworth, Hairstylist",maynehairco@gmail.com,+19852001399,https://maynehairco.com/,Albany,LA
Truluck Studio,truluckstudio@gmail.com,+13527185453,http://truluckstudio.com/,Ocala,FL
EUROPEAN STYLE SALON - PREMIER HAIR SALON,europeanstylesalon@yahoo.com,+13179897392,https://europeanstylesalon.com/,Indianapolis,IN
Bendicion Salon,contactus@bendicionsalon.com,+12062221980,https://www.bendicionsalon.com/,Bellevue,WA
GetGlam Dollz Beauty-bar,getglamdollz@gmail.com,+13474951568,https://getglamdollz.com/,St. Albans,NY
Whitney Green Ny,info@whitneygreenny.com,+19174536528,https://www.whitneygreenny.com/,New York,NY
Salon Dahlia,customerservice@salondahlia.com,+13057519664,https://salondahlia.com/,Miami,FL
Hair Braiding of Ann Arbor,hesstudios1@gmail.com,+17343406503,http://hesstudios.org/,Ann Arbor,MI
Dawn Desiree Studio LLC,info@dawndesireestudio.com,+17043904409,https://www.dawndesireestudio.com/,Littleton,CO
Elle Jane Beauty,ellejanebeauty@gmail.com,+18584008851,http://theellejane.com/,San Diego,CA
Hair Psychic,hairpsychics@gmail.com,+12132900018,http://hairpsychic.com/,Hesperia,CA
Evol Kuts Barbershop,evolkuts@gmail.com,+18325195476,https://www.evolkuts.com/,Manvel,TX
Hair Paradise Salon & Spa,henrietta.ajayi@gmail.com,+12142893499,https://hairparadisesalon.com/,Irving,TX
702 Beauty Boss,702beautyboss@gmail.com,+17029278520,https://702beautyboss.com/,Las Vegas,NV
Blow Dry at the Beach,blowdryatb@gmail.com,+18606615331,https://www.blowdryatthebeach.com/,Old Saybrook,CT
Sisu Hairdressing,sisu.hairdressing@gmail.com,+14022614198,https://sisulincoln.com/,Lincoln,NE
Des Makeup & Hair,des@desmua.com,+15629165563,https://www.deseraebarajas.com/,Norwalk,CA
The Perfect Touch (Master Hair Extensions ) FULL SERVICE SALON,support@theperfecttouchsalonllc.com,+13862189030,https://www.theperfecttouchsalonllc.com/,Orange City,FL
GK Hair Professional,info@gkhair.com,+13053900044,https://www.gkhair.com/,Oakland Park,FL
Great Looks Hair Studio,GreatLooksHairStudio@yahoo.com,+18472650010,https://www.greatlookshairstudio.net/,Lake Villa,IL
SJ Beauty Studio,jj@franklinsalontn.com,+19016460251,https://franklinsalontn.com/,Franklin,TN
Hair By Casey,caseydhair@gmail.com,+18053015213,https://www.hairbycaseyd.com/,Moorpark,CA
Cindy Milena,cindymilena12@hotmail.com,+13057134284,http://cindymilena.com/,Hollywood,FL
Manny's Barbershop 10003 | East village Barber Shop,info@mannysbarbershopnyc.com,+13473971146,https://mannysbarbershopnyc.com/,New York,NY
North Shore Haircuts,contact@appointy.com,+17867667676,https://www.appointy.com/,Waialua,HI
Forever Beauty East Brusnswick,thebrazilianwaxjersey@gmail.com,+17326982902,https://www.brazilianwaxjersey.net/,South River,NJ
Hair By Farah,support@hairbyfarah.com,+15126689730,https://hairbyfarah.com/,Pflugerville,TX
Just Cuz Beauty Boutique & Styling Squad,info@justcuzbeauty.com,+16513420537,https://www.justcuzbeauty.com/,Stillwater,MN
Natural Braiding and Beauty,naturalbraidingbeautyllc@gmail.com,+16126362398,https://naturalbraidingbeauty.carrd.co/,St Cloud,MN
Sutton Place Salon,gkellam69@gmail.com,+13214465630,https://suttonplacehairsalon.com/,Melbourne,FL
Ajeet Mundan & Barber Shop,info@fremontbarber.com,+15103144971,http://fremontbarber.com/,Fremont,CA
Kolorboss Salon,Katie@kolorboss.com,+18146003556,https://www.kolorboss.com/,Erie,PA
Salon Honey,salonhoneytn@gmail.com,,https://www.salonhoneytn.com/,Kingsport,TN
Moxie To Go,beyou@moxietogo.com,+18336694363,https://moxietogo.com/,Gainesville,FL
BOLDLY BEIGE | SALON,boldlybeige@gmail.com,+12145193040,http://boldlybeige.com/,Euless,TX
Lalascuts,laurengrinnell@gmail.com,+12068760640,https://lalascuts.com/,Seattle,WA
Nice Beauty Salon & Barber,contact@barbercard.co,+15713974762,https://barbercard.pro/,Alexandria,VA
Anovystyle,anovystyle@gmail.com,+13472679651,https://www.anovystyle.com/,New York,NY
Le Rêve Makeup & Hair LLC.,booking@lerevemakeup.com,+16142598312,https://lerevemakeup.com/,New Albany,OH
Level Up Beauty XO,levelupbeautyxoxo@gmail.com,+18165192861,https://www.levelupbeautyxo.com/,Smithville,MO
Jaded Beauty,info@jadedbeauty.com,+17202950441,https://jadedbeauty.com/,Denver,CO
Gentlemen's Barbershop,gentlemensbarbershopusa1inc@gmail.com,+19174153266,https://gentlemensbarbershopbrooklyn.com/,Brooklyn,NY
Jamie Dajuan Salon,jamiedajuan26@gmail.com,+17065665853,https://www.jamiedajuansalon.com/,Savannah,GA
Ariana's Hair Creations,ariana.difiore@gmail.com,+17328501048,https://arianashaircreations.com/,Holmdel,NJ
Hair By Chelsea Langan,chelsealangan@icloud.com,+16104054406,https://www.chelsealangan.com/,Middletown,DE
Dread Doctor LLC,info@dreaddoctor.com,+15157290307,http://dreaddoctor.com/,Des Moines,IA
Dread Doctor LLC,support@dreaddoctor.com,+15157290307,http://dreaddoctor.com/,Des Moines,IA
Enchanting Salon Boutique,enchantingsalonboutique@hotmail.com,+19124386938,http://enchantingsalonboutique.com/,Savannah,GA
Passion Braiding Salon,queensteam@passionbraidingsalon.com,+15123502874,https://passionbraidingsalon.com/,Manor,TX
Windy City Glam - Best Chicago Bridal Wedding Hair & Makeup Artists,info@windycityglam.com,+12192374492,https://windycityglam.com/,Chicago,IL
Big Day Beauty,bigdaybeauty@yahoo.com,+12072720381,https://www.bigdaybeautyevents.com/,Scarborough,ME
Beauty Studio Hair & Makeup,contact@beautystudioinc.com,+18002432240,https://www.beautystudioinc.com/,Las Vegas,NV
Rebecca Marie Hair,rebeccamariesalon@gmail.com,+13152002203,https://rebeccamarie.salon/,Syracuse,NY
Hair Extensions by VG Luxe,vghaircaresolutions@gmail.com,+12086144076,https://hairextensionsbyvgluxe.com/,Meridian,ID
Double Image Hair Salon,doubleimagesalon@gmail.com,+16157542180,https://www.doubleimagesalon.com/,Mt. Juliet,TN
The Maven and The Muse,info@themavenandthemuse.com,+17814351858,https://www.themavenandthemuse.com/,Stoneham,MA
Creative Edge Salon,CreativeEdgeSalon7627@gmail.com,+14107956880,https://creativeedgesalon.co/,Woodbine,MD
Brynne Nicole Beauty,BrynneNicoleBeauty@gmail.com,+14806945995,https://www.brynnenicole.com/,Phoenix,AZ
Lumos Nox Salon,lumosnoxsalon@gmail.com,+16304785371,https://lumosnoxsalon.com/,Naperville,IL
"Hair@Planet Venus | Hair Extensions Austin, TX By Dede",ddviscarde@hotmail.com,+15127434247,https://hairextensionsaustintexas.net/,Austin,TX
Trendy HAIR Lounge,trendyhairlounge@gmail.com,+15204759819,https://www.trendyhairlounge.com/,Tucson,AZ
Smith & Mane,smithandmane@gmail.com,+17273337500,https://www.smithandmane.com/,Palm Harbor,FL
Schwahn Salon - Hair Salon,SCHWAHNSALONSTAFF@gmail.com,+16027053035,https://schwahnsalon.com/,Mesa,AZ
SYSY ESSENTIAL BRAIDS | Worcester,info@sysyessentials.com,+17746152893,https://www.sysyessentials.com/,Worcester,MA
Therapy Hair Salon,info@therapyhairsalonandspa.com,+18033271800,https://therapyhairsalons.com/,Charlotte,NC
Therapy Hair Salon,info@therapyhairsalonrockhill.com,+18033271800,https://therapyhairsalons.com/,Charlotte,NC
SUITE 303,info@suite303.com,+12126331011,https://www.suite303.com/,New York,NY
Jewel's Cut and Color Bar,jewelstyles23@gmail.com,+17063300042,https://jewels-cut-color.chrone.work/,Augusta,GA
Bisilhair,revedunstan@gmail.com,+15714401583,https://bisilhair.net/,Waldorf,MD
ENTYRE INC.,Bookings@entyreinc.com,+17816663537,https://www.entyreinc.com/,Saugus,MA
MetaMorph Salon,metamorphsalon@gmail.com,+15752086558,http://metamorphsalon.glossgenius.com/,Roswell,NM
Studio eight salon & spa,studioeightsalonandspa@bresnan.net,+19703147309,https://www.studioeightsalonandspa.com/,Grand Junction,CO
The Snooty Boutique,snootyhair@gmail.com,+18326393222,https://snootyhair.com/,Houston,TX
Hair By Jessica Woods,hairbyjessicawoods@gmail.com,+19513801035,https://www.hairbyjessicawoods.com/,Oceanside,CA
Affinity Organic Salon,mrsafmeekins@gmail.com,+19198969716,https://affinityorganicsalon.com/,Clayton,NC
Innovations Salon & Spa,innovate@netamumail.com,+15152954800,https://www.innovations.salon/,Algona,IA
The Studio by Adam Lee Kenney,bookings@thestudioalk.com,+13128830055,https://thestudioalk.com/,Los Angeles,CA
Joels,joelssalon@gmail.com,+15012212399,https://www.joelshairsalon.com/,Little Rock,AR
Balayage And Extensions by Linet K.,hairbylinet@gmail.com,+13109721566,https://www.hairbylinet.com/,West Hollywood,CA
Basin Street Hair Salon Newport Beach,info@basinstreethair.com,+19496752046,https://basinstreethair.com/,Newport Beach,CA
Rileyroselux,rileyroselux@gmail.com,+17737443492,https://rileyroselux.chrone.work/,Tinley Park,IL
Behind The Steel Shear,frontdesk@cuttinloose.salon,+13052487441,https://www.cuttinloose.salon/,Homestead,FL
Salon Savvy,salonsavvyshawnee@yahoo.com,+19136316196,http://salonsavvyshawnee.com/,Shawnee,KS
Enchantment Beauty Salon,owens_kim@bellsouth.net,+19012199565,https://enchantmentbeautysalon.com/,Memphis,TN
Hair Extension Lab + Salon,info@hairextensionlabkc.com,+18163253336,https://hairextensionlabkc.com/,Kansas City,MO
Length Extension & Color Bar,info@lengthhairdenver.com,+17204711001,https://lengthhairdenver.com/,Denver,CO
Ritual The Salon LLC,ritualthesalon2017@gmail.com,+17706760481,https://ritualthesalon.com/,Milton,GA
Blaze Color Salon,info@blazehaircolor.com,+13193384247,https://www.blazehaircolor.com/,Coralville,IA
Spa Nijoli and Salon,info@nijoli.com,+19786829772,https://nijoli.com/,Methuen,MA
Deanna Bean Stylist,extensionsbydeanna@gmail.com,,https://www.deannabean.com/,Cedar Rapids,IA
The Guest House Beauty Loft,theguesthousesalon1@gmail.com,+13034315600,https://guesthousesalon.co/,Arvada,CO
Aurora Salon,info.aurorasalon@gmail.com,+18053700001,http://aurorasalonwlv.com/,Westlake Village,CA
Nails Hair Gallery Salon and Day Spa,MARYBUI79@gmail.com,+12395493120,https://nailshairgalleryanddayspa.com/,Cape Coral,FL
Chic Concepts Salon,ChicConceptsSalon@gmail.com,+16305293837,http://chicconceptssalon.com/,Roselle,IL
Wonderwall Hair Co.,contact@wonderwallhairco.com,+17327781349,https://www.wonderwallhairco.com/,Point Pleasant Beach,NJ
Elite Collective,info@elitecollective.co,+16157088226,https://www.elitecollective.co/,Franklin,TN
Austin Curls,info@austincurls.com,+15122227044,https://www.austincurls.com/,Austin,TX
Piccola Salon,piccolasalon@gmail.com,+14142321557,https://www.piccolasalon.com/,Elm Grove,WI
Salon Cerna | Hair Salon Puyallup,saloncerna@gmail.com,+12532680060,https://www.saloncerna.com/,Puyallup,WA
Palma Hair Salon,team@palmahairsalon.com,+14242120036,http://palmahairsalon.com/,Rancho Palos Verdes,CA
M Dominican Beauty Salon,domingosolis08@gmail.com,+17134624000,https://www.mdominicanbeautysalon.com/,Houston,TX
A Posey Place Hair Salon,aposeyplacesalon@gmail.com,+19127564879,https://www.aposeyplacehairsalon.com/,Richmond Hill,GA
Indigo Creative Hair Studio,IndigoCreativeHairStudio@gmail.com,+19712468739,http://indigocreativehairstudio.com/,Hillsboro,OR
E&G Salon & Day Spa,TELLY_GMZ@icloud.com,+19728590643,https://www.estelagomezspa.com/,Rowlett,TX
Reno Hair Extensions,trinashair@yahoo.com,+17758304696,http://renohairextensions.com/,Reno,NV
Joni's Beauty Bar,jonisbeautybar@gmail.com,+14074135330,https://www.jonisbeautybar.com/,Orlando,FL
Saviours Salon,christina@saviourssalon.com,+14154209406,https://www.saviourssalon.com/,San Francisco,CA
Saviours Salon,deb@saviourssalon.com,+14154209406,https://www.saviourssalon.com/,San Francisco,CA
Saviours Salon,faith@saviourssalon.com,+14154209406,https://www.saviourssalon.com/,San Francisco,CA
Beauty Bar by Thrive,info@beautybarbythrive.com,+16193122454,https://beautybarbythrive.com/,Santee,CA
Miwa-Alex Salon,reception@miwaalex.com,+12122284422,https://miwa-alex.com/,New York,NY
Roots. Salon and Wellness,info@rootssalon.com,+19196945990,https://www.rootssalonandwellness.com/,Cary,NC
Alfredo James Hair Design,alfredo@alfredojames.com,+12102013188,https://www.alfredojames.com/,San Antonio,TX
Luna Hair,hello@lunahairco.com,+16103581485,https://lunahairco.com/,West Chester,PA
Passion Hair Salon,passionhairsalons@gmail.com,+17032917975,https://passionhairsalons.com/,Dumfries,VA
Studio Bee Beauty Lounge,studiobeebeautylounge@gmail.com,+12098169022,https://www.studiobeebeautylounge.com/,Lodi,CA
Salon Fifty Four,thesalon54@gmail.com,+14793968918,https://www.salonfiftyfour.co/,Fayetteville,AR
Gerber Salon,info@gerbersalon.com,+17328887575,https://www.gerbersalon.com/,Keyport,NJ
Salon Boutique @ Mesa,info@salonboutique.net,+16023002670,https://www.salonboutique.com/,Mesa,AZ
Envy Hair Salon & Spa,support@envyhairsalonct.com,+18607573580,https://envyhairsalonct.com/,Berlin,CT
Hair Rx Salon,info@hairrx.net,+13036807121,https://www.hairrx.net/,Centennial,CO
Rootsei - Natural Hair Studio And Head Spa,hair@rootsei.com,+16464278777,https://www.rootsei.com/,Atlanta,GA
Legacy Hair Co,info@legacyhairco.com,+13603065317,https://legacyhair.co/,Bellingham,WA
Elle.B Savvy - West,info@ellebsavvy.com,+17204853056,https://ellebsavvy.com/,Lakewood,CO
MeTime Salon,info@metimesalons.com,+15614739200,https://metimesalons.com/,Tequesta,FL
Ivte Hair Braiding,ivy4real86@gmail.com,+13018609960,https://ivtebeautyplace-hairbraiding.chrone.work/,Suitland,MD
Studio CG Salon,studiocgsalon@gmail.com,+12086613718,https://www.studiocgsalon.com/,Coeur d'Alene,ID
Entourage Hair Salon and Spa,info@e-ntourage.com,+16302798261,http://e-ntourage.com/,Elmhurst,IL
House of Lange Hair Design - Irvine Spectrum Center,team@houseoflange.com,+19497531223,https://www.houseoflange.com/,Irvine,CA
MeTime Salon,info@metimesalons.com,+15614739200,https://metimesalons.com/,Jupiter,FL
Skandia Kollektiv | Color & Hair Extensions Salon Utah,skandia.kollektiv@gmail.com,+18012179518,https://skandiakollektiv.com/,Salt Lake City,UT
HVN,info@hvnhaven.com,+13303052102,https://www.hvnhaven.com/,Orrville,OH
Authentic African Hair Braiding,authenticafricanhb@gmail.com,+16124497438,https://authentic-african-hair-braiding.chrone.work/,Bloomington,MN
Merlan Salon Boutique & Spa,sarahsimonstyles@gmail.com,+17203439085,https://merlansbs.com/,Englewood,CO
French Twist Salon,hairstylisthayley13@yahoo.com,+19783588150,https://frenchtwisthairsalon.com/,Newburyport,MA
Vanity Salon,info@vanitysalontx.com,+12813234228,https://www.vanitysalontx.com/,Spring,TX
Erin Milan Salon & Spa,www.erin.milan@aol.com,+12098578097,https://www.erinmilan.com/,Modesto,CA
Salon Pearl,customerservice@salonpearl.com,+17273434000,https://salonpearl.com/,St. Petersburg,FL
Evolution Hair Company,Evolutionhairco@gmail.com,+13136939722,https://evolutionhairco.com/,Detroit,MI
Class Act Salon,owner@classactsalontaylor.com,+15127818217,https://www.classactsalontaylor.com/,Taylor,TX
The Colour Bar Salon,colourbarsalonappointments@gmail.com,+18174032650,https://www.thecolourbarsalonsuites.com/,Corinth,TX
White Space Salon,julie@whitespacesalon.com,+13057412292,https://www.whitespacesalon.com/,Miami Beach,FL
Bloom Studio,bloomsalonstudio@yahoo.com,+14064041536,https://www.bloomstudiomt.com/,Bozeman,MT
Mirror Mirror Salon - The Grove,appointments@mirrormirroraustin.com,+15125512092,https://mirrormirroraustin.com/,Austin,TX
Extended Hair By Brandi,extendedhairbybrandi@cloud.com,+15738188554,https://extendedhairbybrandi.com/,Columbia,MO
Sew me cyn - Hair Styling & Extensions,sewmehairsalon@gmail.com,+18168142933,https://sew-me-cyn.chrone.work/,Kansas City,MO
Caroline's Salon,carolinessalon@icloud.com,+19252841474,https://www.carolinessalon.net/,Lafayette,CA
Antidote Hair Salon and Beauty Bar,antidotesalonkc@gmail.com,+18167565606,https://www.antidotesalonkc.com/,Kansas City,MO
Blu A Color Salon,blusalonstl@gmail.com,+16362513553,https://blucolorsalon.com/,Valley Park,MO
Studio D Hair Salon,studio@studiodhair.com,+17324558229,https://www.studiodhair.com/,Neptune City,NJ
Demarlo Salon & Spa Inc,demarlosalon@outlook.com,+12397932020,https://demarlosalon.com/,Naples,FL
Salon Oriana,whatsup@salonoriana.com,+19528845226,https://salonoriana.com/,Bloomington,MN
Aveda - TCG Salon & Headspa,info@tcgsalon.com,+14074270454,http://tcgsalon.com/,Orlando,FL
Styles by Sherol,press@bluehost.com,+18884014678,http://stylesbysherol.com/,Pembroke Pines,FL
Styles by Sherol,affiliates@bluehost.com,+18884014678,http://stylesbysherol.com/,Pembroke Pines,FL
Take Two Salon,info@taketwosalon.com,+17323835703,https://www.taketwosalon.com/,Red Bank,NJ
Styles By Torres @ LeVel It Up Hair Studio,stylesbytorresmastercutz@gmail.com,+18328770613,http://stylesbytorres.chrone.work/,Houston,TX
SOZO Hair Design,mswarrad@gmail.com,+17133822151,https://sozosalon.com/,The Woodlands,TX
Gavali Salon,gavalisalon@gmail.com,+14759885084,https://www.gavalisalon.com/,Fairfield,CT
Gloss Scottsdale,info@glossscottsdale.com,+14805049076,https://glossscottsdale.com/,Scottsdale,AZ
MeCie Le’s Hair Studio,mecieleshairstudio@gmail.com,+12025366845,http://mecieleshairstudio.com/,Annapolis,MD
Salon Boutique,salonboutiquepa@gmail.com,+17245230655,https://salonboutiquepa.com/,Jeannette,PA
Hair Circus & Glamfreakz,haircircusfreaks@gmail.com,+19548229246,https://www.haircircussalon.com/,Fort Lauderdale,FL
In Vision Hair Design,scheduling@invisionhairdesign.com,+19042409278,https://invisionhairdesign.com/,St Johns,FL
Statix,statixsalon@yahoo.com,+16037493886,https://www.statixsalonandspa.com/,Dover,NH
Bloom Salon & Studio,bloomsalonkc@gmail.com,+18164789874,https://www.bloomsalonkc.com/,Independence,MO
Blonded Hair Co.,blondedhairco@gmail.com,+18655675422,https://blondedhairco.square.site/,Farragut,TN
Salon De La,vahe@salondelav.com,+18184848666,https://www.salondelav.com/,Glendale,CA
Heath Salon and Spa,info@heathsalonandspa.com,+19727710688,https://heathhairsalonandspa.com/,Heath,TX
Edit Downtown Salon,editsalonsby@gmail.com,+14105724377,https://www.editsalonsby.com/,Salisbury,MD
Vidov West 14 Hair Salon - Haircut Hair Color & Hair Extension Specialist -,vidovwest14@gmail.com,+12122292100,https://vidovwestsalon.com/,New York,NY
Vidov West 14 Hair Salon - Haircut Hair Color & Hair Extension Specialist -,vidovsalonnyc@gmail.com,+12122292100,https://vidovwestsalon.com/,New York,NY
The Fixx Hair Studio #2,Thefixxfrontdesk@gmail.com,+18306293499,https://www.thefixxstudio.com/,New Braunfels,TX
JUVE' Hair Salon,info@juvehairsalon.com,+14072038944,http://juvehairsalon.com/,Orlando,FL
Hair Extensions & Weaving by Pat,hairextensionsbypat@gmail.com,+19544264247,https://www.hairweavingbypat.com/,Deerfield Beach,FL
Urban Betty Salon 38th,soco@urbanbetty.com,+15123717663,https://urbanbetty.com/,Austin,TX
Urban Betty Salon 38th,contact@urbanbetty.com,+15123717663,https://urbanbetty.com/,Austin,TX
Urban Betty Salon 38th,roundrock@urbanbetty.com,+15123717663,https://urbanbetty.com/,Austin,TX
858 Hair,salon.858hair@gmail.com,+18168584247,http://858hair.com/,Platte City,MO
Hair Extensions by Aiya Hair Salon,info@aiyahairsalon.com,+13103392911,https://aiyahairsalon.com/,Santa Monica,CA
Atomic Orchard Salon,atomicorchardsalon@gmail.com,+19105003081,https://www.atomicorchardsalon.com/,Fayetteville,NC
Ten Salon Ponte Vedra Beach,info@tensalon.net,+19048535677,http://tensalon.net/,Ponte Vedra Beach,FL
Picasso Scalp Micropigmentation- Chicago,info@picassojeff.com,+18887676691,https://picassojeff.com/,La Grange Park,IL
The Salon Bleu,thesalonbleu@gmail.com,+18592297436,https://thesalonbleu.com/,Lexington,KY
Hairloom Extensions and Styling Inc.,shaina@extensionsbyshaina.com,+18454784627,https://www.hairloomes.com/,Montgomery,NY
The Color Bar,contact@cbsalonscranton.com,+15708005894,https://cbsalonscranton.com/,Scranton,PA
Styles of Success | Hair Salon,info@blackhairsalonclevelandohio.com,+12163617678,https://blackhairsalonclevelandohio.com/,Cleveland,OH
Grande Hair Studios,info@thehairdoll.net,+14704991093,https://thehairdoll.org/,Atlanta,GA
Zinke Hair Studio,info@zinkehairstudio.com,+19046861279,https://zinkehairstudio.com/,Ponte Vedra Beach,FL
Goddess Locs Extensions & Color Bar,melonie@goddesslocsmi.com,+12489875764,https://www.goddesslocsmi.com/,Rochester Hills,MI
Goddess Locs Extensions & Color Bar,meloniemhair@gmail.com,+12489875764,https://www.goddesslocsmi.com/,Rochester Hills,MI
Vanity Hair Salon & Extensions,Tru@trueastman.com,+18013611966,https://www.trueastman.com/,St. George,UT
Studio Elle salon & blow dry bar,info@studioellesalon.com,+19514611134,https://studioellesalon.com/,Temecula,CA
SALT + MANE SALON,saltandmane@gmail.com,+18056530663,https://saltandmane.com/,Ventura,CA
Beauty and Barber Suites,beautyandbarbersuites@gmail.com,+17085805061,https://beautyandbarbersuites.com/,Country Club Hills,IL
Shear Lara LLC,lara@shearlara.com,,https://www.shearlara.com/,Anchorage,AK
Luscious and Co. Beauty - Shelton,info@lusciousandco.com,+12035132446,https://lusciousandco.com/,Shelton,CT
Establish 37 - Palmola,hello@establish37.com,+18636409515,https://www.establish37.com/,Lakeland,FL
Stephen Julian Salon,stephenjuliansalon@gmail.com,+19549936910,https://www.stephenjuliansalon.com/,Fort Lauderdale,FL
Trademark Salon | Luxury Hair Salon,trademarksalon@gmail.com,+18327173422,https://trademarksalon.com/,Houston,TX
Bon Vivant Salon,frontdesk@bonvivantsalon.com,+17705169100,https://bonvivantsalon.com/,Woodstock,GA
African Earth Of Braids,chroneob@gmail.com,+14434310532,https://african-earth-of-braids.chrone.work/,Windsor Mill,MD
Ashlyn Jamyson Salon & Spa,ashlynjamysonsalon@gmail.com,+13605155009,https://www.ashlynjamysonsalon.com/,Olympia,WA
Adelina Salon Boutique,adelinahairdesign@gmail.com,+15168698600,https://adelinasalonboutique.com/,Manhasset,NY
Onyx Salon,hello@onyxthesalon.com,+19037208738,https://onyxthesalon.com/,Longview,TX
Ninette Hair Studio,info@ninettehairstudio.com,+17869536667,http://ninettestudio.com/,Miami,FL
Andrea Orsi Beauty Lounge,contact@andreaorsibeautylounge.com,+19494325568,https://andreaorsibeautylounge.com/,Newport Beach,CA
Linda M Vazquez Beauty Studio,info@bohemebeauty.com,+19545587288,https://www.bohemebeauty.com/,Pembroke Pines,FL
Ale Jr Salon,info@alejrsalon.com,+19542178712,https://www.alejrsalon.com/,Weston,FL
Commoner Salon,phoenixhairvibes@gmail.com,+16786777215,https://commonersalon.com/,Atlanta,GA
BLOND STUDIO,contact.blond.studio@gmail.com,+17274601774,https://www.blondstudios.com/,St. Petersburg,FL
The Copper Label,hello@thecopperlabel.com,+12083522972,https://thecopperlabel.com/,Coeur d'Alene,ID
SUGAR Petaluma,hello@sugarpetaluma.com,+17077746155,https://www.sugarpetaluma.com/,Petaluma,CA
"The Swan Method, LLC",info@swanmethodhairextensions.com,+19197017027,https://swanmethodhairextensions.com/,Raleigh,NC
Kayla's Chair,kayla.degree88@gmail.com,+17632026651,https://kaylaschair.com/,Bloomington,MN
Hair Phenomenon,Helmickabbey@gmail.com,+17178181375,https://hair-phenomenon.square.site/,Wilmington,NC
Karen Marie Salon,info@karenmariesalon.com,+17732274003,https://www.karenmariesalon.com/,Chicago,IL
Creations Salon,creationshairsalonllc@gmail.com,+17178466040,https://www.creationshairandtanning.com/,York,PA
The Hair Loft at The Corner and Head Spa,hello@hairloftnj.com,+17327383770,https://www.hairloftnj.com/,Metuchen,NJ
The HAIRDUE,thehairdue@gmail.com,+18058132980,http://thehairdue.com/,Scottsdale,AZ
Salon Farouk,salonfarouk@gmail.com,+13103164321,http://salonfarouk.com/,Redondo Beach,CA
Hair Story by Serap,info@hairstorybyserap.com,+15719194101,http://hairstorybyserap.com/,Ashburn,VA
Illusions Spa and Salon,illusionsspa@yahoo.com,+15617462233,https://www.illusionsspaandsalon.com/,Jupiter,FL
Painted Mane,paintedmaneco@gmail.com,+19259547539,https://paintedmaneco.com/,Walnut Creek,CA
Hair Vyce Studio ( West ),info@hairvycestudio.com,+14845345678,https://www.vycestudio.com/,Philadelphia,PA
Salon One Six One,info@onesixonestl.com,+13149527530,https://www.onesixonestl.com/,St. Louis,MO
Drop Dead Gorgeous Blowouts Make Up,info@dropdeadgorgeoussalon.com,+13102751388,http://ddgsalon.com/,Beverly Hills,CA
SALON SOLEIL,salonsoleilhb@gmail.com,+16575022693,https://salonsoleilhb.com/,Huntington Beach,CA
Signatures Salon,info@signaturessalon.biz,+13374784433,https://signaturessalon.biz/,Lake Charles,LA
Salon Moda Huntingdon Valley,salonmodahair@gmail.com,+12159471600,https://www.salonmodahv.com/,Huntingdon Valley,PA
Mooi Salon and Spa,frontdeskmooi@gmail.com,+18134433724,https://www.mooisalonandspa.com/,Tampa,FL
ART ROOM HAIR SPA,artroomhairspa@gmail.com,+19292443733,https://www.artroomhairspa.com/,Astoria,NY
Modern Betty Salon,modernbetty3.0@gmail.com,+15413433820,https://www.modernbettysalon.com/,Eugene,OR
Echo Salon Downtown Grand Rapids,echosalongr@gmail.com,+16167429980,https://www.echosalongr.com/,Grand Rapids,MI
Ania Hair Studio & Spa,ania@aniahairsalon.com,+15184247171,http://aniahairstudio.com/,Albany,NY
Hair Antics,info@hairantics.net,+19417378778,https://hairantics.net/,Bradenton,FL
His & Her Hair Salon,hisherhairsalon@gmail.com,+17067364247,https://www.augustahair.com/,Augusta,GA
Transicion Salon,transicionsalon@gmail.com,+15073433868,https://transicion-salon.square.site/,Worthington,MN
Abel Najher Exclusive,info@abelnajhersalon.com,+16466928580,https://www.abelnajhersalon.com/,New York,NY
Bird And Belle Salon Collective,Birdandbellesalon@gmail.com,+16309814815,https://www.birdandbellesalon.com/,Naperville,IL
The Network Salon,hello@thenetworksalon.com,+18604263642,https://www.thenetworksalon.com/,Plantsville,CT
Anna's Glamour Salon LLC,admin@annasglamoursalon.com,+13215674172,http://annasglamoursalon.com/,Titusville,FL
Bigger Better Hair Salon,support@biggerbetterhair.com,+12147346596,https://biggerbetterhair.com/,Dallas,TX
Blonde / Blond Salon,popular@blondeblond.com,+13106665907,https://blondeblond.com/,Los Angeles,CA
KP African Hair Braiding,hairbykp2010@gmail.com,+18324988916,https://kpafricanhairbraiding.com/,Katy,TX
Roya Beauty,management@royabeauty.com,+17347733402,https://www.royabeauty.com/,Ann Arbor,MI
Ivie African Hair Braiding,ivieosa2@gmail.com,+17186003043,https://ivie-african-hair-braiding.chrone.work/,Riverdale,GA
Milvali Salon & Cosmetics,milvalimv@gmail.com,+14158029230,https://www.milvali.com/,San Francisco,CA
Milvali Salon & Cosmetics,milvalionunion@gmail.com,+14158029230,https://www.milvali.com/,San Francisco,CA
Salon Salon,salonsalon@stowe.nu,+18022537378,https://www.salonsalonvt.com/,Stowe,VT
Salon Fontana Las Vegas,salonfontanalasvegas@gmail.com,+17024367033,https://www.salonfontanalasvegas.com/,Henderson,NV
Spotlight the Salon,spotlightthesalon@gmail.com,+19703993442,https://www.spotlightthesalon.com/,Delta,CO
Extension Arts,info@extensionarts.com,+16174482428,https://www.extensionarts.com/,Boston,MA
Hair Studio 3940,hairstudio4039@gmail.com,+17039049840,http://hairstudio3940.com/,Sterling,VA
"A Select Salon by Malinda, Inc",aselectsalon@aol.com,+19412683629,http://aselectsalon.com/,Port Charlotte,FL
Salon Dulay Aveda,orlando@salondulay.com,+14079855243,https://salondulay.com/,Windermere,FL
Salon Dulay Aveda,drphillips@salondulay.com,+14079855243,https://salondulay.com/,Windermere,FL
Salon Dulay Aveda,windermere@salondulay.com,+14079855243,https://salondulay.com/,Windermere,FL
Robin Brooks Studio Salon,Robinmdesigns@gmail.com,+19492121786,https://robinbrooksstudiosalon.com/,Mission Viejo,CA
Mitra Hair beauty Salon Tarzana,mitrasalon@yahoo.com,+18189962090,https://mitrahairsalons.com/,Tarzana,CA
thetylercollection by Tyler Reid,mgmt@thetylercollection.com,+12489384194,https://www.thetylercollection.com/,Northville,MI
Amata Salon,info@amatasalon.com,+17637778711,https://www.amatasalon.com/,Rogers,MN
Bombshell Beauty Pro,bombshellbeautypro@gmail.com,+16784016179,https://bombshellbeautypro.com/,Douglasville,GA
Mode Salon and Wellness,info.modesalonnh@gmail.com,+16035185120,https://www.modesalonandwellness.com/,Manchester,NH
AMS Loft Salon,info@amsloft.com,+15704717528,https://amsloft.com/,Moosic,PA
Hair By Ana Salinas,anasalinashair@gmail.com,+14089308521,https://www.anasalinashair.com/,Los Angeles,CA
Wigs Are Us,info@wigsareus.com,+13054544073,http://wigsareus.com/,Miami,FL
Bello Haven Salon + Extensions,education@bellohavenhairextensions.com,+19706173261,https://www.bellohavenhairextensions.com/,Johnstown,CO
Bello Haven Salon + Extensions,salon@bellohavenhairextensions.com,+19706173261,https://www.bellohavenhairextensions.com/,Johnstown,CO
Bello Haven Salon + Extensions,sales@bellohavenhairextensions.com,+19706173261,https://www.bellohavenhairextensions.com/,Johnstown,CO
Bello Haven Salon + Extensions,shipping@bellohavenhairextensions.com,+19706173261,https://www.bellohavenhairextensions.com/,Johnstown,CO
"Inner Strength Therapeutic Loc Services, LLC",purposeplus8@gmail.com,+13123666044,https://inner-strength-therapeutic-loc-services-llc.chrone.work/,Rockford,IL
Santé Salon,ashley@santesalonvt.com,+18025828262,https://www.santesalonvt.com/,Williston,VT
Studio Blush,studioblushblacksburg@gmail.com,+15408180521,http://studioblushblacksburg.com/,Blacksburg,VA
The Parlour,info@theparlour.com,+15045185640,http://theparlournola.com/,New Orleans,LA
Garage Salon Co.,clambert9211@gmail.com,+19189550084,https://www.garagesalonco.com/,Collinsville,OK
Signature Salon Suites Sun 'n Lake,info@signaturesalon.com,+13034567890,https://www.signaturesalonsuites.com/,Avon Park,FL
CandyShoppe Hair Studio,info@candyshoppecolor.com,+16786774733,http://candyshoppecolor.com/,Sandy Springs,GA
Rowan Salon & Spa,support@rowansalon.com,+13609132214,https://rowansalon.com/,Arlington,WA
Picasso Hair Salon,picassobumblesalon@yahoo.com,+15307717025,https://picassohairsalon.com/,Davis,CA
Elysian Hair Spa,elysianhairspa@gmail.com,+16319232211,https://www.elysianhairspa.com/,Huntington,NY
L.H. Salon,info@lhsalon.com,+15156304111,https://www.lhsalon.com/,Altoona,IA
The Rose of Sharon AVEDA salon,info@rossalon.com,+19097921234,https://www.rossalon.com/,Redlands,CA
Massi Beauty Care,massibeautycare@gmail.com,+18583810449,http://massibeautycare.com/,Springville,UT
A Touch of Color Makeup and Hair Studio,makeupbyss@gmail.com,+12039250008,https://atouchofcolormakeupandhair.com/,Shelton,CT
Redhead Salon Boutique,redheadmuncie@gmail.com,+17652846505,https://www.redheadsalonboutique.com/,Muncie,IN
Adriana’s Hair Studio,adrianashairstudio21@gmail.com,+13107020340,https://adrianashairstudio.com/,Santa Monica,CA
Zolf Salon,zolfsalon@gmail.com,+19253094261,https://www.zolfsalon.com/,San Ramon,CA
Salon 1240,salontwelveforty@gmail.com,+14082953886,https://www.salon1240.com/,San Jose,CA
Champagne Hair Studio,info@champagnehairstudio.net,+14698926212,https://www.champagnehairstudio.net/,Carrollton,TX
Cielo Salon & Spa,cielosalonandspa@aol.com,+17029424400,https://www.cielosalonandspa.com/,Henderson,NV
Lauren Alfano Hair,laurenalfanohair@gmail.com,+17168684564,https://www.laurenalfanohair.com/,Buffalo,NY
Lush Hair Folk Salon,Boss@lushhairfolk.com,+18327085927,https://lush-hair-folk.com/,Houston,TX
Country Hair Studio,info@countryhairstudio.com,+17173364500,https://www.countryhairstudio.com/,Denver,PA
Veer & Wander,shop@veerandwander.com,+14158643012,https://veerandwander.com/,San Francisco,CA
Moya Moya Sea of Creations | Braids & Locs & Nail Art,mmsoc.sales@gmail.com,+19544964085,https://moya-moya-sea-of-creations.chrone.work/,Fort Lauderdale,FL
Vidov West Hair Salon - Haircut Hair Color Blowout & Hair Extension Specialist,vidovwest14@gmail.com,+12122292100,https://vidovwestsalon.com/,New York,NY
Vidov West Hair Salon - Haircut Hair Color Blowout & Hair Extension Specialist,vidovsalonnyc@gmail.com,+12122292100,https://vidovwestsalon.com/,New York,NY
Salon Fix,info@salonfix.net,+14794453736,http://salonfix.net/,Fayetteville,AR
Willow + Oak Hair Lounge,willowandoakhairdesign@gmail.com,+18655070934,https://willowoakhair.com/,Knoxville,TN
"New Horizons Hair Replacement hair Toppers, wigs Atlanta",newhorizons9902@yahoo.com,+15712699002,https://www.newhorizonsatl.com/,Alpharetta,GA
Hairbuilders,hairbuilders4me@yahoo.com,+12078733688,http://hairbuildersforme.com/,North Vassalboro,ME
The Allure Marian Unisex Salon,innisswendy0@gmail.com,+13478663902,https://allurebymarian.com/,Brooklyn,NY
Tashia Did That Hair,brenee.la@gmail.com,+18163371728,https://tashiadidthathair.com/,Kansas City,MO
Aura Hair Co. - Hair Salon Boynton Beach,aurahairco@gmail.com,+15615090195,https://aurahaircompany.com/,Boynton Beach,FL
Salon Avenue,salonavenuehtx@gmail.com,+12813372400,https://salonavenuehtx.com/,League City,TX
Elements Salon,elementshairsalon@ymail.com,+19044910991,https://www.elementssalonfl.com/,Fernandina Beach,FL
We Inspire Growth Salon,info@weinspiregrowth.com,+18565167569,https://weinspiregrowth.com/,Deptford,NJ
Barron's London Salon,askdavid@barronslondonsalon.com,+14048120032,https://barronslondonsalon.com/,Atlanta,GA
The Lauren Ashtyn Collection,contact@laurenashtyn.com,+18646410751,https://thelaurenashtyncollection.com/,Drayton,SC
Swankd,swankdhair@gmail.com,+15593816076,https://www.swankdhair.com/,Hanford,CA
Salon CoCo BOND Spa,saloncocobond@gmail.com,+17323514979,https://www.saloncocobond.com/,Shrewsbury,NJ
Salon CoCo BOND Spa,SalonCoCoBOND@gmail.com,+17323514979,https://www.saloncocobond.com/,Shrewsbury,NJ
Therapy Hair Salon Rock Hill,info@therapyhairsalonandspa.com,+18033271800,https://therapyhairsalons.com/,Rock Hill,SC
Therapy Hair Salon Rock Hill,info@therapyhairsalonrockhill.com,+18033271800,https://therapyhairsalons.com/,Rock Hill,SC
Salon South Flow by Resta,salonsouthflow@gmail.com,+15612662611,https://salonsouthflow.com/,Boynton Beach,FL
Tame Your Mane,tameyourmane4@gmail.com,+18146957286,http://tameyourmane.sexy/,East Freedom,PA
Ashford & Parker Hair Studio,ashfordandparker@gmail.com,+12813026981,https://ashfordandparker.com/,Sugar Land,TX
Dellaria Salon,purchasing@dellaria.com,+16172541004,https://www.dellaria.com/,Boston,MA
Dellaria Salon,jamiegizanis@dellaria.com,+16172541004,https://www.dellaria.com/,Boston,MA
Prevail Natural Hair Salon,prevailyournatural@gmail.com,+14322104850,https://www.prevailyournatural.com/,Dunwoody,GA
R G’s Hair Design,rgshairdesign@gmail.com,+17813359649,http://rgshairdesign.com/,Weymouth,MA
Luxurious Stylez,luxuriousstylez2020@gmail.com,+15136949604,https://luxurious-stylez-llc.square.site/,Springdale,OH
Salon Dulay - Dr. Phillips,orlando@salondulay.com,+14079855243,https://salondulay.com/,Orlando,FL
Salon Dulay - Dr. Phillips,drphillips@salondulay.com,+14079855243,https://salondulay.com/,Orlando,FL
Salon Dulay - Dr. Phillips,windermere@salondulay.com,+14079855243,https://salondulay.com/,Orlando,FL
NOBU Beautique Hair & Spa Salon,nobubeautique@gmail.com,+19802215055,https://www.nobubeautique.com/,Charlotte,NC
I Glam You Hair Color and Extensions,iglamyou@gmail.com,+16506918989,https://www.iglamyou.com/,Mountain View,CA
"Fringe, The Styling Salon",fringe@fringethestylingsalon.com,+12087654321,https://www.fringeinpoky.com/,Pocatello,ID
blk. Salon & Spa,alii@salonblk.com,+18564056623,https://www.blksalonandspa.com/,Sewell,NJ
VIDA Salon - Cherry Creek,info@vidasalon.net,+13033210022,https://vidasalon.com/,Denver,CO
Olivier Salon and Spa Hair Salon In Fort Lauderdale,Olivier@oliviersalon.com,+19549001541,https://www.oliviersalon.com/,Fort Lauderdale,FL
"Mella Salon - Extensions, Color, Hair Styling, Makeup, & More! Located in NJ",mellasalon.leda@gmail.com,+19739686966,https://mellasalon.com/,Totowa,NJ
Bombshell Salon,frontdesk@bombshellsantamonica.com,+13104500440,https://www.bombshellsantamonica.com/,Santa Monica,CA
Doll House Hair & Beauty Salon,emduboue@gmail.com,+15048357474,https://metairiesalon.com/,Metairie,LA
"Beautiful Dollhouse Salon - Locs & Hairstylist, Ponytails",thebeautifuldollhouse@gmail.com,+14048068136,https://beautiful-dollhouse-salon.chrone.work/,Atlanta,GA
Lizo Luxe Hair,admin@lizoluxehair.com,+16787402400,https://lizoluxehair.com/,Roswell,GA
Salon Trace,info@salontrace.com,+15612722328,https://www.salontrace.com/,Delray Beach,FL
10Three Beauty Lab,hello@10threebeautylab.com,+14435745023,https://www.10threebeautylab.com/,Ellicott City,MD
Vidogi Salon,info@vidogisalon.com,+14809473720,https://www.vidogisalon.com/,Scottsdale,AZ
Joseph's Atelier Cut and Color Bar,josephsatelier@gmail.com,+16463988990,https://www.josephsatelier.com/,New York,NY
Zolton's Salon & Day Spa,zoltonsalon@gmail.com,+14805138414,https://zoltons.com/,Scottsdale,AZ
Balayage Couture Salon,balayagecouture@gmail.com,+16573775552,https://www.balayagecouture.com/,Santa Ana,CA
Phenix Salon Suites,michaelm@phenixsalonsuites.com,+19374761449,https://phenixdayton.com/,Dayton,OH
Paloosh Salon,palooshyourself@palooshsalon.com,+18437660037,https://www.palooshsalon.com/,Charleston,SC
Maverick The Salon,Maverickthesalon@gmail.com,+18139195075,https://maverickthesalon.com/,Lakewood Ranch,FL
Hair Philosophy,hairphilosphypa@gmail.com,+16102634399,https://hairphilosophypa.com/,Folsom,PA
Grand Salons Braids of Beauty,info@grandsalonsbraids.com,+16789197878,https://grandsalonsbraids.com/,Norcross,GA
Ricci Kapricci Halsted,Riccikapricci1@gmail.com,+17734771050,http://riccikapricci.com/,Chicago,IL
AALAM The Salon - Plano North Dallas TX,frisco@aalamsalon.com,+14695353606,https://aalamsalon.com/,Plano,TX
AALAM The Salon - Plano North Dallas TX,plano@aalamsalon.com,+14695353606,https://aalamsalon.com/,Plano,TX
"Dash Hair & Company, LLC",ellis@dashhairco.com,+17706872805,https://dashhairco.com/,Loganville,GA
"Dash Hair & Company, LLC",ellistatamiatta@gmail.com,+17706872805,https://dashhairco.com/,Loganville,GA
Ariana Fernando - Beauty Artistry,Beautyartistrybyariana@gmail.com,+15056811201,https://www.arianafernandobeautyartistry.com/,Santa Rosa Beach,FL
Majestic Hair Salon,tillybell622@gmail.com,+13607871803,https://www.majesticelegancesalon.com/,Vancouver,WA
Be Here,hello@beherewithvee.com,+15102051624,https://beherewithvee.com/,Oakland,CA
Glamour Shop,glamourshop106@gmail.com,+19203242511,https://www.glamourshopwaupun.com/,Waupun,WI
Beora Salon,beorasalon@gmail.com,+19196151653,https://www.beorasalon.com/,Raleigh,NC
Tiffany Scott Salon,hello@tiffanyscottsalon.com,+19499193800,https://www.tiffanyscottsalon.com/,Corona Del Mar,CA
Lillian Michel -The Beauty Hub,info@lillianmichelco.com,+17542462840,https://www.lillianmichelco.com/,Miami,FL
Mane Duo Salon,info@maneduosalon.com,+13103109354,https://www.maneduosalon.com/,Los Angeles,CA
Flirt Salon,hello@flirtsalonsd.com,,https://www.flirtsalonsd.com/,San Diego,CA
Blow N Go Hairbar,blowngohair@gmail.com,+17029987200,https://blowngohairbar.com/,Las Vegas,NV
WFLYH,wflyh@ifuckingloveyourhair.com,+13123443683,https://ifuckingloveyourhair.com/,Chicago,IL
Noir Hair Salon By Tony Maroun,info@noirbytm.com,+17039538882,https://noirbytm.com/,McLean,VA
She's Sheik Hair Boutique,shessheik@yahoo.com,+17029070755,https://www.shessheik.com/,Las Vegas,NV
Soho Salon Denton,info@sohosalondenton.net,+19405650880,https://sohosalondenton.net/,Corinth,TX
Voula's Hairway to Heaven,voulashairwaytoheaven@gmail.com,+19083627007,https://www.voulashairwaytoheaven.com/,Blairstown,NJ
Looks Hair Design,guestservices@lookshairdesign.com,+18142310170,https://www.lookshairdesign.com/,State College,PA
Koji Toyoda Salon,info@kojihair.com,+13102891104,https://kojihair.com/,West Hollywood,CA
TrueStylist Exclusive Salon,truestylistexclusivesalon@gmail.com,+17134471234,https://www.truestylist.com/,Houston,TX
Dolce Hair Salon,you@dolcehairsalon.com,+18595430707,https://dolcehairsalon.com/,Lexington,KY
Indulge Beauty Salon LLC,daniellemason1226@gmail.com,+12607398979,https://indulge-beauty-salon.chrone.work/,Fort Wayne,IN
Hair Xpressions Salon,Angietron123@gmail.com,+17027330229,https://www.hairxpressionssalon.net/,North Las Vegas,NV
BeLaVie Hair Salon - Premier Hair Salon and Extensions,belaviehairsalon@yahoo.com,+13179921111,https://belaviehairsalon.com/,Indianapolis,IN
Exsalonce Salon,contact@exsaloncechicago.com,+17733274848,https://exsaloncechicago.com/,Chicago,IL
LUXX Beauty Bar,thegirls@luxxbeautybar.com,+17742061558,https://www.luxxbeautybar.com/,Dartmouth,MA
South Main District Salon,julienzanti@gmail.com,+4694261959,http://southmaindistrictsalon.com/,Fort Worth,TX
South Main District Salon,hairbyjadeblack@gmail.com,+4694261959,http://southmaindistrictsalon.com/,Fort Worth,TX
South Main District Salon,info@southmaindistrictsalon.com,+4694261959,http://southmaindistrictsalon.com/,Fort Worth,TX
South Main District Salon,hairbykarson@yahoo.com,+4694261959,http://southmaindistrictsalon.com/,Fort Worth,TX
HAUS Salon Northeast,hausnortheast@haussalon.com,+16128274287,https://www.haussalon.com/,Minneapolis,MN
HAUS Salon Northeast,hausnorthloop@haussalon.com,+16128274287,https://www.haussalon.com/,Minneapolis,MN
HAUS Salon Northeast,hausnicollet@haussalon.com,+16128274287,https://www.haussalon.com/,Minneapolis,MN
Melissa Creates Beauty,mlopez1501@gmail.com,+14073009515,https://www.melissacreatesbeauty.com/,Winter Garden,FL