business_name,email,phone,website,city,state
Jax Locksmith Shop,JaxlocksmithShop@gmail.com,+19046447294,https://www.jaxlocksmithshop.com/,Middleburg,FL
Buford Locksmith Pro LLC,BufordLocksmithLLC@gmail.com,+16783293182,https://bufordlocksmithllc.com/,Lawrenceville,GA
"Trade Center Security Systems, Inc. d/b/a Trade Center Locksmith & Hardware",tradecenterlock@yahoo.com,+12129621086,https://tradecenterlocksmith.com/,New York,NY
Grands Locksmith,grandslocksmith@gmail.com,+18328858880,https://grandslocksmith.com/,Houston,TX
Auto Programming Center LLC.,Autoprogrammingcenter@gmail.com,+16232323333,https://autoprogrammingcenter.com/,Phoenix,AZ
Superior Locksmith Ink,superiorlocksmith55@gmail.com,+18775004424,http://superiorlocksmithservice.com/,Sherman Oaks,CA
A1 Stanley Locksmith,info@a-1stanleylocksmith.com,+15628327909,https://a-1stanleylocksmith.com/,Bellflower,CA
Discount Locksmith Of Chattanooga,StevenJSepulveda@discountlocksmithllc.com,+17068417676,https://www.discountlocksmithchattanooga.com/,Rossville,GA
"Y & J Locksmith, Inc.",info@locksmithservicemiami.com,+13055887905,https://locksmithservicemiami.com/,Miami,FL
American Lock & Key,dispatch@americanlocknkey.com,+18187053664,https://americanlocknkey.com/,Tarzana,CA
Danny's Lock & Key,dannysgwinnettlockandkey@gmail.com,+17709066172,https://www.dannyslockandkey.com/,Buford,GA
High Security Locksmith,info@hisecuritylocksmith.com,+19548669229,https://hisecuritylocksmith.com/,Fort Lauderdale,FL
Commercial Lock & Safe,commerciallock@gmail.com,+18585666065,https://www.commerciallockandsafe.com/,San Diego,CA
Cothron's Safe & Lock,dispatch@cothrons.com,+15122463979,https://www.cothrons.com/,Austin,TX
Cothron's Safe & Lock,info@email.com,+15122463979,https://www.cothrons.com/,Austin,TX
Ammo Lock & Security,info@ammolocksmith.com,+19077642008,http://ammolocksmith.com/,Anchorage,AK
Tony's Locksmith & Safe Service,tonys@tonyslock.com,+19494925700,https://www.tonyslock.com/,San Clemente,CA
Surelockhomes LA,surelocksomesla@gmail.com,+13234552055,http://surelockhomesla.com/,Los Angeles,CA
KeyFix Locksmith & Security,keyfixlockmsith@gmail.com,+19172706615,https://keyfixlocksmithny.com/,Flushing,NY
Steckel's Lock & Key,dsteckel@twcny.rr.com,+13156994663,https://www.steckelslockandkey.com/,Brewerton,NY
Top Locksmith,toplocksmithllc@gmail.com,+17703656666,https://toplocksmithga.com/,Atlanta,GA
West Valley Lock & Key,info@westvalleylocknkey.com,+16235659065,https://westvalleylocknkey.com/,Phoenix,AZ
ASAP Lockout and Locksmith Services,asaplockoutservice@gmail.com,+14178488163,https://417locksmiths.com/,Springfield,MO
AM/PM Locksmith,ampm3140@gmail.com,+19253399999,https://ampmkey.com/,San Ramon,CA
One Up Locksmith & Key LLC,oneuplocksmith@gmail.com,+12085360957,https://oneuplocksmith.com/,Buhl,ID
911 Lock & Key Service LLC..,Lockkey911inc@yahoo.com,+13347449247,https://911lockkeyinc.com/,Auburn,AL
"City Locksmith Taylor, LLC",thecitylocksmithtaylor@gmail.com,+13138883190,https://emergencylocksmithtaylor.com/,Taylor,MI
Mr. Locks,info@mr-locks.com,+12127800144,https://mr-locks.com/,New York,NY
"Lamas Locksmith Kendall - Cerrajero en Kendall, Miami",info@locksmithlamas.com,+13058346002,https://www.locksmithlamas.com/,Miami,FL
USA Locksmith Service,Usalocksnyc@gmail.com,+12127443915,https://usalocksmithinc.com/,New York,NY
Flat Rate Locksmith,info@flatratelocksmith.org,+14805815300,https://flatratelocksmith.org/,Cave Creek,AZ
Hoffman's Bonded Locksmith,hblocks@bellsouth.net,+16624551507,https://hoffmanslocksmith.com/,Greenwood,MS
West Valley Lock & Key,info@westvalleylocknkey.com,+16235659065,https://westvalleylocknkey.com/,Peoria,AZ
Locksmith Atlanta Pro LLC,locksmithatlantaprollc@gmail.com,+17706371730,https://locksmithatlantaprollc.com/,Atlanta,GA
"Kamand locksmith,Co",alexkamand@gmail.com,+19517237333,https://kamandlocksmith.com/,Lake Elsinore,CA
Airborne Locksmith,info@airbornelocksmiths.com,+17139555554,https://airbornelocksmiths.com/,Houston,TX
Susu Locksmith,susulocksmith@gmail.com,+13475148142,https://susulocksmith.com/,Brooklyn,NY
Mile High Locksmith Castle Rock,team@denver-locksmith.net,+17202488087,https://www.denver-locksmith.net/,Castle Rock,CO
Tri State Locksmith & Security Inc.,tristatelocksmith@aol.com,+12128625555,http://tristatelocksmiths.com/,North Bergen,NJ
Johnny Phoenix Locksmith,johnnylockservices@gmail.com,+14807799144,https://www.johnny-locksmith.net/,Phoenix,AZ
Full Access Control locksmith,fullaccesscontrol2@gmail.com,+14242098270,https://www.fullaccesscontrol.com/,Beverly Hills,CA
D & M Locksmith LLC,d-mlocksmith@hotmail.com,+18125892512,https://www.d-mlocksmith.com/,Evansville,IN
Pixx by Sixx Lock & Key LLC,pixxbysixx@gmail.com,+15205856257,http://pixxbysixx.com/,Tucson,AZ
Bulldog Locksmith & Access Control,wylie@bulldoglocksmith.com,+19729729354,http://bulldoglocksmith.com/,Grand Prairie,TX
Bulldog Locksmith & Access Control,plano@bulldoglocksmith.com,+19729729354,http://bulldoglocksmith.com/,Grand Prairie,TX
Bulldog Locksmith & Access Control,irving@bulldoglocksmith.com,+19729729354,http://bulldoglocksmith.com/,Grand Prairie,TX
Bulldog Locksmith & Access Control,info@bulldoglocksmith.com,+19729729354,http://bulldoglocksmith.com/,Grand Prairie,TX
Locksmith SF - San Francisco CA,service@locksmithsf.net,+14159155650,https://locksmithsf.net/,San Francisco,CA
All County Lock & Safe Corporation,allcountylocks@verizon.net,+19147366666,http://allcountylocks.com/,Peekskill,NY
EZ Car Keyz Moorpark,ezkyz@gmail.com,+18058431590,https://ezkyz.com/,Moorpark,CA
EZ Car Keyz Moorpark,EZCARKEYZ@gmail.com,+18058431590,https://ezkyz.com/,Moorpark,CA
911 Keys LLC,911keysfl@gmail.com,+13863022211,https://911keyslocksmithpalmcoast.com/,Palm Coast,FL
Easy Tow Roadside Assistance,easytow.rs@gmail.com,+15129981910,https://easytowo.com/,Jarrell,TX
Mr. Lock & Key,MrLockFL@gmail.com,+18139405050,https://mrlockandkey.com/,Tampa,FL
317 Locksmith Inc,contact@317locksmithindianapolis.com,+13173425600,https://317locksmithindianapolis.com/,Indianapolis,IN
2 Brothers Locksmith,2BrothersLocks@gmail.com,+13138200813,https://www.2brotherslocks.com/,Sterling Heights,MI
Michael's Keys Locksmith,service@michaelskeys.com,+18175818992,https://michaelskeyslocksmith.com/,Colleyville,TX
Secure Locks | Locksmith Chicago,info@securelocks.net,+17738235111,https://securelocks.net/,Chicago,IL
Sky Locksmith,service@skylocksmith.com,+12122887773,https://www.skylocksmith.com/,New York,NY
The Locksmith TX,manager@thelocksmithtx.com,+15122906336,https://www.thelocksmithtx.com/,Austin,TX
Time4Locksmith - Lock Opening Service,time4locksmith@gmail.com,+19012832019,http://time4locksmith.com/,Bartlett,TN
Locksmith Guru LLC,info@lockguruaz.com,+16025607065,https://www.locksmithguruaz.com/,Phoenix,AZ
ZULIA LOCKSMITH DORAL,zulialocksmithdoral@gmail.com,+17865711486,https://miamilocksmithnearme.com/,Doral,FL
CT Security Locksmiths - Stamford,ctslocksmiths@gmail.com,+14756858411,https://ctslocksmiths.com/,Stamford,CT
Michael's Keys Locksmith,service@michaelskeys.com,+18175818992,https://michaelskeyslocksmith.com/,Fort Worth,TX
Key Zone Locksmith,keyzonelocksmith@gmail.com,+18184379399,https://www.keyzonelocksmith.com/,Canoga Park,CA
American Key Tech,americankeytech@gmail.com,+19254747772,https://americankeytech.com/,Tracy,CA
"Karpilow Safe & Lock, LLC",Karpilowsteve@gmail.com,+12033686517,https://karpilowautokeys.com/,Bridgeport,CT
Silver Eagle Locksmith,s.e.l.locksmith@gmail.com,+14439873051,http://silvereaglelocksmith.com/,Las Vegas,NV
Silver Eagle Locksmith,silvereaglelocksmith@gmail.com,+14439873051,http://silvereaglelocksmith.com/,Las Vegas,NV
SKH Locksmiths & Security LLC,info@skhlock.com,+12154429191,https://skhlock.com/,Hatboro,PA
Doctor Locksmith 24 hr,sela764@hotmail.com,+14104696030,https://doctorlocksmith.com/,Baltimore,MD
AZ Locksmith and Key Solutions | Auto | Residential | Commercial,azlocksmith15@gmail.com,+13108442365,https://www.azlocksmithsonline.com/,Inglewood,CA
A-1 Locksmith - Austin,info@a-1locksmith.com,+14697913499,https://www.a-1locksmith.com/,Austin,TX
Houston Safe and Lock,houstonsafeandlock@gmail.com,+17134650055,https://houstonsafeandlock.net/,Houston,TX
Houston Safe and Lock,sales@houstonsafeandlock.com,+17134650055,https://houstonsafeandlock.net/,Houston,TX
Locksmith Phoenix,info@locksmith-arizona.com,+16029031648,https://locksmith-arizona.com/,Phoenix,AZ
Bob's Lock & Key,askbob@bobslockandkey.com,+16053386096,https://bobslockandkey.com/,Sioux Falls,SD
Jiffy Locksmith,info@jiffy-locksmith.com,+14805762254,https://jiffy-locksmith.com/,Gilbert,AZ
Century Locksmith Services,centurylocksmithservices@gmail.com,+18137432953,https://centurylocksmithservices.com/,Tampa,FL
The Keyless Shop at Bullis Lock,sales@keylessshop.com,+17738207451,https://www.keylessshop.com/,Chicago,IL
Security Locksmith & Door Service,imlockedout@yahoo.com,+15734714473,https://www.securitylocksmithshop.net/,Cape Girardeau,MO
Davis Lock & Safe,contact@davislock.com,+15038489100,https://davislock.com/,Beaverton,OR
Paradise Locksmith,paradiselocksmithhi@gmail.com,+18086910006,https://www.paradiselocksmithhi.com/,Honolulu,HI
Express Auto Keys,info@rizbros.com,+18022250502,https://rizbros.com/,New Brunswick,NJ
Keys R Ben Locksmith Columbus,info@keysrbencolumbus.com,+16149068110,https://keysrbencolumbus.com/,Columbus,OH
The Key Fob And Remote Shop,thekeyfobandremoteshop@gmail.com,+18084355804,https://thekeyfobandremoteshop.com/,Honolulu,HI
MC Glass and Key,mcglassandkey@gmail.com,+15073722525,https://www.mcglassandkey.com/,Worthington,MN
Tow2Go Enterprise,twochaintowing@outlook.com,+17204425254,http://towtwogo.com/,Northglenn,CO
Timchak Safe and Lock LLC,jklockandkey@gmail.com,+14129560328,https://www.timchaksafeandlock.com/,Oakdale,PA
Gold Star Auto Locksmith,goldstaral209@gmail.com,+12095349639,http://goldstarlock.com/,Modesto,CA
Bakersfield Locksmith LLC,teamlock1101@gmail.com,+16613223371,https://bakersfield-locksmith.com/,Bakersfield,CA
Around The Clock Locksmith,info@atc-locks.com,+12052256457,https://www.atc-locks.com/,Birmingham,AL
DND Lock&Key,dc.dndlock@gmail.com,+17753427414,https://dndrenosparkslocksmith.com/,Sparks,NV
Linkâ€™s Locksmith Services,jesse@linkslocksmith.com,+19048606567,http://linkslocksmith.com/,Jacksonville,FL
Flat Rate Locksmith Peoria,info@flatratelocksmith.org,+14805815300,https://flatratelocksmith.org/,Peoria,AZ
Neighborhood Locksmith SF - Locksmith South San Francisco,info@neighborhoodlocksmithsf.com,+14158813721,https://www.neighborhoodlocksmithsf.com/,South San Francisco,CA
YH Lock & Security,yhlockandscurity@gmail.com,+17252250988,https://yhlocksmithlasvegas.com/,Las Vegas,NV
Sam's locksmith,yourlocksmithsam@gmail.com,+19542563775,https://locksmithsams.com/,Hallandale Beach,FL
Quick Pickin Locksmithin,quickpickinlocksmithin@gmail.com,+13185880789,https://www.quickpickinlocksmithin.com/,Bossier City,LA
Security Lock Systems,accounting@securitylocksystems.com,+18006476019,https://securitylocksystems.com/,Tampa,FL
Security Lock Systems,careers@securitylocksystems.com,+18006476019,https://securitylocksystems.com/,Tampa,FL
Security Lock Systems,info@securitylocksystems.com,+18006476019,https://securitylocksystems.com/,Tampa,FL
Flat Rate Mobile Locksmith,support@thelockbutler.com,+14807887612,https://www.thelockbutler.com/,Phoenix,AZ
305 Lockout,305lockout.mail@gmail.com,+13055625688,https://305lockout.com/,Miami,FL
Locksmith On Call Inc.,brooklinelocksmithoncall@gmail.com,+16176592521,http://brooklinelocksmithoncall.com/,Brookline,MA
Anthonys Roadside,anthonysroadside@gmail.com,+15027919720,http://anthonysroadside.com/,Louisville,KY
Amelia Island Locksmith,aheathw@yahoo.com,+19044680579,http://ameliaislandlocksmith.com/,Fernandina Beach,FL
10 Minute Locksmith Orlando,customerservice@10minutelocksmith.com,+18136760005,http://10minutelocksmith.com/,Orlando,FL
Eagle Locksmith,info@eaglelocksmithaz.com,+14805598080,http://eaglelocksmithaz.com/,Phoenix,AZ
"WFX Fire, Lock, Security Services",service@wfx1978.com,+18559391978,http://wfx1978.com/,Westminster,MD
"WFX Fire, Lock, Security Services",sales@wfx1978.com,+18559391978,http://wfx1978.com/,Westminster,MD
Super Locksmith,contact@superlockandkey.com,+18132854886,https://superlockandkey.com/,Tampa,FL
Pi Security Solutions,locksmith@pisecuritysolutions.com,+18882505735,http://pisecuritysolutions.com/,Seattle,WA
Giles Lock and Security Inc.,info@gileslock.com,+15302221110,https://gileslock.com/,Redding,CA
A-1 Lock & Key LLC,a1lockguys@gmail.com,+12084286367,https://a1lockguys.com/,Lewiston,ID
DoorBusters Lock & Safe,service@locksmithlasvegas-247.com,+17026056799,https://locksmithlasvegas-247.com/,Las Vegas,NV
DoorBusters Lock & Safe,doorbusterslasvegas@gmail.com,+17026056799,https://locksmithlasvegas-247.com/,Las Vegas,NV
Charles Locksmith & Hardware,info@charleslocksmith.com,+12128792740,https://charleslocksmith.com/,New York,NY
Ace Locksmith,acelocksmith023@gmail.com,+16238007720,https://ace-locksmith.net/,Phoenix,AZ
Ace Locksmith,acelocksmith374@gmail.com,+16238007720,https://ace-locksmith.net/,Phoenix,AZ
Ace Locksmith,acelocksmith351@gmail.com,+16238007720,https://ace-locksmith.net/,Phoenix,AZ
Local Locksmiths,wearelocksmithsllc@gmail.com,+17545511841,https://www.expertlocallocksmiths.com/,Hallandale Beach,FL
Roadmaster On-Site Inc ( Mobile Auto Repair),roadmasteronsite@aol.com,+17703820505,http://roadmasteron-site.com/,Cartersville,GA
Roadmaster On-Site Inc ( Mobile Auto Repair),larryevon@aol.com,+17703820505,http://roadmasteron-site.com/,Cartersville,GA
Viking Locksmiths LLC,eduart@vikinglocksmiths.com,+15862170147,http://vikinglocksmiths.com/,St Clair Shores,MI
Viking Locksmiths LLC,micheal@vikinglocksmiths.com,+15862170147,http://vikinglocksmiths.com/,St Clair Shores,MI
Viking Locksmiths LLC,erin@vikinglocksmiths.com,+15862170147,http://vikinglocksmiths.com/,St Clair Shores,MI
Secure Safe and Lock,service@securesafeandlock.com,+13214535397,http://securesafeandlock.com/,Merritt Island,FL
"The Locksmith Rescue, Inc.",info@thelocksmithrescue.com,+13057106157,http://thelocksmithrescue.com/,Miami,FL
Omega Locksmith,jose@omegalocksmith.com,+17732775625,https://www.omegalocksmith.com/,Chicago,IL
Michael's Keys Locksmith,service@michaelskeys.com,+18175818992,https://michaelskeyslocksmith.com/,Dallas,TX
C & K Lock and Key,musiccitylockandkey@gmail.com,+16153890545,https://musiccitylockandkey.com/,Greenbrier,TN
"Pro Toledo Locksmith, LLC",protoledolocksmith@gmail.com,+14197049171,https://protoledolocksmith.com/,Toledo,OH
Academy Locksmith,sales@academylocksmith.com,+18009640700,https://academylocksmith.com/,Anaheim,CA
7 Day Locksmith San Diego,service@7daylocksmith.com,+18585229722,https://7daylocksmith.com/,San Diego,CA
Top Locksmith,toplocksmithllc@gmail.com,+17703656666,https://toplocksmithga.com/,Marietta,GA
(Mobile Service Only) Rod's Roadside Service,rodsroadsideservice@gmail.com,+13342183506,https://www.rodsroadsideservice.com/,Opelika,AL
Grayson Locksmith LLC,graysonlocksmithllc@gmail.com,+17706371672,https://graysonlocksmithllc.com/,Snellville,GA
Fm 1960 Locksmith Houston,fm1960locksmith@gmail.com,+12814071823,http://fm1960locksmith.com/,Houston,TX
Pro Locksmith Solutions,info@prolocksmithsolutions.com,+19549974744,https://prolocksmithsolutions.com/,Hollywood,FL
Wesley Chapel Lock & Key,Wesleylockandkey@gmail.com,+18132960777,https://www.wesleychapellock.com/,Wesley Chapel,FL
A-1 Locksmith - East Dallas,info@a-1locksmith.com,+14697913499,https://www.a-1locksmith.com/,Dallas,TX
"Antonio""s lock and Safe",Antonio3t@msn.com,+17574689527,http://antonioslockandsafe.com/,Virginia Beach,VA
Chaffee Lok-Pro,chaffee@lokpro.net,+19138562400,https://www.chaffeelokpro.com/,Olathe,KS
Fast Local Locksmith,info@fastlocallocksmith.com,+12157150751,https://www.fastlocallocksmith.com/,Philadelphia,PA
24/7 Mobile Locksmith OH,Anytimemobilelocksmith@gmail.com,+18134880180,https://247mobilelocksmith.com/,Cleveland,OH
lakelandcarkeys.com,vic@lakelandcarkeys.com,+18634092569,http://lakelandcarkeys.com/,Lakeland,FL
Folsom Lock & Security,info@folsomlocks.com,+19169852708,https://folsomlocks.com/,Folsom,CA
Hampel's Safe & Lock Shop,contact@hampelslockshop.com,+12319465509,https://hampelslockshop.com/,Traverse City,MI
Agent Locksmith,Contact@agentlocksmith.net,+14694143159,https://agentlocksmith.net/,Lewisville,TX
Smiley Locksmith,sales@smileylocksmith.com,+19549394819,https://www.smileylocksmith.com/,Fort Lauderdale,FL
East Valley Locksmith Mesa,info@eastvalley-locksmith.com,+14807251924,https://eastvalley-locksmith.com/,Mesa,AZ
Pronto Lock & Key,info@prontolockandkey.com,+12102727070,https://prontolockandkey.com/,San Antonio,TX
"Lockthesmith UT, LLC",service@lockthesmith.com,+18017612526,https://www.lockthesmithut.com/,West Valley City,UT
LOCK MASTERS,lockmasters3@gmail.com,+15592700949,https://lockmasters3.com/,Fresno,CA
Locked In N Out,lockedinnout@gmail.com,+16175997435,https://www.lockedinnout.com/,Newton,MA
Elkins Safe Lock & Door Service,info@elkinslockanddoor.com,+19102320227,https://elkinslockanddoor.com/,Wilmington,NC
Half Price Locksmith,halfpricelocksmith@gmail.com,+17548889470,https://halfpricelocksmith.com/,Hollywood,FL
Picky-locksmith,pickylocksmith247@gmail.com,+14808769766,https://www.picky-locksmith.com/,Phoenix,AZ
KeyMex,info@keymex.com,+12103007056,https://keymex.us/,San Antonio,TX
23 1/2 HR. Locksmith Security Co.,lock23half@windstream.net,+17705871407,http://lock23halfkeys.com/,Canton,GA
Bonafide Lock & Safe,info@bonafidelock.com,+14255105321,https://www.bonafidelock.com/,Kirkland,WA
A&G Towing,info@agtowinginc.com,+19287630023,https://agtowinginc.com/,Laughlin,NV
Busy Bees Locks & Keys Locksmith San Diego,contact@busybeeslocksmith.com,+17607468060,https://www.busybeeslocksmith.com/,San Diego,CA
The Keyless Shop at Glenbrook Square Mall,sales@keylessshop.com,+12607154124,https://www.keylessshop.com/,Fort Wayne,IN
Keys Plus of Placerville,shop@keysplus.net,+15306267600,https://www.keysplus.net/,Placerville,CA
"24hr Discount Locksmith, LLC",discountlocksmith4u@gmail.com,+17049044967,https://www.thediscountlocksmith.com/,Charlotte,NC
Co Locksmiths LLC,colocksmiths@gmail.com,+12067658203,https://www.colocksmithsllc.com/,Renton,WA
CT Security Locksmiths,ctslocksmiths@gmail.com,+14756858411,https://ctslocksmiths.com/,Newington,CT
Bay Area Locksmith,bayarealocksmithteam@gmail.com,+16508255252,https://www.bayarea-locksmith.com/,San Jose,CA
Friendly Lock and Key,info@friendlylockandkey.com,+13082255304,https://www.friendlylockandkey.com/,Ogallala,NE
Columbus Metro Locksmith,info@columbusmetrolocksmiths.com,+16145054103,https://columbusmetrolocksmiths.com/,Columbus,OH
Mohave Lock and Safe LLC,locks@mohavelock.com,+19287040707,https://mohavelock.com/,Fort Mohave,AZ
Reliable Locksmith,service@reliablelocksmithmn.com,+16122602222,https://www.reliablelocksmithmn.com/,St Louis Park,MN
Key 4 all locksmith,bengeremew@gmail.com,+14049141440,https://www.key4alllocksmith.com/,Lawrenceville,GA
In & Out Mobile Locksmith & Car Key,innoutmobilelocksmith@gmail.com,+17722655244,https://locksmithnearmeverobeach.com/,Fort Pierce,FL
In A Flash Lock Service,inaflashlock0770@gmail.com,+17139444982,http://houstonlockservices.com/,Houston,TX
All Points Locksmith,allpointslocksmith@juno.com,+15095852407,https://allpointslocksmith.biz/,Kennewick,WA
24/7 locksmith,info@24locksmith.com,+17144502630,http://my24locksmith.com/,Orange,CA
Central Wisconsin Towing LLC,marlin@centralwisconsintowing.com,+17156232220,https://www.centralwisconsintowing.com/,Antigo,WI
Hawkeye Lock & Security,kevin@hawkeyelock.com,+16412364295,https://www.hawkeyelock.com/,Grinnell,IA
Access-A-Lock Locksmith Atlanta,jermar@accessalock.com,+14046371798,http://accessalock.com/,Atlanta,GA
"KEYHUB LOCKSMITH, INC.",keyhublocksmith@gmail.com,+18654044562,https://keyhublocksmithknoxville.com/,Knoxville,TN
A-1 Locksmith Security & Safes,info@a-1locksmith.com,+14697913499,https://www.a-1locksmith.com/,Carrollton,TX
Maxx Locksmith & Security Co,info@maxxlocksmith.com,+17738291943,https://maxxlocksmith.com/,Chicago,IL
CHITOWN LOCK LLC,jr@chitownlockllc.com,+17735522100,https://www.chitownlocksmith.com/,Winter Garden,FL
24 5 service locksmith,info@245service.com,+13233001283,https://www.245service.com/,Garden Grove,CA
Locksmith Johns Creek,locksmithjohnscreekllc@gmail.com,+16789400503,https://locksmithjohnscreekllc.com/,Duluth,GA
AA Locksmith Pasco LLC,pascocountylocksmith@gmail.com,+18134143521,https://aalocksmithpasco.com/,Holiday,FL
Beeline Lock & Safe,dtyardworks@gmail.com,+17783928992,https://www.actionlocalwebsites.com/wp-signup.php?new=beelinelockandsafe.actionlocalwebsites.com,Payson,AZ
JEAN'S LOCK AND KEY SERVICES,jeanslock@aol.com,+16612982600,http://jeanslockandkeyservices.com/,Santa Clarita,CA
Payless Locksmith DC,info@paylesslocksmithllc.com,+12027703117,https://locksmithpayless.com/,Washington,DC
A-1 Locksmith - Arlington,info@a-1locksmith.com,+14697913499,https://www.a-1locksmith.com/,Arlington,TX
Eli Locksmith,service@elilocksmith.com,+18454260000,https://elilocksmith.com/,Spring Valley,NY
Stellar Keys And Remotes,info@stellarkeys.com,+16123389999,https://stellarkeys.com/,Coon Rapids,MN
American Locksmith 24/7,service@americanlocksmith247.com,+16264995665,https://americanlocksmith247.com/,Azusa,CA
Your Locksmith 24/7,yourlockmsith1981@gmail.com,+17748135000,https://yourlocksmith247.com/,Worcester,MA
Action 1st Loss Prevention,info@action1st.com,+19498283008,https://www.action1st.com/,Dana Point,CA
Locksmith Local,locksmithlocal67@gmail.com,+14093636472,https://locksmithlocalbeaumont.com/,Beaumont,TX
Able Lock & Safe,info@brevardsafe.com,+13214995817,http://brevardsafe.com/,Melbourne,FL
Mr Speedy Locksmith of Rochester,edward@mr-speedy-locksmith.com,+15073226364,https://rochester-speedy-locksmith.com/,Rochester,MN
Jerusalem Auto Locksmith,jautolocksmith@gmail.com,+18454136123,https://jautolocksmith.com/,Monsey,NY
Lotus Locksmith Service,lotuslocksmith@gmail.com,+17723807178,http://lotuslocksmith.com/,Port St. Lucie,FL
East Valley Locksmith Phoenix,info@eastvalley-locksmith.com,+14807251924,https://eastvalley-locksmith.com/,Phoenix,AZ
MYA Locksmith,beacon@mya-locksmith.com,+19149357476,https://www.mya-locksmith.com/,Fishkill,NY
MYA Locksmith,info@mya-locksmith.com,+19149357476,https://www.mya-locksmith.com/,Fishkill,NY
Bamboo Locksmith Service,lockpickservice@gmail.com,+19252789701,https://bamboolocksmith.com/,Pleasant Hill,CA
Emergency Locksmiths Las Vegas,jazminr@emergencylocksmithslv.com,+17252703328,https://www.emergencylocksmithslasvegas.com/,Las Vegas,NV
WFX Fire Lock and Security,service@wfx1978.com,+18559391978,http://wfx1978.com/,Frederick,MD
WFX Fire Lock and Security,sales@wfx1978.com,+18559391978,http://wfx1978.com/,Frederick,MD
Shon the Locksmith,shonthelocksmith@gmail.com,+16025966565,https://shonthelocksmith.net/,Phoenix,AZ
Unlock Charleston,jacob@unlockchs.com,+18439906104,https://unlockchs.com/,Charleston,SC
DY LOCKSMITH,dylocksmithservices@gmail.com,+19802609191,https://www.dylocksmith.com/,Charlotte,NC
Bowles Locksmith Service Louisville,bowleslocksmith@att.net,+15029352614,https://bowleslocksmith.com/,Louisville,KY
West Coast Locksmith,info@westcoastlocksmith.com,+13235529997,https://westcoastlocksmith.com/,Woodland Hills,CA
Safety Hardware Store,safetyhardwarestore@gmail.com,+12128602219,https://safetyhardwarestore.com/,New York,NY
G's Locksmith Service of Snellville,gslocksmith21@gmail.com,+14704615329,https://gslocksmithsllc.com/,Snellville,GA
Mobile Locksmith,info@mobile-locksmith.net,+16238508511,https://mobile-locksmith.net/,Phoenix,AZ
Floyd Lock & Safe,info@floydlockandsafe.com,+19528871199,http://floydlockandsafe.com/,Bloomington,MN
Cross County Locksmith,email@crosscountylocksmith.com,+19142487100,https://crosscountylocksmith.com/,Somers,NY
Ryno Locksmith,jack@rynolocksmith.com,+15622343592,https://www.rynolocksmith.com/,Long Beach,CA
"Matrix Locksmith pro, llc",contact@matrixlocksmithpro.com,+17865427669,https://matrixlocksmithpro.com/,Miami,FL
Security Affect Locksmith,info@securityaffect.com,+13863887781,https://securityaffect.com/,Daytona Beach,FL
Your Solution Locksmith LLC,yoursolutionlocksmith@gmail.com,+17707664423,https://yoursolutionlocksmith.com/,Snellville,GA
My Locksmith Centennial,info@mylocksmithcentennial.com,+17206372505,https://mylocksmithcentennial.com/,Centennial,CO
Security Lock Service,info@securitylocksmithokc.com,+14059430111,https://securitylocksmithokc.com/,Oklahoma City,OK
Schmitz Safe & Lock LLC,schmitzlock@gmail.com,+19738395131,http://schmitzlock.weebly.com/,Pompton Plains,NJ
Y-S Locks & Keys,y.s.locksandkeys@gmail.com,+14079120111,https://yslocksandkeys.com/,Orlando,FL
Locksmith Tucson,info@locksmith-arizona.com,+16029031648,https://locksmith-arizona.com/,Tucson,AZ
The Centre Lock Shop Locksmith,info@clslocksmith.com,+15167662326,https://www.thecentrelockshop.com/,Rockville Centre,NY
Heritage Locksmith - Keys on wheels,heritagelocksmith@gmail.com,+17167045397,https://heritagelocksmith.com/,Buffalo,NY
Kwik Key Locksmith of Brevard,info@kwikkeyofbrevard.com,+13217222939,https://kwikkeyofbrevard.com/,Palm Bay,FL
Automotive and Commercial Locksmith,automot6@gmail.com,+19543479566,https://www.automotiveandcommerciallocksmith.com/,Hollywood,FL
Friendly Neighborhood Locksmith,locksmith@ourfriendlyneighborhood.com,+13036698672,https://friendlyneighborhoodlocksmith.com/,Denver,CO
Michael's Keys Locksmith,service@michaelskeys.com,+18175818992,https://michaelskeyslocksmith.com/,Keller,TX
Steve's Locksmith Service,yardleylocksmith@gmail.com,+12154932221,https://www.steveslockpa.com/,Levittown,PA
AA ALL AMERICAN LOCKSMITHS,info@allamericanlocksmiths.net,+12037521464,http://allamericanlocksmiths.net/,Newtown,CT
Poplockin Mobile Locksmith,poplockin247locksmith@gmail.com,+14049530958,https://www.poplockinmobilelocksmithservices.com/,Mableton,GA
Mikey Lock And key Cleveland,email@clevelandlockandkeymikeystore.com,+12167859977,http://mikey-lock-and-key-cleveland.ueniweb.com/,Cleveland,OH
Power Lock & Key,powerlockandkey@gmail.com,+18186428202,http://powerlockandkey.com/,North Hollywood,CA
Safe Way Lock & Key,safewaylocknkey@gmail.com,+14106562140,http://safewaylockandkey.com/,Towson,MD
The Keyless Shop,sales@keylessshop.com,+12029131471,https://www.keylessshop.com/,Bethesda,MD
Auto Locksmith Boca,autolocksmithboca@gmail.com,+15617690666,https://autolocksmithboca.com/,Boca Raton,FL
My Local Locksmith - Arlington,mylocallocksmithtx@gmail.com,+16822531593,http://mylocallocksmithtx.com/,Arlington,TX
Unlock Me & Services Inc,unlockmeandservices@gmail.com,+18137601066,https://www.unlockmeandservices.com/,Tampa,FL
First response locksmith,firstresponselocksmithllc313@gmail.com,+13134240657,https://firstresponselocksmithllc.com/,Dearborn,MI
American Lock & Key,info@americanlockandkey.com,+18042826060,https://americanlockandkey.com/,Richmond,VA
Louisville Car Unlock LLC,info@louisvillecarunlock.com,+15024089745,https://www.louisvillecarunlock.com/,Louisville,KY
Lockdoctor,lockdoctor@lockdoctorllc.com,+15026180180,https://lockdoctorllc.com/,Louisville,KY
All United Locksmith,allunitedlocks@gmail.com,+12039010011,https://allunitedlocksmithct.com/,Stamford,CT
E & L Silver Spring Locksmith & Garage Doors,enLlocksmithgaragedoor@gmail.com,+12402669112,https://locksmithsilverspringarea.com/,Silver Spring,MD
911 Lock & Key,Lockkey911inc@yahoo.com,+13347449247,https://911lockkeyinc.com/,Phenix City,AL
Pro-Tech Locksmith,info@pro-techlocksmith.com,+13143800858,https://pro-techlocksmith.com/,St. Louis,MO
ARC Locksmith Service,arcls72@yahoo.com,+16364413333,https://www.arclocksmithservice.com/,Wentzville,MO
Extra Mile Locksmith,extramilelocksmith@gmail.com,+17208788000,https://www.extramilelocksmith.com/,Highlands Ranch,CO
Sure-Fit Security,service@surefitsecurity.com,+13015854595,https://surefitsecurity.com/,Silver Spring,MD
Joe's Lock and Key,joeslocks1@gmail.com,+16615884495,https://joeslockandkey.com/,Bakersfield,CA
BlueSky Locksmith LLC,hello@skyhilocksmith.com,+18435165506,http://locksmithnearme.vegas/,Las Vegas,NV
BlueSky Locksmith LLC,support@skyhilocksmith.com,+18435165506,http://locksmithnearme.vegas/,Las Vegas,NV
Locksmith - All Valley Pop-A-Lock,allvalleypopalock@hotmail.com,+18007672562,https://allvalleypopalock.net/,McAllen,TX
Unlock Charleston,jacob@unlockchs.com,+18439906104,https://unlockchs.com/,Charleston,SC
Immediate Response Locksmith San Antonio,service@locksmithsanantonio-247.com,+12106193986,https://locksmithsanantonio-247.com/,San Antonio,TX
Treasure Coast Lock & Safe,info@adamstreasurecoastlock.com,+17727703838,https://treasurecoastlock.com/,Vero Beach,FL
Bowman's Safe & Lock,sales@bdsdoorco.com,+18442373667,https://bdsdoorco.com/,Rochester,MN
Lock and Road Locksmith,hq@lockandroadlocksmith.com,+17855569818,https://lockandroadlocksmith.com/,Manhattan,KS
Central Philadelphia Locksmith,CentralPhiladelphiaLocksmith@gmail.com,+12679693769,https://centralphiladelphialocksmith.com/,Philadelphia,PA
Turnkey Secure,info@turnkeysecure.com,+18008207762,https://www.turnkeysecure.com/,Carrollton,TX
Premier Locksmith,info@247premierlocksmith.com,+19565402299,http://247premierlocksmith.com/,Mission,TX
Jet Quick Locksmith,adonimanny4@gmail.com,+19549002316,https://jetquicklocksmith.com/,Davie,FL
Abra-Key-Dabra Locksmith Services,service@mainstreetlocksmith.com,+14078776444,https://mainstreetlocksmith.com/,Apopka,FL
101 Locksmith - Santa Monica,info@101locksmith.com,+18004803674,https://101locksmith.com/,Santa Monica,CA
Instalock Locksmith,instalocklocksmith@gmail.com,+17185579821,https://instalocklocksmith.com/,Brooklyn,NY
Lockthesmith,service@lockthesmith.com,+18017612526,https://www.lockthesmithut.com/,West Valley City,UT
Key Solutions Locksmith LLC,KeySolutions229@gmail.com,+12293499508,https://keysolutionslocksmith.net/,Albany,GA
24 BH Locksmith,info@24bhlocksmith.com,+19092472981,https://www.24bhlocksmith.com/,Rancho Cucamonga,CA
ER LOCKSMITH MIAMI,erlocksmithmiami@gmail.com,+17867330046,https://erlocksmithmiami.com/,Miami,FL
Home Advisor Locksmith,homeadvisorlocksmith@gmail.com,+17867779529,http://homeadvisorlocksmith.com/,Miami Gardens,FL
A-1 Locksmith Service of the Palm Beaches Inc,a1lockandsafe@bellsouth.net,+15619643637,https://www.a1gmtlocksmith.com/,West Palm Beach,FL
"AACE Glass, Lock & Key",aaceglasslockandkey@gmail.com,+12568943313,https://www.aaceglasslockandkey.com/,Albertville,AL
Bay Plaza Keys,info@bayplazakeys.com,+16193361311,https://bayplazakeys.com/,National City,CA
Locksmith Central,info@locksmithcentrallwfl.com,+15613366633,https://locksmithcentrallwfl.com/,Lake Worth Beach,FL
King Key Locksmith San Francisco,contact@locksmithkingkey.com,+18776668617,https://locksmithkingkey.com/,San Francisco,CA
Dan's Affordable Lock & Key (Mobile),dan@danslockandkey.com,+13865074817,https://danslockandkey.com/,Deltona,FL
ZMS Towing and Recovery,zachs@zmstowing.com,+13059892833,https://www.zmstowing.com/,Homestead,FL
A&G Towing,info@agtowinginc.com,+19287630023,https://agtowinginc.com/,Bullhead City,AZ
Atlantic Locksmiths,atlanticlocksmithsllc@gmail.com,+14012737233,https://locksmithri.com/,Johnston,RI
East Coast Chip Keys,eastcoastchipkeys@hotmail.com,+17812141145,https://eastcoastchipkeys.com/?oo-step=true&wait-before-scraping=1000&save-html=false&save-markdown=true,Belmont,MA
Triple R Locksmith,ted@rrrlocksmith.com,+18174815345,https://triplerlocksmith.com/,Grapevine,TX
Superior Locks & Car Keys,superior@fastservice.com,+14022348788,https://superiorlockandcarkeyia.com/,Omaha,NE
North Valley Locksmith,service@northvalleylocksmith.com,+16029202393,https://northvalleylocksmith.com/,Scottsdale,AZ
Top Notch Locksmith & Security,info@locksmith-nyc.com,+16467817070,https://locksmith-nyc.com/,New York,NY
We Do Locksmith,wedolocksmith@gmail.com,+18135510090,https://wedo-locksmith.com/,Orlando,FL
Roadsiderx Roadside Assistance Network,info@roadsiderx.com,+18552339701,https://roadsiderx.com/,Decatur,AL
C & S Locksmith,customercare@cslocksmith.com,+14692795891,https://cslocksmith.com/,Greenville,TX
Cobra Locksmith LLC,cobralocksmithtx@gmail.com,+15123758985,http://cobralocksmith.com/,Cedar Park,TX
SY King Locksmith,sykinglocksmith@gmail.com,+14078442063,https://sykinglocksmith.com/,Orlando,FL
Direct Auto Keys,csdirectautokeys@gmail.com,+12817609972,https://www.houtxlocksmith.com/,Houston,TX
Direct Auto Keys,directautokeys@yahoo.com,+12817609972,https://www.houtxlocksmith.com/,Houston,TX
Emergency Locksmith LLC,shomarijr1@gmail.com,+12409297281,http://emergencylocksmithdmv.com/,New Carrollton,MD
Anderson Safe & Lock Company,anderson1936@hotmail.com,+17278224691,https://andersonsafe.com/,St. Petersburg,FL
TX Metro Locksmith,info@tx-metro-locksmith.com,+12816168236,https://tx-metro-locksmith.com/,Houston,TX
Los Angeles Locksmith 24/7,info@losangeleslocksmith247.com,+13233088837,https://losangeleslocksmith247.com/,Los Angeles,CA
Aurora Colorado Locksmith 247,info@auroracoloradolocksmith247.com,+17209031202,https://auroracoloradolocksmith247.com/,Aurora,CO
A-1 Locksmith - Fort Worth,info@a-1locksmith.com,+14697913499,https://www.a-1locksmith.com/,Fort Worth,TX
All Safe Security & Lock,sales@yoursecurityexperts.com,+15618452346,https://www.yoursecurityexperts.com/,Lake Park,FL
Charlotte County Safe & Lock,Locksmith@mysafeandlock.com,+19416296214,https://mysafeandlocksmith.com/,Port Charlotte,FL
"Locksmith Plus, Inc.",contact@locksmithplusinc.com,+18772025790,https://locksmithplusinc.com/,Salem,OR
10 Minute Locksmith,customerservice@10minutelocksmith.com,+18136760005,http://10minutelocksmith.com/,Tampa,FL
LOCK MAVEN,mylocksmithmd@gmail.com,+14435288800,https://lockmaven.com/,Towson,MD
D and M locksmith,info@dandmlocksmith.com,+17147949976,https://www.dandmlocksmith.com/,Anaheim,CA
Jax Locksmith Pro,contact@jaxlocksmithpro.com,+19046371117,https://jaxlocksmithpro.com/,Jacksonville,FL
Locksmith Near Me Florida,locksmithnearmeflorida@gmail.com,+13053163121,https://yourlocksmithnearme.com/,Miami,FL
All Pro Locksmith,allprolocksmith@yahoo.com,+13379910002,https://allprolocksmith.net/,Lafayette,LA
Express Locksmith Lock n Key,info@locksmithlocknkey.com,+14192061744,http://locksmithlocknkey.com/,Toledo,OH
Flash Locksmith Inc,flashlocksmith1@gmail.com,+13523422383,https://www.flashlocksmithus.com/,Ocala,FL
Amazing Unlock Service LLC,office@amazingunlockservice.com,+13377077234,http://amazingunlockservice.com/,Lake Charles,LA
Locksmith Lion,locksmithlion@gmail.com,+12398494979,https://www.locksmithlion.com/,Naples,FL
Fixed Rate Locksmith Henderson,fixedratelocksmith@gmail.com,+17028582448,https://fixedratelocksmith.com/,Las Vegas,NV
United Locksmith,info@unitedlocksmith.com,+18889958155,https://unitedlocksmith.com/,Griffith,IN
Mobile Locksmith Express LLC,mobilelocksmithe@gmail.com,+14706880074,https://mobilelockexpress.com/,Marietta,GA
ACH Locksmith Madison,achlocksmithmadison@gmail.com,+16082249254,http://achlocksmithmadison.com/,Madison,WI
Old Glory Locksmith,cory@corybahr.com,+16026960763,https://oldglorylocksmith.com/,Glendale,AZ
Able Locksmith Is a Mobile service only,lock38013@aol.com,+14326976767,https://ablelocksmithmidlandtx.com/,Midland,TX
Lenny Locksmith Sunrise,alennylocksmith@gmail.com,+19545052091,https://locksmith-sunrise.net/,Sunrise,FL
Advanced Locksmith,gerald@advancedlocksmith.com,+19796960369,http://advancedlocksmith.com/,College Station,TX
Busy Bees Locks & Keys Locksmith,contact@busybeeslocksmith.com,+17607468060,https://www.busybeeslocksmith.com/,Escondido,CA
Jeremy Lock & Key LLC,Jeremylock012@gmail.com,+13143753224,https://jeremylockandkeys.com/,St. Louis,MO
Cp Locksmith,cplocksmithlv@gmail.com,+17026022261,https://cplocksmithlv.com/,Henderson,NV
Big Red Locksmiths,402locksmith@gmail.com,+14025540499,https://www.bigredlocksmiths.com/,Ralston,NE
Select Pro Locksmith,paul@selectprolocksmith.com,+17198881998,https://selectprolocksmith.com/,Trinidad,CO
Speed Locksmith & Security Inc,services@speedlocksmith.com,+15612002828,http://speedlocksmith.com/,Lake Worth Corridor,FL
Keyless Shop Locksmith,sales@keylessshop.com,+15125491060,https://www.keylessshop.com/,Austin,TX
Buckley's Securitysmiths,Cekuritysmith@cs.com,+18045264305,https://buckleyssecuritysmiths.com/,Colonial Heights,VA
Yakima Lock & Safe,yakimalockandsafe@yahoo.com,+15092481124,http://yakimalockandsafe.com/,Yakima,WA
Caraballo Liberty Locksmith Inc.,caraballoliberty@hotmail.com,+13056439961,https://caraballolibertylocksmith.com/,Miami,FL
Reliable Locksmith,service@reliablelocksmithmn.com,+16122602222,https://www.reliablelocksmithmn.com/,Bloomington,MN
Unique Locksmith,uniquelocksmith247@gmail.com,+19545523038,https://www.uniquelocksmith247.com/?wait-before-scraping=1000&save-markdown=true&save-html=false&oo-step=true,Deerfield Beach,FL
DML Locksmith Services - Frisco,dml247services@gmail.com,+12144911655,https://dmllocksmith.com/,Frisco,TX
Get Pro Locksmith,info@getprolocksmith.com,+18777779681,https://www.getprolocksmith.com/,Tarzana,CA
River Region Locksmith and Security,info@riverregionlocksmith.com,+13342459492,https://riverregionlocksmith.com/,Prattville,AL
Santa Monica's premier locksmith,info@lockguardlocksmiths.com,+19546421234,https://lockguardlocksmiths.com/,Santa Monica,CA
Affordable Locksmith,info@a1affordablelocksmith.com,+16028306240,https://a1affordablelocksmith.com/,Scottsdale,AZ
"Dade Lock & Key, Inc",support@dadelock.com,+13056663446,https://dadelock.com/,Miami,FL
Eli's Lock and Key,elislockandkeygroup@gmail.com,+15016210625,https://elislockandkeyar.com/,Little Rock,AR
Key Bay Locksmith,keybaylocksmith@yahoo.com,+15109988813,http://keybaylocksmiths.com/,San Jose,CA
Discount Locksmith,discountlocksmithlvnv@gmail.com,+17025084011,https://discountlocksmithlasvegas.com/,Las Vegas,NV
Triangle Garage Doors LLC,trianglegaragedoorsllc@gmail.com,+19195854705,https://trianglegaragedoorsllc.com/,Raleigh,NC
Auto Locksmith Philadelphia,info@autolocksmithphiladelphia.com,+12677779778,https://www.autolocksmithphiladelphia.com/,Philadelphia,PA
Ashland Lock & Key,ashlandlockandkey@gmail.com,+17156822934,http://ashlandlockandkey.com/,Ashland,WI
Royal Locksmith New Orleans,info@royallocksmithnola.com,+15046084387,http://royallocksmithnola.com/,New Orleans,LA
Alpharetta Pro Locksmith LLC,alpharettaprolocksmith@gmail.com,+17706912489,https://alpharettaprolocksmith.com/,Alpharetta,GA
Rhinox Locksmith Las Vegas,lasvegas@rhinoxlocksmith.com,+17023560352,https://rhinoxlocksmith.com/,Las Vegas,NV
The Lock Pro,email@thelockpro.com,+18069990801,https://thelockpro.com/,Lubbock,TX
Seattle Locksmith Security,slsgwa@gmail.com,+12068232288,https://seattlelocksmithsecurity.com/,Seattle,WA
Mobile Lock & Key Services,mlkservices247@gmail.com,+16174221200,https://mlkservices.co/,Northborough,MA
Brother Locksmith,pasha181@yahoo.com,+12705351113,https://brolocks.com/,Bowling Green,KY
Emergency Locksmith Services Joplin,sgflocksmith@gmail.com,+14177886235,https://emergencylocksmithservicesjoplin.com/,Joplin,MO
Zach's Lock & Key Services Inc,zachslockmith@gmail.com,+17048040851,https://zachslocksmith.org/,Charlotte,NC
Zach's Lock & Key Services Inc,contact@zachslocksmith.org,+17048040851,https://zachslocksmith.org/,Charlotte,NC
3DE Towing & Recovery,3detowing@gmail.com,+14235459812,https://3deservices.com/,Madisonville,TN
Jenkins Security Services Inc,renae@jenkinssecurity.com,+15408868616,https://www.jenkinssecurity.com/,Staunton,VA
EKeys4cars,info@ekeys4cars.com,+19786553135,https://ekeys4cars.com/,North Andover,MA
Locksmith car key . Las Vegas,Hightlocks@gmail.com,+17022507638,http://thehightechlocksmith.com/,Las Vegas,NV
Middle GA Locksmith,middlegalocksmiths@gmail.com,+14788453636,http://middlegalocksmiths.com/,Columbus,GA
Swift Locksmith Service LLC,swiftlocksmith79@gmail.com,+19195031727,https://swiftlocksmithinc.com/,Raleigh,NC
East Valley Locksmith,info@eastvalley-locksmith.com,+14807251924,https://eastvalley-locksmith.com/,Chandler,AZ
OMG Locksmith,omglocksmith@gmail.com,+12408835653,https://www.omglocksmithrockvillemd.com/,Rockville,MD
Action Lock Doc,service@actionlockdoc.com,+19726904431,https://www.actionlockdoc.com/,Richardson,TX
Lockman,services@locallockman.com,+12158585626,https://www.locallockman.com/,Philadelphia,PA
Golden Key Locksmith,info@nygkey.com,+12125800066,https://nygkey.com/,New York,NY
Ez Car Keyz Ventura,ezkyz@gmail.com,+18058431590,https://ezkyz.com/,Ventura,CA
Ez Car Keyz Ventura,EZCARKEYZ@gmail.com,+18058431590,https://ezkyz.com/,Ventura,CA
Smart Locksmith,info@smartlocksmithatlanta.com,+14049363323,https://www.smartlocksmithatlanta.com/,Alpharetta,GA
"B & P Locksmith, Inc.",service@bplocksmith.com,+14126785625,https://bplocksmith.com/,Pittsburgh,PA
Marshall's Locksmith Service Inc,sales@marshallslocks.com,+19192318017,https://marshallslocks.com/,Raleigh,NC
The Local Locksmith Company,jason@mynewlocks.com,+17349256647,https://mynewlocks.com/,Trenton,MI
Schock's Safe and Lock Service,slock@srt.com,+17018380624,https://schockslocks.com/,Minot,ND
"Top Security Locksmiths, Inc.",sales@topsecuritylocksmiths.com,+17328991414,https://topsecuritylocksmiths.com/,Point Pleasant,NJ
We Do Locksmith,wedolocksmith@gmail.com,+18135510090,https://wedo-locksmith.com/,Jacksonville,FL
Instalock Locksmith,instalocklocksmith@gmail.com,+17185579821,https://instalocklocksmith.com/,Brooklyn,NY
MD Locksmith 4 You,info@mdlocksmith4you.com,+13014941234,https://mdlocksmith4you.com/,Hyattsville,MD
Quickly Locksmith Miami,quicklylock@gmail.com,+13059849922,https://www.quicklymiamilocksmith.com/,Miami,FL
Keyhole Lock and Safe,service@keyholelockandsafe.com,+18067947966,https://keyholelockandsafe.com/,Amarillo,TX
All In One Locksmith Inc.,allinonelocksmiths@gmail.com,+16179977976,https://allinone-locksmith.com/,Chestnut Hill,MA
Beacon Locksmith,locksmithnow@hotmail.com,+12538519620,https://beaconlocksmith.net/,Gig Harbor,WA
Advanced Locksmith,advanced_locksmith@outlook.com,+12143906242,https://advancedlocksmithtx.com/,Richardson,TX
Mike The Locksmith 24/7 Atlanta,mikethelocksmith247@gmail.com,+14705401531,https://locksmith247.online/,Atlanta,GA
SaveLocksmith,info@savelocksmith.com,+18444420200,https://savelocksmith.com/,Encino,CA
Rescue Locks and Keys,rescuelocksandkeys@gmail.com,+19016048437,https://rescuelocksandkeys.net/,Olive Branch,MS
Central Texas Locksmith-Mobile service,centraltexaslocksmith@gmail.com,+15122020853,https://centraltexaslocksmith.com/,Austin,TX
S.T Locksmith,s.t.locksmithinc@gmail.com,+18189135097,https://www.stlocksmithinc.com/,Woodland Hills,CA
New York Locksmith Solutions,NyLocksmithsolutions@gmail.com,+13478292364,https://nylocksmithsolutions.com/,Cedarhurst,NY
Asecure Locksmith LLC,asecurelocksmithllc@gmail.com,+14435680515,https://asecurelocksmithllc.com/,Halethorpe,MD
Alvarez Professional Locksmiths and Camera Security Systems Inc.,ALPROLOCKS@outlook.com,+18132941470,https://lockpro1.com/,Valrico,FL
Discount Locksmith,daniel@discountlocksmithal.com,+12513389202,https://discountlocksmithal.com/,Mobile,AL
Jackson Locksmith OKC,jacksonlocksmithok@gmail.com,+15809177893,https://jacksonlocksmithokc.com/,Edmond,OK
NELA Locksmith,info@nelalocksmith.com,+13234725625,https://nelalocksmith.com/,Los Angeles,CA
SGF Locksmith Services of Bolivar,sgflocksmith@gmail.com,+14179298288,https://bolivaremergencylocksmith.com/,Bolivar,MO
Master Locksmith Bloomington,masterlocksmithbloomington@gmail.com,+18127784913,https://masterlocksmithbloomington.com/,Bloomington,IN
Hoosier Locksmith,info@hoosierlocksmith.com,+12195257500,https://hoosierlocksmith.com/,Crown Point,IN
Kenville Locksmith & Security,kenvillelocksmith@gmail.com,+18314233252,https://www.kenvillelocksmithsantacruz.com/,Santa Cruz,CA
"B & M Utica Ave Locksmith, Inc.",lockman25@aol.com,+17184692303,https://bmlocksmith.net/,Brooklyn,NY
Driscoll's Lock and Key,driscollslockandkey@gmail.com,+18457359111,https://driscolllockandkey.com/,Bardonia,NY
Astoria Locksmith and Door Inc.,rk@alocksmithandkey.com,+17184409204,https://www.alocksmithandkey.com/,Astoria,NY
Access Lock and Key,akeyservice1@gmail.com,+16153000478,https://access-locks.com/,Brentwood,TN
A-1 Locksmith - Park Cities,info@a-1locksmith.com,+14697913499,https://www.a-1locksmith.com/,Dallas,TX
Plaza Lock and Key,service@plazalock.com,+18188921234,https://www.plazalock.com/,Van Nuys,CA
Locksmith Blue Santa M,LAlocksmith24@gmail.com,+13103625771,https://locksmithbluesantam.com/,Santa Monica,CA
Locksmith Blue Santa M,info@locksmithbluesantam.com,+13103625771,https://locksmithbluesantam.com/,Santa Monica,CA
Super Locksmith Saint Petersburg,contact@superlockandkey.com,+18132854886,https://superlockandkey.com/,St. Petersburg,FL
"K1 Locks, LLC",kodi@k1locks.com,+15096804477,https://k1locks.com/,Colville,WA
Legacy Safe & Lock Towing,legacysafe@yahoo.com,+13603558002,https://www.legacysafelock.com/,Glenoma,WA
Mega Locksmith & Security,contact@bestchicagolocksmiths.com,+18885396342,https://bestchicagolocksmiths.com/,Chicago,IL
SOCAL LOCKSMITH La Jolla,info@socallocksmithlajolla.com,+18003971803,https://socallocksmithlajolla.com/,La Jolla,CA
Best Locksmith - Dallas,bestlocksmithtx@gmail.com,+12146009161,https://www.bestlocksmithtx.com/,Dallas,TX
J&M Locksmith Atlanta,jmrlocksmith@gmail.com,+14048243777,https://jm-locksmith.com/,Atlanta,GA
Super Locksmith 24/7,info@superlocksmith247.co,+16787613556,https://superlocksmith247.co/,Norcross,GA
The Keyless Shop Locksmith,sales@keylessshop.com,+12404204929,https://www.keylessshop.com/,Hagerstown,MD
Lynn Johnson Lock & Key Service,service@lynnjohnsonlock.com,+17012983195,https://www.lynnjohnsonlock.com/,Fargo,ND
Your Local Locksmith,yourlocksmith24@gmail.com,+15086516525,https://yourlocksmith.co/,Shrewsbury,MA
A1 Super Locksmith Services,info@a1locksmithrockvillemd.com,+18002148901,https://locksmithrockvillemd.com/,Rockville,MD
A & A LOCK SERVICE,aalockservice@gmail.com,+19318011910,https://www.clarksvilletnlocksmith.com/,Clarksville,TN
KW Locksmith Shop & Mobile Locksmith Services,keyworldusa@gmail.com,+19549987678,https://www.kwlocksmithshop.com/,Miramar,FL
Freeman's Lock & Alarm,secure@freemanslock.com,+14799687775,http://freemanslock.com/,Russellville,AR
Freeman's Lock & Alarm,admin@freemanslock.com,+14799687775,http://freemanslock.com/,Russellville,AR
Keyway Lock Service,service@keywaylock.com,+17037397777,http://keywaylock.com/,Alexandria,VA
Keyway Lock & Security Company,keywaysecurity@gmail.com,+18008365397,https://keywaychicago.com/,Villa Park,IL
Macmanuel Lock & Key Services,manuelkeyservices@gmail.com,+14242974396,https://macmanuellockandkey.com/,Hawthorne,CA
Teamwork Locksmith Inc In Seguin Automotive Commercial Residential,Teamworklocksmith1@gmail.com,+18309658555,https://www.teamwork-locksmithseguin.com/,Seguin,TX
Racine's Locksmithing & Security,info@alarm.com,+18667252765,https://alarm.com/,Pueblo,CO
Racine's Locksmithing & Security,protectmybiz@alarm.com,+18667252765,https://alarm.com/,Pueblo,CO
Sound Lock & Key,fishingit800@gmail.com,+12067854499,https://www.soundlockandkey.com/,Seattle,WA
SL Security Pros (Suffolk Lock & Security),sales@slsecuritypros.com,+15168050828,https://slsecuritypros.com/,Lindenhurst,NY
"Slim Jim's Locksmiths, Inc.",Service@slimjimslock.com,+19256861050,https://www.slimjimslock.com/,Concord,CA
Dynamic Locksmith,dynamiclocksmith2020@gmail.com,+12102908184,https://dynamiclocksmith.com/,San Antonio,TX
The Keyless Shop,sales@keylessshop.com,+15177211488,https://www.keylessshop.com/,Lansing,MI
Locksmith Outlet,locksmithoutlet22192@gmail.com,+18729990620,http://locksmithoutlet.us/,Woodbridge,VA
Locksmith Time,locksmithtimepgh@gmail.com,+14124001785,http://locksmithtime.com/,Pittsburgh,PA
Locks and Unlocks Sun Prairie,lorelei@locksandunlocks.com,+16088774357,https://www.locksandunlocks.com/,Marshall,WI
Locks and Unlocks Sun Prairie,jake@locksandunlocks.com,+16088774357,https://www.locksandunlocks.com/,Marshall,WI
Texas Premier Locksmith,service@txpremierlocksmith.com,+15128935811,https://www.txpremierlocksmith.com/,Dallas,TX
Bolt Locksmith Williamsburg,Boltlocksmith161@gmail.com,+19292944250,https://boltlocksmithny.com/,Brooklyn,NY
Remotes Plus Locksmith,remotesplustx@gmail.com,+19797030608,https://remotes-plus.com/,Bryan,TX
HATTIESBURG TOWING,hattiesburgtowing18@gmail.com,+16014678753,https://hattiesburg-towing.com/,Hattiesburg,MS
Harvey's Lock & Door Service Inc,dan@harveyslocks.com,+16106221800,https://harveyslocks.com/,Milmont Park,PA
Jensen Locksmithing,jensenlocksmithing@gmail.com,+14353190361,https://jensenlocksmithing.com/,La Verkin,UT
Southwest Car Unlock Locksmith,info@southwestcarunlock.com,+12396000270,https://southwestcarunlock.com/,Lehigh Acres,FL
CHITOWN LOCK LLC,jr@chitownlockllc.com,+17735522100,https://www.chitownlocksmith.com/,Chicago,IL
Quickly Locksmith Miami,quicklylock@gmail.com,+13059849922,https://www.quicklymiamilocksmith.com/,Miami,FL
Peifer Security Solutions,sales@peiferlock.com,+19013636396,https://peiferlock.com/,Memphis,TN
Smith's Lock Shop,eric@smithslockshop.com,+18059627349,https://www.smithslockshop.com/,Solvang,CA
A-1 Capital Mobile Lock & Key II,info@a-1lockandkey.com,+18436699881,https://www.a-1lockandkey.com/,Florence,SC
Central Coast Lock Doc,centralcoastlockdoc@gmail.com,+18054604098,https://www.centralcoastlockdoc.com/,Atascadero,CA
Re-Entry Locksmith Beacon NY Locksmith Fishkill Locksmith Cold Spring Car Lockout 24/7,locksmith@re-entrylockandsafe.com,+18454530414,https://re-entrylockandsafe.com/,Beacon,NY
Father & Son Locksmith,mymail@mailservice.com,+16104895755,https://www.fatherandsonlocksmith.com/,Collegeville,PA
Wynn's Furniture & Flooring,taylorwynn14@gmail.com,+12083907527,https://www.wynnsfurniture.com/,Ashton,ID
EZ Car Keyz Oxnard,ezkyz@gmail.com,+18058431590,https://ezkyz.com/,Oxnard,CA
EZ Car Keyz Oxnard,EZCARKEYZ@gmail.com,+18058431590,https://ezkyz.com/,Oxnard,CA
West Valley Locksmith,info@westvalley-locksmith.org,+16232584648,https://westvalley-locksmith.org/,Avondale,AZ
Sunny Locksmith,sunnylocksmith1@gmail.com,+15614521482,https://www.locksmithsunny.com/,Boca Raton,FL
Sarasota Locksmith Pros,sarasotalocksmithpros@gmail.com,+19414997555,https://sarasotalocksmithpros.com/,Sarasota,FL
Danny's Dacula Lock & Key,Dannysdaculalockandkey@gmail.com,+17709064443,https://www.dannysdaculalockandkey.com/,Dacula,GA
Lightning Mobile Locksmith,info@lightning-mobile-locksmith.com,+14808054035,https://lightning-mobile-locksmith.com/,Phoenix,AZ
Glorious Locksmith,support@gloriouslocksmith.com,+17132316112,https://www.gloriouslocksmith.com/,Houston,TX
Affordable Auto Rescue LLC Roadside Assistance,bassman1441@yahoo.com,+12027464563,https://affordableautorescueservice.com/,Silver Spring,MD
Adams Locksmiths,AdamsLocksmithsfl@gmail.com,+17724601611,https://adamslocksmiths.com/,Port St. Lucie,FL
Anytime Unlock,anytimeunlock@yahoo.com,+18067895691,https://anytimeunlock.com/,Lubbock,TX
Cothron's Safe & Lock,dispatch@cothrons.com,+15122463979,https://www.cothrons.com/,Round Rock,TX
Cothron's Safe & Lock,info@email.com,+15122463979,https://www.cothrons.com/,Round Rock,TX
Atlanta A&B Locksmith - 24hr Car Keys & Lockouts,ablocksmiths3064@gmail.com,+17702801455,https://ablocksmithatlanta.com/,Atlanta,GA
NuBell Locksmith,NuBellLocksmith@gmail.com,+12134007773,https://www.nubelllocksmith.com/,Los Angeles,CA
Infinity Lock & Key,support@infinitylockandkey.com,+13155105880,https://24-7-syracuse-locksmith.com/,North Syracuse,NY
FCL Security,info@fclsecurity.com,+12604825292,https://fclsecurity.com/,Fort Wayne,IN
My Locksmith Miami,support@mylocksmithmiami.com,+17867778214,https://mylocksmithmiami.com/,Miami,FL
Keep Calm Locksmith,keepcalmlocksmithtexas@gmail.com,+19729002449,https://www.keepcalmlocksmith.com/,Plano,TX
813 Keys of Tampa,support@813keys.com,+18138160888,https://813keys.com/,Tampa,FL
Jefferson Hardware & More,atlanticautolocksmith@gmail.com,+18886888504,https://prolocksmithbrooklyn.com/,Brooklyn,NY
Dan Locksmith,info@rizbros.com,+18022250502,https://rizbros.com/,Killeen,TX
Pro Locksmith Henderson,info@prolocksmithhenderson.com,+17029308032,https://prolocksmithhenderson.com/,Henderson,NV
Lightning Lock Service,lightninglockservice@gmail.com,+18136436088,https://lightninglockservice.com/,Lithia,FL
North Florida Emergency Locksmith Services,duvallocksmith@gmail.com,+19048672093,https://www.northfloridaemergencylocksmithservices.com/,Jacksonville,FL
Acoma Lock & Security,Safer@acomalock.com,+13036884104,http://acomalock.com/,Castle Rock,CO
Griffin Locksmith,griffinlocks@gmail.com,+19798222705,https://griffinlocksmith.com/,Bryan,TX
469 Authorized Locksmith - Dallas,info@469authorizedlocksmith.com,+14698208669,https://469autorizedlocksmith.com/,Dallas,TX
Everest Locksmith Services,info@everestlocksmithfl.com,+17723804662,https://www.everestlocksmithfl.com/,Port St. Lucie,FL
Heart of America Locksmith,randy@hoalocksmith.com,+19132135203,https://hoalocksmith.com/,Lenexa,KS
Locksmith Lilburn LLC,locksmithlilburnllc@gmail.com,+17708383646,https://locksmithlilburnllc.com/,Lilburn,GA
Master Key Replacement,info@masterkeyreplacement.com,+17472797268,http://masterkeyreplacement.com/,Valley Village,CA
Car Keys By MLK,mohawklock@yahoo.com,+19786519700,https://carkeysbymlk08.godaddysites.com/,Fitchburg,MA
EZ Car Keyz Camarillo,ezkyz@gmail.com,+18058431590,https://ezkyz.com/,Camarillo,CA
EZ Car Keyz Camarillo,EZCARKEYZ@gmail.com,+18058431590,https://ezkyz.com/,Camarillo,CA
Charleston Locksmith,info@charlestonlocksmithpro.com,+18433805647,https://charlestonlocksmithpro.com/,Charleston,SC
Locksmith Express,service@locksmithexpresssc.com,+18437554411,https://locksmithexpresssc.com/,North Charleston,SC
SGF Locksmith Services of Ozark,sgflocksmith@gmail.com,+14177191113,https://emergencylocksmithservicesozark.com/,Ozark,MO
Pro-Tech Locksmith,info@pro-techlocksmith.com,+13143800858,https://pro-techlocksmith.com/,St Charles,MO
Diamondback Lock and Key of Mesa,service@diamondbacklockandkey.com,+14808874267,https://diamondbacklockandkey.com/,Mesa,AZ
PRO-LOCK & SAFE Phoenix Mobile Locksmith Lockout & Key Service,info@phoenixlocksmithservice.org,+16024829855,https://phoenixlocksmithservice.org/,Phoenix,AZ
Naples Locksmith 24/7,napleslocksmith247@gmail.com,+12392273487,https://www.napleslocksmith247.com/,Naples,FL
Allstar Locksmith and Hardware,allstarlocksmith@verizon.net,+17186220100,http://allstarlocksmith.org/,Brooklyn,NY
All United Locksmith,allunitedlocks@gmail.com,+12039010011,https://allunitedlocksmithct.com/,Milford,CT
"Ace Locksmith & Security Systems, Inc.",info@acelocksmith.com,+17817624874,https://acelocksmith.com/,Norwood,MA
Keymasters,Team@masskeyless.com,+17819991869,https://www.masskeyless.com/,Peabody,MA
"Minkel Safe & Lock Co.,Inc.",keyymann905@aol.com,+17184422626,https://minkelsafeandlock.com/,Staten Island,NY
Lock Boss Locksmith LLC,LockBoss23@gmail.com,+12145465680,https://lockbossllc.com/,Dallas,TX
DML Locksmith Services - Plano,dml247services@gmail.com,+12144911655,https://dmllocksmith.com/,Plano,TX
Lan Locksmith Service Louisville,contact@lanlocksmithky.com,+15027099590,https://lanlocksmithky.com/,Louisville,KY
"West End Safe & Lock, Inc.",westendsafe@yahoo.com,+14076549999,https://westendsafeandlock.com/,Winter Garden,FL
DML Locksmith Services - Dallas,dml247services@gmail.com,+12144911655,https://dmllocksmith.com/,Dallas,TX
Luzerne Auto Locksmith,luzerneautolocksmith@gmail.com,+15708170040,https://www.luzerneautolocksmith.com/,Wilkes-Barre,PA
Shaw's Lock Service,info@shawslock.com,+12013870021,https://www.shawslocknj.com/,Bergenfield,NJ
Bonafide Lock & Safe,info@bonafidelock.com,+14255105321,https://www.bonafidelock.com/,Issaquah,WA
Limu Express Locksmith Orlando,limuexpress@gmail.com,+14073198304,https://limuexpresslocksmith.com/,Orlando,FL
MJ Lock & Key,support@mjlockandkey.com,+16157587884,http://mjlockandkey.com/,Mt. Juliet,TN
Fitch Locksmith,keys@fitchlocksmith.com,+14406836258,http://fitchlocksmith.com/,Elyria,OH
D&S Locksmith,dslocksmith10@gmail.com,+14706179200,http://dandslocksmith.com/,Norcross,GA
Rons Bicycle and Locksmith Shop,cody@ronsbikeshop.com,+16059967005,https://www.ronsbikeshop.com/,Mitchell,SD
Go Pro Locksmith,goprolocksmithnow@gmail.com,+16504885586,https://www.goprolocksmithnow.com/,Palo Alto,CA
Locksmith General LLC,Locksmithgeneral503@gmail.com,+15033446224,http://locksmithgeneralllc.com/,Portland,OR
Bulldog Lock and Safe,bulldoglockandsafe@gmail.com,+18147242255,https://bulldoglockandsafe.com/,Meadville,PA
North Country locksmith,507-993-9389/Michael@northcountry-locksmith.com,+15079939389,http://northcountry-locksmith.com/,Rochester,MN
West Valley Lock & Key LLC,info@westvalleylocknkey.com,+16235659065,https://westvalleylocknkey.com/,Glendale,AZ
ATHENA LOCKSMITH BRADENTON,info@athenalocksmithservices.com,+19412089997,https://athenalocksmithservices.com/,Bradenton,FL
Billings Locksmith,shellybillingslocksmith@gmail.com,+14066474337,https://billingslocksmithservice.com/,Billings,MT
Empire Lock & Safe,jwolbert@empirelockandsafe.com,+16156728888,https://www.empirelockandsafe.com/,White House,TN
Uc Local Locksmith,uclocallocksmithinc@gmail.com,+13236212451,https://www.uclocallocksmithinc.com/,Van Nuys,CA
Cambridge Locksmith 247,info@locksmithcambridgema.com,+18573340661,https://locksmithcambridgema.com/,Cambridge,MA
Pocono Locksmith,chris@poconolocksmith.com,+15705344614,http://poconolocksmith.com/,Stroudsburg,PA
Dan Locksmith,info@rizbros.com,+18022250502,https://rizbros.com/,New Brunswick,NJ