business_name,email,phone,website,city,state
"Blue Skies Psychological Services, P.C.",info@blueskiespsychological.com,+13474645550,https://blueskiespsychological.com/,Staten Island,NY
Sabin Behavioral Health,office@wardtoday.com,+16152694990,https://sabintn.com/,Lebanon,TN
Sabin Behavioral Health,office@wardtoday.com,+16152694990,https://sabintn.com/,Smyrna,TN
"Rawles & Associates, PLC",David@rawlesassoc.com,+17574932912,https://rawlespsych.com/,Chesapeake,VA
Hartford Counseling,referrals@lifespanpsychologicalservices.com,+12627657977,https://www.lifespanpsychologicalservices.com/,Hartford,WI
Fox River Counseling with Lifespan Psychological Services,referrals@lifespanpsychologicalservices.com,+12627657977,https://www.lifespanpsychologicalservices.com/,Waukesha,WI
LifeSpan Psychological Services & The Matthew Project,referrals@lifespanpsychologicalservices.com,+12627657977,https://www.lifespanpsychologicalservices.com/,Milwaukee,WI
Sterling Behavioral Health Services,intakes@sbhsva.com,+17038589841,https://www.sbhsva.com/,Ashburn,VA
Sterling Behavioral Health Services,frontdesk@sbhsva.com,+17038589841,https://www.sbhsva.com/,Ashburn,VA
Sterling Behavioral Health Services,medications@sbhsva.com,+17038589841,https://www.sbhsva.com/,Ashburn,VA
Sterling Behavioral Health Services,billing@sbhsva.com,+17038589841,https://www.sbhsva.com/,Ashburn,VA
Course Counseling,admin@coursecounseling.life,+18019013330,https://www.coursecounseling.life/,Spanish Fork,UT
Handel Behavioral Health Therapy & Psychiatry Natick,clientcare@hbhtherapy.com,+16172096929,https://hbhtherapy.com/,Natick,MA
Handel Behavioral Health Therapy & Psychiatry Natick,lizhandel@hbhtherapy.com,+16172096929,https://hbhtherapy.com/,Natick,MA
Handel Behavioral Health Therapy & Psychiatry Franklin,clientcare@hbhtherapy.com,+16172096929,https://hbhtherapy.com/,Franklin,MA
Handel Behavioral Health Therapy & Psychiatry Franklin,lizhandel@hbhtherapy.com,+16172096929,https://hbhtherapy.com/,Franklin,MA
Handel Behavioral Health Therapy & Psychiatry Amherst,clientcare@hbhtherapy.com,+16172096929,https://hbhtherapy.com/,Amherst,MA
Handel Behavioral Health Therapy & Psychiatry Amherst,lizhandel@hbhtherapy.com,+16172096929,https://hbhtherapy.com/,Amherst,MA
Mukwonago Counseling of LifeSpan Psychological Services,referrals@lifespanpsychologicalservices.com,+12627657977,https://www.lifespanpsychologicalservices.com/,Mukwonago,WI
Falls Counseling of LifeSpan Psychological Services,referrals@lifespanpsychologicalservices.com,+12627657977,https://www.lifespanpsychologicalservices.com/,Germantown,WI
Handel Behavioral Health Therapy & Psychiatry West Springfield,clientcare@hbhtherapy.com,+16172096929,https://hbhtherapy.com/,West Springfield,MA
Handel Behavioral Health Therapy & Psychiatry West Springfield,lizhandel@hbhtherapy.com,+16172096929,https://hbhtherapy.com/,West Springfield,MA
Blossom Valley Behavioral Health,support@blossomvalleybh.com,+15092535881,https://blossomvalleybh.com/,Wenatchee,WA
West Bend Counseling,referrals@lifespanpsychologicalservices.com,+12627657977,https://www.lifespanpsychologicalservices.com/,West Bend,WI
Second Chance Behavioral Health,csaundersscbh@gmail.com,+12525149888,https://secondchancebehaviorhealth.com/,New Bern,NC
Rockwell Behavioral Health,lhaynes@rockwellbehavioralhealth.com,+17737561733,https://www.rockwellbehavioralhealth.com/,Chicago,IL
Rockwell Behavioral Health,ealderson@rockwellbehavioralhealth.com,+17737561733,https://www.rockwellbehavioralhealth.com/,Chicago,IL
Rockwell Behavioral Health,asantiago@rockwellbehavioralhealth.com,+17737561733,https://www.rockwellbehavioralhealth.com/,Chicago,IL
Rockwell Behavioral Health,jday@rockwellbehavioralhealth.com,+17737561733,https://www.rockwellbehavioralhealth.com/,Chicago,IL
Rockwell Behavioral Health,vfombelle@rockwellbehavioralhealth.com,+17737561733,https://www.rockwellbehavioralhealth.com/,Chicago,IL
Rockwell Behavioral Health,tchatman@rockwellbehavioralhealth.com,+17737561733,https://www.rockwellbehavioralhealth.com/,Chicago,IL
Rockwell Behavioral Health,mepkins@rockwellbehavioralhealth.com,+17737561733,https://www.rockwellbehavioralhealth.com/,Chicago,IL
Rockwell Behavioral Health,bmitchell@rockwellbehavioralhealth.com,+17737561733,https://www.rockwellbehavioralhealth.com/,Chicago,IL
Handel Behavioral Health Therapy & Psychiatry Wilbraham,clientcare@hbhtherapy.com,+16172096929,https://hbhtherapy.com/,Wilbraham,MA
Handel Behavioral Health Therapy & Psychiatry Wilbraham,lizhandel@hbhtherapy.com,+16172096929,https://hbhtherapy.com/,Wilbraham,MA
LifeSpan Psychological Services,referrals@lifespanpsychologicalservices.com,+12627657977,https://www.lifespanpsychologicalservices.com/,Brookfield,WI
Universal Community Services Inc,office@universalcommunityservices.com,+17867033924,http://universalcommunityservices.com/,Hialeah,FL
Hard Knox Behavioral Health,info@hardknoxbh.com,+17407480400,https://hardknoxbh.com/,Danville,OH
Professional Psychological Services,info@professionalpsych.com,+17038792483,https://www.professionalpsych.com/,Reston,VA
Pamlico River Behavioral Health,info@prbhealth.net,+12529401611,https://www.prbhealth.net/,Washington,NC
Serenity Behavioral Health LLC,rfulton@serenitybehaviorhealth.com,+14439614702,https://www.serenitybhllc.com/,Baltimore,MD
Saafi Behavioral Health Services LLC,intake@saafibh.com,+15072584220,https://www.saafibh.com/,Rochester,MN
Saafi Behavioral Health Services LLC,info@saafibh.com,+15072584220,https://www.saafibh.com/,Rochester,MN
"Breakthroughs Psychological Services, LLC",info@breakthroughspsycservices.com,+12407093029,http://breakthroughspsycservices.com/,Crofton,MD
A Glorious Behavioral Health,info@gloriousmentalclinic.com,+14106962645,http://gloriousmentalclinic.com/,Ellicott City,MD
J R Moore & Associates | Counseling & Psychological Services,jrmooreassociates@gmail.com,+12059576601,http://jrmooreassociates.com/,Bessemer,AL
South Shore Counseling & Psychological Services,albross@southshorecaps.com,+17817386226,https://southshorecaps.com/,Hingham,MA
Bard Behavioral Health,info@bardbehavioralhealth.com,+16465057099,https://www.bardbehavioralhealth.org/,East Rutherford,NJ
"Capitan Therapy & Behavioral Health, LLC",capitantherapybehavioralhealth@gmail.com,+15052730982,https://www.capitantherapy.com/,Ruidoso,NM
Irby Psychological Services — Southaven,frontdesk@irbypsychservices.net,+16622280130,https://irbypsychservices.net/,Southaven,MS
"Available Mental Health Services, LLC",admin@availablemhs.org,+17572237810,https://www.availablemhs.org/,Newport News,VA
TrueCandor Behavioral Health (Formerly Begin Again Counseling Services),support@truecandor.com,+18134193386,https://truecandor.com/,Tampa,FL
"Connected Therapy LLC (Megan Hall, LCSW)",megan@connectedtherapyllc.com,+17205153904,https://connectedtherapyllc.com/,Denver,CO
TrueCandor Behavioral Health (Formerly Begin Again Counseling Services),support@truecandor.com,+18134193386,https://truecandor.com/,Riverview,FL
Delaware Psychological Services,info@dps-wellness.com,+13028274856,https://www.delawarepsychologicalservices.com/,Lewes,DE
Genesis Behavioral Health,intake@gbh.health,+12104049696,https://genesisbehavioralhealth.org/,San Antonio,TX
"Wright Psychological Services, PLC",dwrightlpc@wrightpsych.net,+15406882199,https://wrightpsych.net/,Staunton,VA
"Buckingham & Associates, PC",mail@buckinghampsych.com,+13172889942,https://www.buckinghampsych.com/,Indianapolis,IN
Behavioral Health Consultants,hello@bhcnevada.com,+17025309171,https://bhcnevada.com/,Las Vegas,NV
Behavioral Health Consultants,gilloarnold@bhcnevada.com,+17025309171,https://bhcnevada.com/,Las Vegas,NV
"Miles Psychological Services, LLC",DrMiles@milespsychology.com,+13202474737,https://www.milespsychology.com/,St Cloud,MN
Kindred Spirit Behavioral Health,info@kindredspiritbh.org,+12344660445,https://www.kindredspiritbh.org/,Akron,OH
ReMind Behavioral Health Services,remindbhs.ny@gmail.com,+17165078200,https://remindbhs.com/,Olean,NY
DCBHS,info@dc4bhs.com,+17035427770,https://www.dc4bhs.com/,South Riding,VA
United Community Solutions LLC | Behavioral Health & Wellness Center,info@unitedcommunitysolution.com,+17574102644,https://unitedcommunitysolution.com/,Chesapeake,VA
"G.R.O.W.T.H Counseling and Therapy, LLC",Growthllc@growthcounselingandtherapy.com,+17863205559,https://www.growthcounselingandtherapy.com/,North Miami Beach,FL
Mind Renewal Behavioral Health Services,mindrenewalbhs@gmail.com,+17194652582,https://www.mindrenewalbhs.org/,Colorado Springs,CO
The Child and Family Wellness Center,info@childandfamilywellnesscenter.com,+18887637272,https://www.thechildandfamilywellnesscenter.com/,Boston,MA
"Behavioral Health Affiliates, LLC",bha84@verizon.net,+17813930009,https://behavioralhealthaffiliates.com/,Medford,MA
"Prime Behavioral Health, LLC",lacey@carebyprime.com,+16148336900,https://carebyprime.com/,Lancaster,OH
Daybreak,ASchmigel@daybreakbehavior.com,+14026142242,https://daybreakbehavior.com/,Omaha,NE
TheraCorp Behavioral Health,info@theracorpclinic.com,+17325618555,https://theracorpclinic.com/,Fairfield,NJ
"Grace Behavioral Health, Psychotherapy and Counseling",info@gracebehavioralhealth.org,+19086525311,https://www.gracebehavioralhealth.org/,Belvidere,NJ
"Compass Counseling and Behavioral Health, LLC",AshleeWeber@compasscounselingdbq.com,+15635644114,https://compasscounselingdbq.com/,Dubuque,IA
"Compass Counseling and Behavioral Health, LLC",MeganAmos@compasscounselingdbq.com,+15635644114,https://compasscounselingdbq.com/,Dubuque,IA
"Compass Counseling and Behavioral Health, LLC",CandiceCox@compasscounselingdbq.com,+15635644114,https://compasscounselingdbq.com/,Dubuque,IA
Westbrook Psychological Services,info@wpstherapy.com,+19164363580,https://www.wpstherapy.com/,Carmichael,CA
Brightside Behavioral Health,info@bbhri.com,+14017733700,https://brightsidebehavioralhealth.com/,Johnston,RI
Monarch Behavioral Health,monarchbehavioral@gmail.com,+15612031018,https://monarchbehavioralhealth.net/,Greenacres,FL
Bay Coast Behavioral,info@baycoastbehavioral.com,+17818176054,https://www.baycoastbehavioral.com/,Fall River,MA
"Identity Behavioral Health Services, LLC",info@identitybhs.net,+18703957188,https://identitybhs.net/,Pine Bluff,AR
Hinsdale Behavioral Health Clinic,hinsdalebehavioral@att.net,+16309201796,https://hinsdalebhc.com/,Hinsdale,IL
Behavioral Health Solutions,outpatient@bhs.health,+17025894871,https://bhs.health/,Henderson,NV
Behavioral Health Solutions,outpatient@bhs.health,+17025894871,https://bhs.health/,Tempe,AZ
A Core Connection,info@acoreconnection.com,+14077892673,https://www.acoreconnection.com/,Orlando,FL
"Living and Looking Within Counseling & Play Therapy, MSW, LCSW, RPT-S, CCS",Ninatknight@gmail.com,+18482160471,https://www.livingandlookingwithin.com/,Woodbridge,NJ
A Core Connection,info@acoreconnection.com,+14077892673,https://www.acoreconnection.com/,Longwood,FL
Brightside Behavioral Health,info@bbhri.com,+14017733700,https://brightsidebehavioralhealth.com/,Cranston,RI
Brightside Behavioral Health,info@bbhri.com,+14017733700,https://brightsidebehavioralhealth.com/,Seekonk,MA
"Beacon Counseling Services, PLLC",info@beaconcounselingservices.net,+17019374695,https://www.beaconcounselingservices.net/,Bismarck,ND
Evolution Psychological Services,info@evolutionpsychservices.com,+15713670651,http://evolutionpsychservices.com/,Woodbridge,VA
Lifeline Behavioral Health - Mesa,info@lifelinepcs.com,+14806411165,https://lifelinepcs.com/,Mesa,AZ
Lifeline Behavioral Health - Avondale,info@lifelinepcs.com,+14806411165,https://lifelinepcs.com/,Avondale,AZ
Lifeline Behavioral Health - Scottsdale,info@lifelinepcs.com,+14806411165,https://lifelinepcs.com/,Phoenix,AZ
Lifeline Behavioral Health - Chandler,info@lifelinepcs.com,+14806411165,https://lifelinepcs.com/,Chandler,AZ
Lifeline Behavioral Health - Tempe,info@lifelinepcs.com,+14806411165,https://lifelinepcs.com/,Tempe,AZ
Lifeline Behavioral Health - Glendale,info@lifelinepcs.com,+14806411165,https://lifelinepcs.com/,Glendale,AZ
Chosen for Hope Counseling,snapdas@yahoo.com,+12105478090,https://www.chosen4hope.com/,San Antonio,TX
Allen's Family Counseling Center,info@afccchicago.com,+13129127008,https://allensfamilycounselingcenter.com/,Chicago,IL
Rooted Therapies,info@rootedtherapies.org,+19412161406,http://rootedtherapies.org/,North Port,FL
Shipowick-Smith Counseling LLC,jesi.lingo@example.com,+15096670679,http://shipowickcounseling.com/,Wenatchee,WA
Shipowick-Smith Counseling LLC,edgar.huerta@example.com,+15096670679,http://shipowickcounseling.com/,Wenatchee,WA
Shipowick-Smith Counseling LLC,kristen.white@example.com,+15096670679,http://shipowickcounseling.com/,Wenatchee,WA
Shipowick-Smith Counseling LLC,melissa.payne@example.com,+15096670679,http://shipowickcounseling.com/,Wenatchee,WA
Shipowick-Smith Counseling LLC,darla.daniels@example.com,+15096670679,http://shipowickcounseling.com/,Wenatchee,WA
Shipowick-Smith Counseling LLC,ashley.bauman@example.com,+15096670679,http://shipowickcounseling.com/,Wenatchee,WA
Grove City Psychological Services,info@gcps2.com,+16148710035,https://www.grovecitypsychologicalservices.org/,Grove City,OH
Lone Wolf Psychological Services,info@lonewolfpsychologicalservices.com,+17205479621,https://www.lonewolfpsychologicalservices.com/,Denver,CO
New Age Behavioral Health,info@newage-bh.com,+18177780191,https://www.newage-bh.com/,Grapevine,TX
"Greater Heights Behavioral Health Associates, PLLC",info@greaterheightsbehavioral.com,+13462044632,http://ghbha.com/,Houston,TX
Life Anew Behavioral Health,info@lifeanewbh.com,+12164171007,https://lifeanewbh.com/,Euclid,OH
Connect Psychological Services PLLC,support@connectps.org,+18325343993,http://connectps.org/,The Woodlands,TX
"Lake Nona Behavioral Health Services, PLLC",admin@lnbehavioralhealth.com,+14078085773,https://lnbehavioralhealth.com/,Orlando,FL
"A New Day Counseling, Inc.",info@anewdaycounseling.com,+14057086331,http://anewdayok.com/,Oklahoma City,OK
"North Point Psychological Services, LLC",nppsvcs@gmail.com,+17247762223,https://www.northpoint-therapy.com/,Cranberry Twp,PA
New Beginnings Counseling Service,newbeginnings@nbcsiowa.com,+15154016886,https://www.nbcsiowa.com/,Urbandale,IA
Sunbeam Mental Care,info@sunbeammc.com,+14077152099,http://sunbeammc.com/,St Cloud,FL
Therapeutic Links Behavioral Health Services,info@tlinksdc.com,+12026448904,http://tlinksdc.com/,Washington,DC
Obsidian Behavioral Health PLLC,info@obsidianbh.com,+16302964169,https://www.obsidianbh.com/,St. Charles,IL
PiÑA PSYCHOLOGICAL SERVICES,info@pinapsych.com,+19566007123,https://pinapsych.com/,Mission,TX
L Williams & Associates LLC,customerservice@lwilliamsllc.com,+12057774022,https://www.lwilliamsllc.com/,Birmingham,AL
Peaceful Alternatives,pact.nact@peacefulpacts.com,+13186708898,http://peacefulalternative.com/,Shreveport,LA
Peaceful Alternatives,info@peacefulpacts.com,+13186708898,http://peacefulalternative.com/,Shreveport,LA
"Prime Behavioral Health, LLC",lacey@carebyprime.com,+16148336900,https://carebyprime.com/,Pickerington,OH
Integral Psychological Services - Traverse City,integralpsychologicalservice@gmail.com,+16166002845,https://www.integralpsy.com/,Traverse City,MI
Edh Wellness - Counseling and Psychological Services,christie@edhwellness.com,+15303037703,http://edhwellness.com/,El Dorado Hills,CA
AR Psychological Services,info@arpsych.net,+18174880495,https://www.arpsych.net/,Southlake,TX
Premier Psychological Services,Admin@bettertherapy.org,+14079844999,http://orlando-therapy.com/,Orlando,FL
Alliance Counseling and Psychological Services,michaelarnold@alliancecounselingdfw.com,+18177184332,http://alliancecounselingdfw.com/,Trophy Club,TX
Compass Behavioral Health,aln.compassbehavioralhealth@gmail.com,+14194583100,https://www.compassbehavioralcounseling.com/,Fremont,OH
Compass Behavioral Health,gds.compassbehavioralhealth@gmail.com,+14194583100,https://www.compassbehavioralcounseling.com/,Fremont,OH
"BGC Counseling, LLC",bgcounseling1@gmail.com,+18609400333,https://www.bgccounseling.com/,East Windsor,CT
Lone Wolf Psychological Services,info@lonewolfpsychologicalservices.com,+17205479621,https://www.lonewolfpsychologicalservices.com/,Denver,CO
Wellness Counseling,info@mywellnesscounseling.com,+17347780663,https://mywellnesscounseling.com/,Livonia,MI
Deeper Roots Behavioral Health of WNY,info@deeprootswny.com,+17162028877,https://deeprootswny.com/,Buffalo,NY
Mountain View Behavioral Health LLC,jacque@mvbhboise.com,+12083225354,https://www.mountainviewbehavioralhealth.com/,Boise,ID
Wellness Counseling,info@mywellnesscounseling.com,+17347780663,https://mywellnesscounseling.com/,Southgate,MI
The Soul's Apothecary,admin@mearsapothecary.com,+19527679374,https://mearsapothecary.com/,Mankato,MN
Innerchange Psychological Services of Virginia,allison@interchangepsychology.com,+18157933787,https://www.innerchangepsychology.com/,Ashburn,VA
Innerchange Psychological Services of Virginia,allison@innerchangepsychology.com,+18157933787,https://www.innerchangepsychology.com/,Ashburn,VA
Life Renewal Behavioral Health Services,liferenewal@tcpnw.com,+18559323852,https://www.liferenewal.us/,Portland,OR
"Attention, Behavior & Cognition, LLC",customerservice@abcholden.com,+17744150003,https://abcholden.com/,Holden,MA
"Foundations Behavioral Health, LLC",info@foundationsbehavioralhealth.org,+19182834388,http://foundationsbehavioralhealth.org/,Claremore,OK
PBJ Connections,info@pbjconnections.org,+17409247543,https://pbjconnections.org/,Pataskala,OH
Hurley Mental and Behavioral Health,support@hurleymbh.com,+12512228880,https://www.hurleymbh.com/,Daphne,AL
Ocean State Behavioral,info@oceanstatebehavioral.com,+14019214825,https://www.oceanstatebehavioral.com/,Warwick,RI
Holt Behavioral Health,tim@holtbehavioralhealth.com,+13322070130,https://holtbehavioralhealth.com/,Yarmouth,ME
Holt Behavioral Health,lindsay@holtbehavioralhealth.com,+13322070130,https://holtbehavioralhealth.com/,Yarmouth,ME
EOMHC: Eastern OK Mental Health & Counseling,chris@eomhc.com,+19186490011,https://www.eomhc.com/,Poteau,OK
EOMHC: Eastern OK Mental Health & Counseling,sue@eomhc.com,+19186490011,https://www.eomhc.com/,Poteau,OK
EOMHC: Eastern OK Mental Health & Counseling,edd@eomhc.com,+19186490011,https://www.eomhc.com/,Poteau,OK
Wild Spirit Counseling,Wild@wildspiritcounseling.com,+16413514003,https://www.wildspiritcounseling.com/,Marshalltown,IA
Therapy Resources of Morris County LLC,intake@therapyresourcesmc.com,+19739987900,https://www.therapyresourcesmc.com/,Morristown,NJ
Therapy Resources of Morris County LLC,info@therapyresourcesmc.com,+19739987900,https://www.therapyresourcesmc.com/,Morristown,NJ
Therapy Resources of Morris County LLC,billing@therapyresourcesmc.com,+19739987900,https://www.therapyresourcesmc.com/,Morristown,NJ
Wounded Healers Counseling Service,info@woundedhealerscounselingservice.com,+16305576057,https://woundedhealerscounselingservice.com/,Plainfield,IL
Excel Community Behavioral Health Services,info@excelcbhs.com,+18134225502,https://www.excelcbhs.com/,Temple Terrace,FL
"Genesis Behavioral Health Services, LLC",admissions@genesisholisticbr.com,+12253271704,https://genesisholisticbr.com/,Baton Rouge,LA
Sycamore Wellness,support@sycamore-wellness.com,+16142454571,https://sycamore-wellness.com/,New Albany,OH
Women in Circle,TakeTheJourney@mindfuldirection.net,+15026537439,https://mindfuldirection.net/,Louisville,KY
Choice Of Life Counseling LLC,hello@choiceoflifecounseling.com,+18132040560,https://www.choiceoflifecounseling.com/,Tampa,FL
Choice Of Life Counseling LLC,choiceoflifecounseling@gmail.com,+18132040560,https://www.choiceoflifecounseling.com/,Tampa,FL
Infinite Complete Care,info@infinitecc.org,+17864815909,http://infinitecompletecare.com/,Homestead,FL
Psi Med Inc,info@psimed.com,+16812659047,https://www.psimedinc.com/,Charleston,WV
Palm Beach Counseling and Behavioral Health,info@pbcbhealth.com,+15618993199,https://pbcbheals.com/,West Palm Beach,FL
Wellness Psychological Services,admin@wellnesspsychservices.com,+18135631155,https://wellnesspsychologicalservices.com/,St. Petersburg,FL
"Verity Counseling, LLC",lisa@myverity.space,+17174739131,https://www.myverity.space/,Gettysburg,PA
"Sabree Therapeutic Services, LLC",info@sabreets.com,+18003812309,https://sabreets.com/,Montgomery,AL
"The Behavioral Health and Wellness Academy, LLC",info@thebhwa.com,+17177048476,http://thebehavioralhealthandwellnessacademy.com/,Lancaster,PA
"The Behavioral Health and Wellness Academy, LLC",contact@thebhwa.com,+17177048476,http://thebehavioralhealthandwellnessacademy.com/,Lancaster,PA
Georgia Health Partners,info@gahealthpartners.com,+16783894856,https://gahealthpartners.com/,Savannah,GA
Brightside Behavioral Health,info@bbhri.com,+14017733700,https://brightsidebehavioralhealth.com/,Warwick,RI
Devine Grace Behavioral Health Center,devinegracebhs@gmail.com,+12407626772,https://devinegracebehavioralhealth.com/,Waldorf,MD
Capital Private Psychological Services,vm@cppstherapy.com,+16146567025,https://cppstherapy.com/,Columbus,OH
Associated Mental Health Consultants,help@amhcon.com,+14142570233,https://www.amhcon.com/,Wauwatosa,WI
Unlimited Behavioral Health Services,info@childandfamilywellnesscenter.com,+18887637272,http://unlimitedbehavioralhealth.com/,Brockton,MA
Primary Care Psychology Associates,info@primarycarepsychology.com,+18476860090,http://pcpachicago.com/,Chicago,IL
OTL Behavioral Health,info@gnbh-otl.com,+18045204600,https://otlbh.com/,Richmond,VA
Hope Mountain Behavioral Health,admin@myhopemountain.org,+17193305114,https://www.myhopemountain.org/,Colorado Springs,CO
Holistic Behavioral Health Services of Louisiana,email@holisticbehavioralhealth.com,+12259308059,http://holisticbh.org/,Baton Rouge,LA
"Riverstone Psychological Services, Inc.",info@riverstonepsych.com,+15079237321,https://riverstonepsych.com/,Rochester,MN
Psychological Services in Doral - Crystal Minds Psychological Services,info@cmpsclinical.com,+17862693502,https://cmpstherapy.com/,Doral,FL
Hope Behavioral Health,info@hbehavioral.com,+14079065214,https://hbehavioral.com/,Kissimmee,FL
Wysocki Psychological Services,examiner@adhdjonesboro.com,+18703335283,https://wpsychservice.com/,Jonesboro,AR
North Shore Behavioral Health,info@northshorebehavioral.com,+16315597033,http://northshorebehavioral.com/,Smithtown,NY
Abide Counseling - Tulsa,abidetulsa.nd@gmail.com,+19186092202,https://www.abidetulsa.com/,Tulsa,OK
Abide Counseling - Tulsa,abidetulsajulie@gmail.com,+19186092202,https://www.abidetulsa.com/,Tulsa,OK
"Engage Psychological Services, Inc.",info@engageyou.com,+18056016700,http://engageyou.com/,Westlake Village,CA
Sierra Meadows and Ascend Psychiatry,info@sierrameadowsbh.com,+15595505633,https://www.sierrameadowsbehavioralhealth.com/,Fresno,CA
Flowidity Counseling,support@flowiditycounseling.com,+18189256407,https://www.flowiditycounseling.com/,Gaithersburg,MD
Horizons Behavioral Health,info@horizonsbh.com,+18154557100,https://www.horizonsbh.com/,Crystal Lake,IL
Community Centered Counseling Services,office@cccs.me,+15633881039,http://cccs.me/,Davenport,IA
"Family Unity, LLC",maine@fubft.com,+19547031165,https://www.familyunity-bringingfamiliestogether.com/,Lauderhill,FL
Hidden Springs Psychological Services,feparadis@hiddensprings.info,+12072826730,https://hiddensprings.info/,Saco,ME
Five Lakes Counseling & Psychological Services,contact@fivelakescounseling.com,+16165576383,https://www.fivelakescounseling.com/,Wyoming,MI
MIDWEST MENTAL HEALTH,kweston@mwmhiowa.com,+17126236349,https://mwmhiowa.com/,Shenandoah,IA
Vast Counseling Services,info@vastcounselingservices.com,+17135163527,https://www.vastcounselingservices.com/,Houston,TX
"Mind Changing Solutions, PLLC",mcs@mindchangingsolutions.com,+18032030997,https://mindchangingsolutions.com/,Charlotte,NC
LPS Behavioral Health LLC,mrobis0417@yahoo.com,+17653436729,https://lpsbehavioralhealth.com/,Martinsville,IN
"LivingRite, The Center for Behavioral Health",Contact.Us@livingrite.org,+12245098255,https://livingrite.org/,Mauldin,SC
Aspirations Behavioral Health,info@aspirationshealth.com,+19045976304,http://aspirationshealth.com/,Jacksonville,FL
A Better Concept For Behavioral Health,adkinsevette@yahoo.com,+14142431054,https://a-better-concept-for-behavioral-health-llc.ueniweb.com/,Milwaukee,WI
Peace of Mind Counseling,kiraw@pom-counseling.com,+18124011836,https://pom-counseling.com/,Evansville,IN
GuidingPoint,CustomerService@guidingpoint.org,+12162737233,https://guidingpoint.org/,Cleveland,OH
Scovel Psychological and Counseling Services,kscovel@scovelpsychological.com,+16057218822,https://scovelpsychological.com/,Rapid City,SD
MindWorx Counseling,mindworxcounseling@gmail.com,+19414045797,http://mindworx.care/,Sarasota,FL
Embracing Behavioral Health,hello@embracingbehavioralhealth.com,+19043200712,https://embracingbehavioralhealth.com/,Jacksonville,FL
"Restorative Paths Counseling,LLC",restorepathsllc@gmail.com,+15055263307,https://www.restorepaths.com/,Rio Rancho,NM
Trinity Psychology & Wellness,info@drbobmontes.com,+16783668862,https://www.drbobmontes.com/,Alpharetta,GA
Western Maine Behavioral Health,wmbh@wmbh-me.com,+12076452913,https://wmbh-me.com/,Wilton,ME
"New Beginnings Behavioral Health, Inc",NBHC@nbbehavioralhealth.com,+17858136142,https://nbbehavioralhealth.com/,Topeka,KS
"New Beginnings Behavioral Health, Inc",sdaudet@sheridaudetlscsw.com,+17858136142,https://nbbehavioralhealth.com/,Topeka,KS
Seal Beach Counseling,info@sealbeachcounseling.com,+17147975445,https://www.sealbeachcounseling.com/,Seal Beach,CA
Willapa Behavioral Health,inquiries@willapabh.org,+13609422303,https://willapabh.org/,Raymond,WA
Memorial Counseling Associates,info@roadsfoundation.org,+13106275850,https://roadsfoundation.org/roads-mca-behaviorial-health-centre/,Long Beach,CA
"Jamie Weiland, LPCS",info@counselingingreencountry.com,+19183810783,https://www.counselingingreencountry.com/,Sand Springs,OK
"Jamie Weiland, LPCS",JamieLPC@counselingingreencountry.com,+19183810783,https://www.counselingingreencountry.com/,Sand Springs,OK
Synergy Health Group Sebring,learnmore@shg.center,+13054187578,http://synergyofminds.com/,Sebring,FL
Solari Mental And Behavioral Health Services,Communications@solarimentalhealth.com,+18557711971,https://www.solarimentalhealth.com/,Charlotte,NC
Solari Mental And Behavioral Health Services,support@solarimentalhealth.com,+18557711971,https://www.solarimentalhealth.com/,Charlotte,NC
Synergy Health Group,learnmore@shg.center,+13054187578,http://synergyofminds.com/,Hialeah,FL
Robinson Mental Health,office@robinsonmh.com,+12569296188,https://robinsonmh.com/,Winchester,TN
Hope Mountain Behavioral Health,admin@myhopemountain.org,+17193305114,https://www.myhopemountain.org/,Lakewood,CO
Emory University Student Counseling,campuslife@emory.edu,+14047277450,https://counseling.emory.edu/,Atlanta,GA
Lifespan Behavioral Health,intake@lsbhtherapynv.com,+17257152123,http://lsbhtherapynv.com/,Henderson,NV
Athans and Associates,office@athansandassociates.net,+18478234444,https://www.athansandassociates.net/,Park Ridge,IL
"Premier Psychological Services, P.L.",admin@bettertherapy.org,+18888997736,http://tampa-therapy.com/,Tampa,FL
"Unizon Mental Health Services, LLC",cheryl@unizonmentalhealth.org,+14452557877,http://unizonmentalhealth.org/,West Pittston,PA
Mountain View Behavioral Health,mountainviewbh@yahoo.com,+19099317311,https://www.mountainviewbh.com/,Upland,CA
"Norma Barnes, LMHC - Licensed Mental Health Counselor",admin@bettertherapy.org,+18888997736,http://tampa-therapy.com/,Tampa,FL
Lawler Center Psychological Services,lawlercenter.info@gmail.com,+14074627293,https://lawlertherapy.com/,Satellite Beach,FL
Aceso Behavioral Health,marketing@acesobh.com,+17817862998,https://www.acesobh.com/,Stoughton,MA
"Summit Mental Health Services, PLLC",admin@shmwa.com,+12538587056,https://shmwa.com/,Gig Harbor,WA
"Behavioral Health Direct - Therapy for Anxiety and OCD, Baltimore",yzschwartz@behavioralhealthdirect.com,+14432962584,https://www.behavioralhealthdirect.com/,Baltimore,MD
"Behavioral Health Direct - Therapy for Anxiety and OCD, Baltimore",info@behavioralhealthdirect.com,+14432962584,https://www.behavioralhealthdirect.com/,Baltimore,MD
Monarch Therapies,monarchcoachingandcounseling@gmail.com,+13142528220,https://monarch-therapies.com/,Ballwin,MO
Monarch Therapies,info@monarch-therapies.com,+13142528220,https://monarch-therapies.com/,Ballwin,MO
Beacon Pediatric Behavioral Health,info@beaconpediatric.com,+19044197792,https://www.beaconpediatric.com/,Jacksonville,FL
Behavioral Health Services of Arkansas,CustomerService@bhsarkansas.org,+15019547470,https://www.bhsarkansas.org/,Little Rock,AR
Behavioral Health Services of Arkansas,BHSNurses@bhsarkansas.org,+15019547470,https://www.bhsarkansas.org/,Little Rock,AR
Kaleidoscope Counseling LLC,office@kaleidoscopetherapyllc.com,+18643088650,https://www.kaleidoscopetherapyllc.com/,Spartanburg,SC
Kaleidoscope Counseling LLC,office@kaleidoscopetherapyllc.com,+18643088650,https://www.kaleidoscopetherapyllc.com/,Greer,SC
Tandem Behavioral Health,info@tandembehavioralva.com,+15403484700,https://tandembehavioralva.com/,Roanoke,VA
Beacon Pediatric Behavioral Health,info@beaconpediatric.com,+19044197792,https://www.beaconpediatric.com/,Jacksonville,FL
Diversus Health Lehman Counseling Center,medicalrecords@diversushealth.org,+17195726100,https://diversushealth.org/,Colorado Springs,CO
Diversus Health Lehman Counseling Center,info@diversushealth.org,+17195726100,https://diversushealth.org/,Colorado Springs,CO
Diversus Health Lehman Counseling Center,contact@diversus.com,+17195726100,https://diversushealth.org/,Colorado Springs,CO
Diversus Health Fairplay Counseling Center,medicalrecords@diversushealth.org,+17195726100,https://diversushealth.org/,Fairplay,CO
Diversus Health Fairplay Counseling Center,info@diversushealth.org,+17195726100,https://diversushealth.org/,Fairplay,CO
Diversus Health Fairplay Counseling Center,contact@diversus.com,+17195726100,https://diversushealth.org/,Fairplay,CO
Diversus Health Moreno Counseling & Psychiatric Center,medicalrecords@diversushealth.org,+17195726100,https://diversushealth.org/,Colorado Springs,CO
Diversus Health Moreno Counseling & Psychiatric Center,info@diversushealth.org,+17195726100,https://diversushealth.org/,Colorado Springs,CO
Diversus Health Moreno Counseling & Psychiatric Center,contact@diversus.com,+17195726100,https://diversushealth.org/,Colorado Springs,CO
Diversus Health Cripple Creek Counseling Center,medicalrecords@diversushealth.org,+17195726100,https://diversushealth.org/,Cripple Creek,CO
Diversus Health Cripple Creek Counseling Center,info@diversushealth.org,+17195726100,https://diversushealth.org/,Cripple Creek,CO
Diversus Health Cripple Creek Counseling Center,contact@diversus.com,+17195726100,https://diversushealth.org/,Cripple Creek,CO
MJM Behavioral Health LLC,thomas.mittelsteadt@mjmllc.org,+19202302960,https://mjmllc.org/,Oshkosh,WI
"Behavioral Health Associates of Broward, Counseling Centers of Goodman JFS",info@bhabroward.org,+19549090888,http://bhabroward.org/,Davie,FL
Pelican Bayou Counseling Agency Inc.,PBCounselingAgency@gmail.com,+13183829700,https://www.pelicanbayoucounseling.org/,Shreveport,LA
"Family Behavioral Health Services, LLC",admin@fbhsllc.com,+14404600140,http://fbhsllc.com/,Mayfield,OH
Tribe Institute LLC,admin@tribeinstituellc.com,+14132242008,https://tribeinstitutellc.com/,East Longmeadow,MA
Beckloff Behavioral Health Center,drbeckloff@drbeckloff.com,+19722501701,https://www.drbeckloff.com/,Dallas,TX
"Aviva Mental Health Services, Inc",scharles807@avivamhs.com,+16105224508,http://avivamhs.com/,Collingdale,PA
Ascend Behavioral Health,info@ascendbhs.org,+17863733027,https://www.ascendbhs.org/,Fort Myers,FL
"D Allen and Davis Community Counseling Center, LLC",DAAD@dallencommunitycc.com,+12402022170,http://deborahallentherapy.com/,Waldorf,MD
Synergy of Minds Healing Center,learnmore@shg.center,+13054187578,http://synergyofminds.com/,Sebring,FL
Solutions Behavioral Health SBH,info@solutionsbh.net,+19894015563,https://www.yoursbh.org/,Saginaw,MI
Bent Creek Counseling,info@bentcreekbhs.com,+15809225656,http://bentcreekbhs.com/,Enid,OK
"Adventure Psychological Services, LLC - Hazel Dell Office",email@adventurepsychologicalservices.com,+13607186554,http://adventurepsychological.com/,Vancouver,WA
Anya MedSpa & Behavioral Health Center,anyahealthmd@gmail.com,+14102135253,https://www.anyahealthmd.com/,Catonsville,MD
Bent Creek Counseling,info@bentcreekbhs.com,+15809225656,http://bentcreekbhs.com/,Woodward,OK
Brighter Dimensions Counseling,ADelarzelere@brighterdimensionscc.com,+19186156620,https://brighter-dimensions.squarespace.com/,Broken Arrow,OK
"New Horizon Counseling, LLC, Portage, MI",tmeyer@newhorizon-counseling.com,+12697883200,https://www.newhorizon-counseling.com/,Portage,MI
Breakthrough Behavioral Health,contact@btbehavioral.com,+14805250058,https://www.btbehavioral.com/,Tempe,AZ
"Davidson Behavioral Health & Psychotherapy, PLLC",DrHeatherDancy@gmail.com,+13364423271,https://www.davidsonbehavioralhealth.org/,Lexington,NC
Stewart Behavioral Health,mstewart@stewartbehavioralhealth.com,+18434075419,https://www.stewartbehavioralhealth.net/,Florence,SC
CenterPoint Behavior Health Systems,rdawson@cpbhs.org,+19182702413,http://cpbhs.org/,Tulsa,OK
"All in Mental Health, LLC",Admin@allinmentalhealth.com,+3212718213,https://allinmentalhealth.com/,Palm Bay,FL
Mannaba Counseling Center and Training Institute,info@mannabacounseling.com,+13213703552,https://www.mannabacounseling.com/,Altamonte Springs,FL
Road to Recovery,marietta@rdtorecovery.com,+17702202885,https://rdtorecovery.com/,Atlanta,GA
Road to Recovery,info@rdtorecovery.com,+17702202885,https://rdtorecovery.com/,Atlanta,GA
Road to Recovery,atlanta@rdtorecovery.com,+17702202885,https://rdtorecovery.com/,Atlanta,GA
Road to Recovery,contact@rdtorecovery.com,+17702202885,https://rdtorecovery.com/,Atlanta,GA
"Balance Behavioral Health, PLLC",administrator@balancebehavioral.com,+18048235475,https://balancebehavioral.com/,Midlothian,VA
The Family Ministry Counseling And Psychotyherappy Services,familyministry@thefamilyministry.com,+16026164433,https://thefamilyministry.org/,Phoenix,AZ
"Positive Life & Learning Solutions, LLC",support@positivelifelearning.org,+17134975540,http://positivelifelearning.org/,Houston,TX
Invicta Counseling,arusk@invictacounseling.com,+14792202337,https://www.invictacounseling.com/,Siloam Springs,AR
Saguaro Behavioral Health,info@saguarobehavioralhealth.com,+14805887422,https://www.saguarobehavioralhealth.com/,Tempe,AZ
Hardy Behavioral Health,info@hardybehavioralhealth.com,+13856666743,https://hardybehavioralhealth.com/,Lehi,UT
Diversus Health Parkside Child & Family Services,medicalrecords@diversushealth.org,+17195726100,https://diversushealth.org/,Colorado Springs,CO
Diversus Health Parkside Child & Family Services,info@diversushealth.org,+17195726100,https://diversushealth.org/,Colorado Springs,CO
Diversus Health Parkside Child & Family Services,contact@diversus.com,+17195726100,https://diversushealth.org/,Colorado Springs,CO
Diversus Health Lighthouse Walk-in Crisis Center,medicalrecords@diversushealth.org,+17195726100,https://diversushealth.org/,Colorado Springs,CO
Diversus Health Lighthouse Walk-in Crisis Center,info@diversushealth.org,+17195726100,https://diversushealth.org/,Colorado Springs,CO
Diversus Health Lighthouse Walk-in Crisis Center,contact@diversus.com,+17195726100,https://diversushealth.org/,Colorado Springs,CO
Home Base Collaborative Family Counseling,swanjiru@homebasenh.org,+16036828464,https://homebasenh.org/,Manchester,NH
Home Base Collaborative Family Counseling,jeverettking@homebasenh.org,+16036828464,https://homebasenh.org/,Manchester,NH
Home Base Collaborative Family Counseling,brobinson@homebasenh.org,+16036828464,https://homebasenh.org/,Manchester,NH
Home Base Collaborative Family Counseling,mharrison@homebasenh.org,+16036828464,https://homebasenh.org/,Manchester,NH
Home Base Collaborative Family Counseling,mfaulkner@homebasenh.org,+16036828464,https://homebasenh.org/,Manchester,NH
Home Base Collaborative Family Counseling,outpatientservices@homebasenh.org,+16036828464,https://homebasenh.org/,Manchester,NH
Home Base Collaborative Family Counseling,amitts@homebasenh.org,+16036828464,https://homebasenh.org/,Manchester,NH
Home Base Collaborative Family Counseling,tlemay@homebasenh.org,+16036828464,https://homebasenh.org/,Manchester,NH
Affiliated Psychological Services,info@affiliatedps.com,+17603673290,https://affiliatedps.com/,Twentynine Palms,CA
Beacon Pointe LLC,beaconpointe10400@yahoo.com,+14058485620,https://www.beaconpointellc.com/,Oklahoma City,OK
Hope Behavioral Health,admin@hope-nky.com,+18598692023,https://hope-nky.com/,Crescent Springs,KY
"Excelsior Psychological Services, PLC",excelsiorpsych@gmail.com,+12486565003,https://excelsiorpsych.com/,Utica,MI
CAPS4U,caps.durham@caps4u.com,+19196808833,https://www.caps4u.org/,Durham,NC
"Violet Theodos Tsakostas, PHD",office@athansandassociates.net,+18478234444,https://www.athansandassociates.net/,Park Ridge,IL
"Professional Counseling Associates, PLLC",info@professionalcounselingservice.com,+12545267272,https://www.professionalcounselingservice.com/,Killeen,TX
Aspiring Behavioral Health Services,tthibodaux@aspiringhealthsvcs.com,+15042071921,https://www.aspiringhealthsvcs.org/,New Orleans,LA
"Whitesell and Associates, Inc",reception@courageousdialogue.com,+14109144012,https://www.courageousdialogue.com/,Bel Air,MD
Behavioral Health Response,bhrcards@bhrworldwide.com,+13144696644,https://bhrstl.com/,St. Louis,MO
Albemarle Psychological Service,DrAllenOBX@gmail.com,+12522615190,https://albemarlepsychological.com/,Kitty Hawk,NC
"Novus Vita Counseling, PLLC",ellen@novusvitacounseling.com,+16032326987,https://www.novusvitacounseling.com/,Manchester,NH
"Life Works / Brian S. Hissom & Associates, PLLC",lifework@bellsouth.net,+18284852195,https://hickorycounseling.com/,Morganton,NC
"Life Works / Brian S. Hissom & Associates, PLLC",amelia@hickorycounseling.com,+18284852195,https://hickorycounseling.com/,Morganton,NC
Midlothian Behavioral Health Associates,info@midlothianwellness.com,+18048979359,https://midlothianwellness.com/,Midlothian,VA
Livewell Behavioral Health Counseling Center,info@livewellbhc.com,+15595549710,https://livewellbhc.com/,Fresno,CA
REACH Behavioral Health - Westlake,questions@reachbh.org,+12164531112,https://reachbh.org/,Westlake,OH
REACH Behavioral Health,questions@reachbh.org,+12164531112,https://reachbh.org/,Brook Park,OH
Rivercrest Behavioral Health & Wellness,info@rivercresthealth.com,+15412897777,https://www.rivercresthealth.com/,Hermiston,OR
Continuum Behavioral Health,contact@autismspectrumalliance.com,+18775044141,https://www.autismspectrumalliance.com/,Columbia,MD
Cabot Psychological Services,info@cabotpsychologicalservices.com,+19528312000,https://cabotpsychologicalservices.com/,Minneapolis,MN
Cabot Psychological Services,billing@cabotpsychologicalservices.com,+19528312000,https://cabotpsychologicalservices.com/,Minneapolis,MN
Continuum Behavioral Health,contact@autismspectrumalliance.com,+18775044141,https://www.autismspectrumalliance.com/,St. Charles,IL
"Diversus Health Jet Wing Counseling, Psychiatric, & Addiction Center",medicalrecords@diversushealth.org,+17195726100,https://diversushealth.org/,Colorado Springs,CO
"Diversus Health Jet Wing Counseling, Psychiatric, & Addiction Center",info@diversushealth.org,+17195726100,https://diversushealth.org/,Colorado Springs,CO
"Diversus Health Jet Wing Counseling, Psychiatric, & Addiction Center",contact@diversus.com,+17195726100,https://diversushealth.org/,Colorado Springs,CO
REACH Behavioral Health - Cleveland,questions@reachbh.org,+12164531112,https://reachbh.org/,Cleveland,OH
REACH Behavioral Health - Elyria,questions@reachbh.org,+12164531112,https://reachbh.org/,Elyria,OH
"Stacey Staback, LPC",BHSofNJ@gmail.com,+19084639665,https://www.behavioralhealthservicesofnewjersey.com/,Freehold,NJ
Cultivate Behavioral Health & Education - Counseling Services,hello@cultivatebhe.com,+18554445664,https://cultivatebhe.com/,Barbourville,KY
Allevia8 Behavioral Health Clinic,info@allevia8bhc.com,+16036823692,https://allevia8bhc.com/,Nashua,NH
"Auxilium Psychological Services, LLC",info@auxiliumpsychology.com,+18125907160,https://auxiliumpsychology.com/,New Albany,IN
"Clarity Psychological Services, LLC",info@claritypsychologicalservices.com,+14124193490,http://claritypsych.com/,Wexford,PA
Ironwood Counseling and Psychological Services,officestaff@ironwoodcounseling.com,+14809885003,https://ironwoodcounseling.com/,Gilbert,AZ
Vanda Counseling and Psychological Services,contact@vandacounseling.com,+17635758086,https://vandacounseling.com/,Golden Valley,MN
Vanda Counseling and Psychological Services,contact@vandacounseling.com,+17635758086,https://vandacounseling.com/,Roseville,MN
Boise North End Wellness and Counseling,northendwellnesscenter@gmail.com,+12088035339,https://boisecounseling.org/,Boise,ID
Vanda Counseling and Psychological Services,contact@vandacounseling.com,+17635758086,https://vandacounseling.com/,Rogers,MN
"Beachside Behavioral Health, LLC",ginger.wells@beachsidebehavioral.com,+18137023418,https://beachsidebehavioral.com/,St. Petersburg,FL
Cornerstone Counseling,info@cornerstonecounselingohio.com,+13309674111,https://www.cornerstonecounselingohio.com/,Canfield,OH
Inner Courage Counseling,info@innercouragecounselingllc.com,+16309953193,https://innercouragecounselingllc.com/,Wheaton,IL
Aviva Mental Health Services,scharles807@avivamhs.com,+16105224508,http://avivamhs.com/,Collingdale,PA
North Metro Psychological Services,info@northmetropsych.com,+17704853224,http://northmetropsych.com/,Marietta,GA
"DECLARE Therapy Center, Inc.",receptionist@declaretherapycenter.org,+15138347050,http://declaretherapycenter.org/,Cincinnati,OH
Valley Behavioral Services,PATIENTSERVICES@valleybehavioralservices.com,+12563251349,https://valleybehavioralservices.org/,Madison,AL
Aviva Healthcare Services,scharles807@avivamhs.com,+16105224508,http://avivamhs.com/,Wilmington,DE
Center For Psychological Services,info@centerforpsychologicalservices.com,+18003245678,http://cfpsmn.com/,St Cloud,MN
Vitality Psychological Services,appointments@vitalityps.com,+16025252018,https://vitalityps.com/,Phoenix,AZ
Adapt Behavioral Services,info@adapt-fl.com,+14076220444,http://adapt-fl.com/,Maitland,FL
Adapt Behavioral Services,referrals@adapt-fl.com,+14076220444,http://adapt-fl.com/,Maitland,FL
Adapt Behavioral Services,vmigacz@adapt-fl.com,+14076220444,http://adapt-fl.com/,Maitland,FL
Brave Counseling and Consultation,office@bravecounseling.net,+16202086577,https://www.bravecounseling.net/,Emporia,KS
"The Behavioral Health and Wellness Academy, LLC",info@thebhwa.com,+17177048476,http://thebehavioralhealthandwellnessacademy.com/,Hershey,PA
"The Behavioral Health and Wellness Academy, LLC",contact@thebhwa.com,+17177048476,http://thebehavioralhealthandwellnessacademy.com/,Hershey,PA
"Word of Life Behavioral Health, LLC",support@wolbehavioralhealth.com,+18034268650,https://wolbehavioralhealth.com/,North Augusta,SC
Asher Behavioral Health,info@asherbh.com,+18338804357,https://asherbehavioralhealth.com/,Plymouth Meeting,PA
LivingRite Mental Health Therapy Services,Contact.Us@livingrite.org,+12245098255,https://livingrite.org/,Freeport,IL
Diversus Health Ruskin Same Day Access Intake Center,medicalrecords@diversushealth.org,+17195726100,https://diversushealth.org/,Colorado Springs,CO
Diversus Health Ruskin Same Day Access Intake Center,info@diversushealth.org,+17195726100,https://diversushealth.org/,Colorado Springs,CO
Diversus Health Ruskin Same Day Access Intake Center,contact@diversus.com,+17195726100,https://diversushealth.org/,Colorado Springs,CO
The Road To Recovery Inc.,marietta@rdtorecovery.com,+17702202885,https://rdtorecovery.com/,Atlanta,GA
The Road To Recovery Inc.,info@rdtorecovery.com,+17702202885,https://rdtorecovery.com/,Atlanta,GA
The Road To Recovery Inc.,atlanta@rdtorecovery.com,+17702202885,https://rdtorecovery.com/,Atlanta,GA
The Road To Recovery Inc.,contact@rdtorecovery.com,+17702202885,https://rdtorecovery.com/,Atlanta,GA
Lotus Behavioral Health Services,Intake@lotusbhs.com,+14846401201,https://lotusbhs.com/,Allentown,PA
Maui Youth & Family Services Inc,services@myfs.org,+18008777117,https://mbhr.org/,Makawao,HI
Grace Harbour,Feedback@gharbour.com,+17704861140,https://www.gharbour.com/,Newnan,GA
Alliance Psychological Services,alliancepsychservice@gmail.com,+12484135027,https://www.alliancepsychologicalservices.net/,Rochester,MI
All Family Behavioral Health,admin@allfamilybehavioralhealth.com,+13526008822,https://allfamilybehavioralhealth.com/,Brooksville,FL
Newark Behavioral Health,info@newarkbehavioralhealth.com,+13023195161,https://www.newarkbehavioralhealth.com/,Newark,DE
Paragon Autism Services Main Office and Counseling Services,info@paragonautismservices.com,+15404793889,https://paragonautismservices.com/,Fredericksburg,VA
Moore Mental Health & Behavioral Services,info@moorementalhealth.com,+12814151280,https://moorementalhealth.com/,Houston,TX
Bailey Behavioral Health PLLC,info@baileybehavioralhealth.com,+18473222975,https://baileybehavioralhealth.com/,Fox Lake,IL
DeNome Alliances Counseling Center,info@denomealliances.com,+19195215372,https://denomealliances.com/,Holly Springs,NC
Team Care Behavioral Health,TEAMCare@teamcarebh.com,+17173910172,https://teamcarebh.com/,Harrisburg,PA
"Elevate Counseling Services, Inc.",intake@elevate-counseling.com,+15082971491,http://elevate-counseling.com/,Bellingham,MA
"Elevate Counseling Services, Inc.",intake@elevate-counseling.com,+15082971491,http://elevate-counseling.com/,South Easton,MA
"Solaz, LLC",solazllc@gmail.com,+19193078165,https://www.solaztherapy.com/,Raleigh,NC
Life's Joy Psychological Services,office@lifesjoypsych.org,+19897870028,https://lifesjoypsych.org/,Caro,MI
"Panhandle Therapy Center, LLC",info@panhandletherapycenter.com,+18502371223,https://panhandletherapycenter.com/,Blountstown,FL
Presbyterian Psychological Services,info@presbypsych.org,+17045549900,https://presbypsych.org/,Charlotte,NC
Chestnut Park Professionals,chestnutpark@hushmail.com,+12707821116,http://chestnutparkprofessionals.com/,Bowling Green,KY
Texas Child Behavioral Health,info@texaschildbehavioralhealth.com,+15122658988,https://texaschildbehavioralhealth.com/,Cedar Park,TX
"Nino Yniguez, LMFT",info@engageyou.com,+18056016700,http://engageyou.com/,Westlake Village,CA
"Mindful Connections Mental Health, LLC",info@mindfulconnect.com,+17194237428,http://mindfulconnect.com/,Colorado Springs,CO
"Mindful Connections Mental Health, LLC",billing@mindfulconnect.com,+17194237428,http://mindfulconnect.com/,Colorado Springs,CO
Alliance Behavioral Health,staff@alliancehsv.com,+12565178355,https://alliancehsv.com/,Huntsville,AL
Rhapsody Counseling and Wellness Center- Helotes,admin@rhapsodycounseling.org,+12102869339,https://rhapsodycounseling.com/,San Antonio,TX
"DK Counseling Service, LLC",dkcounselingservice@gmail.com,+14357579245,https://denise-kearl.clientsecure.me/,Woods Cross,UT
Syntero - Dublin,info@syntero.org,+16148895722,http://syntero.org/,Dublin,OH
Memor Health,schedule@memorhealth.com,+17758272400,http://memorhealth.com/,Reno,NV
Sonder Behavioral Health,contact@sonderbehavioralhealth.com,+18658396108,http://sonderbehavioralhealth.com/,Knoxville,TN
Haven Behavioral Health,office@havenbehavioralhealth.net,+16099718989,https://www.havenbehavioralhealth.net/,Forked River,NJ
Integrated Behavioral Health Management,ibhmgmt@outlook.com,+19804220106,https://www.ibhmgmt.org/,Charlotte,NC
Alabama Institute for Behavioral Health,info@alabamainstitute.com,+13344084689,https://alabamainstitute.com/,Phenix City,AL
Consultation and Treatment Services,info@consultationtreatmentservices.com,+16314667053,http://ctstherapy.org/,Floral Park,NY
Cabot Psychological Services,info@cabotpsychologicalservices.com,+19528312000,https://cabotpsychologicalservices.com/,Edina,MN
Cabot Psychological Services,billing@cabotpsychologicalservices.com,+19528312000,https://cabotpsychologicalservices.com/,Edina,MN
Positive Transformations Health Services,info@positiveths.com,+19853131092,https://www.positiveths.com/,Thibodaux,LA
J M J Health Care Services,jmjhealth@jmjhs.com,+12402068345,https://www.jmjhs.com/,Bowie,MD
UNT Testing Center at Gateway,gatewaytesting@unt.edu,+19403697617,http://cts.unt.edu/,Denton,TX
UNT Testing Center at Gateway,CounselingAndTestingServices@unt.edu,+19403697617,http://cts.unt.edu/,Denton,TX
Pinnacle Behavioral Health LLC.,pinnaclebehavioralhealth1@gmail.com,+17706765763,https://www.pbehavioralhealth.net/,Norcross,GA
Intensive Residential Treatment (IRT) | Wasatch Behavioral Health,comments@wasatch.org,+14356543003,https://www.wasatch.org/,Provo,UT
Best Behavioral Health,info@bestbh.org,+15139548005,https://www.bestbh.org/,Cincinnati,OH
Recovery Outreach Center (ROC) | Wasatch Behavioral Health,comments@wasatch.org,+14356543003,https://www.wasatch.org/,Provo,UT
Dandelion Behavioral Health,info@dandelionbehavioral.com,+19417804268,https://www.dandelionbehavioral.com/,Port Charlotte,FL
Dandelion Behavioral Health,ttridle@dandelionbehavioral.com,+19417804268,https://www.dandelionbehavioral.com/,Port Charlotte,FL
Momentum Services LLC,info@mymomentumservices.com,+17172622183,https://mymomentumservices.com/,Chambersburg,PA
Dandelion Behavioral Health - Fort Myers,info@dandelionbehavioral.com,+19417804268,https://www.dandelionbehavioral.com/,Fort Myers,FL
Dandelion Behavioral Health - Fort Myers,ttridle@dandelionbehavioral.com,+19417804268,https://www.dandelionbehavioral.com/,Fort Myers,FL
Payson Family Clinic | Wasatch Behavioral Health,comments@wasatch.org,+14356543003,https://www.wasatch.org/,Payson,UT
Vantage Point North | Wasatch Behavioral Health,comments@wasatch.org,+14356543003,https://www.wasatch.org/,American Fork,UT
"Invictus Behavioral Health, LLC",info@invictusbehavioral.com,+19546013445,https://invictusbehavioral.com/,Miami,FL
Western NE Behavioral Health,drcate@westernnebraskabehavioralhealth.com,+13083272026,http://westernnebraskabehavioralhealth.com/,Rushville,NE
Open Range Counseling Center,openrangecounseling@outlook.com,+17012649049,http://openrangecounseling.com/,Dickinson,ND
River Rock Behavioral Health,info@riverrockbehavioralhealth.com,+13144087676,https://www.riverrockbehavioralhealth.com/,St. Louis,MO
Transitions Therapeutic Care,info@therapeutic.care,+13369077308,https://therapeutic.care/,Greensboro,NC
"North Florida Learning & Behavioral Health, LLC",drwinner@nflbh.com,+19042500088,https://www.nflbh.com/,Jacksonville,FL
Midwest Mental Health,kweston@mwmhiowa.com,+17126236349,https://mwmhiowa.com/,Red Oak,IA
Peaceful Mind Behavioral Health & Wellness,support@peacefulmindbhw.com,+18602812280,https://www.peacefulmindbhw.com/,Bristol,CT
Peaceful Mind Behavioral Health & Wellness,intake@peacefulmindbhw.com,+18602812280,https://www.peacefulmindbhw.com/,Bristol,CT
NC Health Partners,info@nchealthpartners.com,+13369998165,https://nchealthpartners.com/,Charlotte,NC
Tranquility Psychiatry and Counseling Services,info@discovertranquility.com,+16143447547,https://discovertranquility.com/,Columbus,OH
"Resolutions Behavioral Health Services, LLC.",resolutionsbhs@gmail.com,+18703051221,https://www.resolutionsbhs.com/,Crossett,AR
Breakthrough Counseling,contact@btbehavioral.com,+14805250058,https://www.btbehavioral.com/,Tempe,AZ
Ascension Counseling Services,montrice@ascensioncounselingservices.org,+12082445197,https://ascensioncounselingservices.org/,Boise,ID
Ascension Counseling Services,hello@ascensioncounselingservices.org,+12082445197,https://ascensioncounselingservices.org/,Boise,ID
"Revive Counseling, LLC",reviveboise@reviveboise.com,+12087948955,https://www.reviveboise.com/,Boise,ID
Kennebec Behavioral Health,info@kbhmaine.org,+12074748368,https://www.kbhmaine.org/,Winthrop,ME
Lakeview Counseling,info@lakeviewtc.com,+12319290300,https://lakeviewtc.com/,Traverse City,MI
Growth & Guidance Counseling,support@growthguidancecounseling.com,+13126781822,https://growthguidancecounselingservices.com/,Oak Lawn,IL
Team Care Behavioral Health,TEAMCare@teamcarebh.com,+17173910172,https://teamcarebh.com/,Lancaster,PA
Inner Courage Counseling,info@innercouragecounselingllc.com,+16309953193,https://innercouragecounselingllc.com/,Naperville,IL
Pauquette Center for Psychological Services,info@pauquette.com,+16087454108,https://pauquette.com/,Portage,WI
Center of Hope for Behavioral Health,info@centerofhopebh.org,+16157564898,http://centerofhopebh.org/,Goodlettsville,TN
True Wellness,frontdesk@truewellnessaz.com,+14804744143,http://truewellnessaz.com/,Mesa,AZ
"Aloha House, Inc.",services@myfs.org,+18008777117,https://mbhr.org/,Makawao,HI
Pauquette Center for Psychological Services,info@pauquette.com,+16087454108,https://pauquette.com/,Columbus,WI
Limestone Behavioral Health,support@limestonebehavioralhealth.com,+12569791777,https://limestonebehavioralhealth.com/,Fort Payne,AL
Aspire Academy,comments@wasatch.org,+14356543003,https://www.wasatch.org/,Orem,UT
Connection Counseling LLC,connectioncounselingllc@gmail.com,+16097590381,https://www.connectioncounselingllc.com/,Hillsborough Township,NJ
C.C.I.Therapy Counseling Centers International,CCItherapygroup@yahoo.com,+19564231194,https://www.ccitherapy.com/,Brownsville,TX
Dr. Rae Mazzei-Evolutions Behavioral Health Services,rmazzei@evolutionsbh.com,+14804486755,https://www.evolutionsbh.com/,Chandler,AZ
KTL Behavioral Health LLC,tlundin@ktlbehavioralhealth.com,+14012391666,https://www.ktlbehavioralhealth.com/,Cranston,RI
True Blue Behavioral Health,help@truebluebehavioralhealth.com,+13012002051,https://truebluebehavioralhealth.com/,Waldorf,MD
Desert Consulting,reggie@counselingstgeorge.com,+14354141892,https://www.counselingstgeorge.com/?oo-step=true&wait-before-scraping=1000&save-html=false&save-markdown=true,St. George,UT
Desert Consulting,kari@counselingstgeorge.com,+14354141892,https://www.counselingstgeorge.com/?oo-step=true&wait-before-scraping=1000&save-html=false&save-markdown=true,St. George,UT
Desert Consulting,allie.gillespiemft@gmail.com,+14354141892,https://www.counselingstgeorge.com/?oo-step=true&wait-before-scraping=1000&save-html=false&save-markdown=true,St. George,UT
Desert Consulting,natalie@counselingstgeorge.com,+14354141892,https://www.counselingstgeorge.com/?oo-step=true&wait-before-scraping=1000&save-html=false&save-markdown=true,St. George,UT
Desert Consulting,carley@counselingstgeorge.com,+14354141892,https://www.counselingstgeorge.com/?oo-step=true&wait-before-scraping=1000&save-html=false&save-markdown=true,St. George,UT
Desert Consulting,julie@counselingstgeorge.com,+14354141892,https://www.counselingstgeorge.com/?oo-step=true&wait-before-scraping=1000&save-html=false&save-markdown=true,St. George,UT
Desert Consulting,kaela@counselingstgeorge.com,+14354141892,https://www.counselingstgeorge.com/?oo-step=true&wait-before-scraping=1000&save-html=false&save-markdown=true,St. George,UT
Desert Consulting,cecilie@counselingstgeorge.com,+14354141892,https://www.counselingstgeorge.com/?oo-step=true&wait-before-scraping=1000&save-html=false&save-markdown=true,St. George,UT
Brightside Counseling LLC,BrightsideCounselingPA@gmail.com,+12152642272,https://brightsidecounseling.org/,Norfolk,VA
Riverwoods Behavioral Health,admin@rbh.care,+18017879855,https://www.rbh.care/,Provo,UT
Healing Chair Therapy,dia@healingchairtherapy.com,+13147300083,https://www.healingchairtherapy.com/,Olivette,MO
"Brightside Counseling, LLC",BrightsideCounselingPA@gmail.com,+12152642272,https://brightsidecounseling.org/,Harleysville,PA
"Mindfully Therapy & Psychiatry - Anderson, Cincinnati OH",info@mindfully.com,+18888300347,https://mindfully.com/,Cincinnati,OH
Mindfully Psychiatry & Therapy Services - Marion,info@mindfully.com,+18888300347,https://mindfully.com/,Marion,OH
OnPoint Behavioral Health,info@onpointcare.net,+18138032999,https://www.onpointcare.net/,Temple Terrace,FL
"Piedmont Counseling and Development Services, PLLC",moniquec@piedmontlifesolutions.com,+13368970067,http://piedmontlifesolutions.com/,Jamestown,NC
Wellness Solution 360,info@wellnesssolution360.com,+14702611010,https://www.wellnesssolution360.com/,Duluth,GA
Families First Counseling Services,email@email.com,+13194330395,https://www.families-first.net/error.php?path=%2Findex.php,Waterloo,IA
Receiving Center | Wasatch Behavioral Health,comments@wasatch.org,+14356543003,https://www.wasatch.org/,Provo,UT
Stonehaven Behavioral Health & Wellness,jennifercollins@stonehavenclinic.com,+14799965433,http://stonehaven.clinic/,Greenwood,AR
Whittier Counseling Center,contact@whittiercounseling.org,+15629077466,https://whittiercounselingcenter.org/,Whittier,CA
Provo Family Clinic | Wasatch Behavioral Health,comments@wasatch.org,+14356543003,https://www.wasatch.org/,Provo,UT
Giant Steps Autism Preschool | Wasatch Behavioral Health,comments@wasatch.org,+14356543003,https://www.wasatch.org/,Orem,UT
South Provo Clinic | Wasatch Behavioral Health,comments@wasatch.org,+14356543003,https://www.wasatch.org/,Provo,UT
Vantage Point | Wasatch Behavioral Health,comments@wasatch.org,+14356543003,https://www.wasatch.org/,Provo,UT
"Huntersville Counseling Center, PLLC",admin@huntersvillecounselingcenter.com,+19809994006,http://huntersvillecounselingcenter.com/,Huntersville,NC
Spirit-Mind-Body Healthcare: Counseling & DOT Exams,smb@spirit-mind-body.org,+16232186691,https://spiritmindbody.net/,Avondale,AZ
"Oilean Wellbeing, LLC",oileanwellbeingllc@gmail.com,+18884921678,https://www.oileanwellbeingtherapy.company/,Ketchikan,AK
Syntero - Mill Run,info@syntero.org,+16148895722,http://syntero.org/,Hilliard,OH
Heart and Solutions,help@heartandsolutions.net,+18005314236,https://heartandsolutions.net/,Davenport,IA
"Heart and Solutions, LLC",help@heartandsolutions.net,+18005314236,https://heartandsolutions.net/,Grundy Center,IA
"Heart and Solutions, LLC",help@heartandsolutions.net,+18005314236,https://heartandsolutions.net/,Marion,IA
"Bernadette Murorunkwere, PMHNP-BC",info@sunfmhc.com,+12102814609,https://sunflowermentalhealthclinic.com/,San Antonio,TX
Continuum Autism Spectrum Alliance,contact@autismspectrumalliance.com,+18775044141,https://www.autismspectrumalliance.com/,Vienna,VA
Sunflower Mental Health Clinic PLLC,info@sunfmhc.com,+12102814609,https://sunflowermentalhealthclinic.com/,San Antonio,TX
Illinois Behavioral Health Group (IBHG),support@illinoisbhg.com,+18473299210,http://illinoisbhg.com/,Skokie,IL
Peace Behavioral Health - Saco & Portland Maine Psychiatrist and Telehealth,office@peacebh.com,+12072004789,https://peacebh.com/,Saco,ME
Illinois Behavioral Health Group (IBHG),support@illinoisbhg.com,+18473299210,http://illinoisbhg.com/,Oak Brook,IL
Kennebec Behavioral Health,info@kbhmaine.org,+12074748368,https://www.kbhmaine.org/,Skowhegan,ME
Livingston Psychological Services,mpickard@livingstonpsych.com,+15175406166,https://livingstonpsych.com/,Howell,MI
Livingston Psychological Services,chitt@livingstonpsych.com,+15175406166,https://livingstonpsych.com/,Howell,MI
LivingRite Mental Health Services,Contact.Us@livingrite.org,+12245098255,https://livingrite.org/,Algonquin,IL
The Positive Living Group - Mental Health and Behavioral Health Services,jmartin@positivelivinggroup.com,+17317364400,http://positivelivinggroup.com/,Jackson,TN
Phoenix Behavioral Health Center,hello@phoenixpllc.com,+12288192171,https://phoenixpllc.com/,Ocean Springs,MS
Restoration & Wellness,dschools@2restorewellness.com,+12157181072,https://restorationwellnesscenter.com/,Royersford,PA
Restoration & Wellness,dschools@2restorewellness.com,+12157181072,https://restorationwellnesscenter.com/,Fort Washington,PA
Kennebec Behavioral Health,info@kbhmaine.org,+12074748368,https://www.kbhmaine.org/,Waterville,ME
"Cornerstone Counseling Clinic, Inc.",kchesshir@cornerstonecounselingclinic.com,+18704550134,https://www.cornerstonecounselingclinic.org/,Nashville,AR
Resilience Behavioral Health LLC,ResilienceBH@gmail.com,+14074590474,https://www.resiliencebh.com/,Winter Park,FL
Hopeful Hands,katherinem@hopeful-hands.com,+12062189067,https://hopeful-hands.com/,Edmonds,WA
Hopeful Hands,jennie@hopeful-hands.com,+12062189067,https://hopeful-hands.com/,Edmonds,WA
Hopeful Hands,admin@hopeful-hands.com,+12062189067,https://hopeful-hands.com/,Edmonds,WA
Southwest Iowa Families,swfamilies@southwestiowafamilies.org,+17125423501,https://www.southwestiowafamilies.org/,Clarinda,IA
Downtown Therapy Associates,cfite@downtowntherapy.org,+12564341758,https://www.downtowntherapy.org/,Huntsville,AL
Downtown Therapy Associates,mpullum@downtowntherapy.org,+12564341758,https://www.downtowntherapy.org/,Huntsville,AL
Downtown Therapy Associates,finman@downtowntherapy.org,+12564341758,https://www.downtowntherapy.org/,Huntsville,AL
Downtown Therapy Associates,tj@iambrave.life,+12564341758,https://www.downtowntherapy.org/,Huntsville,AL
Downtown Therapy Associates,chammick@downtowntherapy.org,+12564341758,https://www.downtowntherapy.org/,Huntsville,AL
Downtown Therapy Associates,sbuchan@downtowntherapy.org,+12564341758,https://www.downtowntherapy.org/,Huntsville,AL
Downtown Therapy Associates,hdotson@downtowntherapy.org,+12564341758,https://www.downtowntherapy.org/,Huntsville,AL
Downtown Therapy Associates,lburleson@downtowntherapy.org,+12564341758,https://www.downtowntherapy.org/,Huntsville,AL
Insight Mental Health Group,welcome@insightmhg.com,+14258423910,https://www.insightmentalhealthgroup.com/,Snoqualmie,WA
Cultivate Behavioral Health & Education - ABA Therapy for Autism,hello@cultivatebhe.com,+18554445664,https://cultivatebhe.com/,Oklahoma City,OK
Cultivate Behavioral Health & Education - ABA Therapy for Autism,hello@cultivatebhe.com,+18554445664,https://cultivatebhe.com/,Naperville,IL
Cultivate Behavioral Health & Education - ABA Therapy for Autism,hello@cultivatebhe.com,+18554445664,https://cultivatebhe.com/,Lexington,KY
Cultivate Behavioral Health & Education - ABA Therapy for Autism,hello@cultivatebhe.com,+18554445664,https://cultivatebhe.com/,Verona,WI
Cultivate Behavioral Health & Education - ABA Therapy for Autism,hello@cultivatebhe.com,+18554445664,https://cultivatebhe.com/,Overland Park,KS
Cultivate Behavioral Health & Education - ABA Therapy for Autism,hello@cultivatebhe.com,+18554445664,https://cultivatebhe.com/,Mokena,IL
Cultivate Behavioral Health & Education - ABA Therapy for Autism,hello@cultivatebhe.com,+18554445664,https://cultivatebhe.com/,Peru,IL
Cultivate Behavioral Health & Education - ABA Therapy for Autism,hello@cultivatebhe.com,+18554445664,https://cultivatebhe.com/,Louisville,KY
Cultivate Behavioral Health & Education - ABA Therapy for Autism,hello@cultivatebhe.com,+18554445664,https://cultivatebhe.com/,Georgetown,KY
Cultivate Behavioral Health & Education - ABA Therapy for Autism,hello@cultivatebhe.com,+18554445664,https://cultivatebhe.com/,Boca Raton,FL
Cultivate Behavioral Health & Education - ABA Therapy for Autism,hello@cultivatebhe.com,+18554445664,https://cultivatebhe.com/,Yulee,FL
Cultivate Behavioral Health & Education - ABA Therapy for Autism,hello@cultivatebhe.com,+18554445664,https://cultivatebhe.com/,Hebron,KY
Cultivate Behavioral Health & Education - ABA Therapy for Autism,hello@cultivatebhe.com,+18554445664,https://cultivatebhe.com/,Taylor Mill,KY
"A Sound Mind Counseling Service, Llc.",asndmnd@yahoo.com,+15139480023,http://asoundmindcounseling.com/,Cincinnati,OH
"A Sound Mind Counseling Service, Llc.",DrThomas@drshantelthomas.com,+15139480023,http://asoundmindcounseling.com/,Cincinnati,OH
"Boyle & Associates, LLC",admin@boylemh.com,+12057757713,https://boylemh.com/,Hoover,AL
Elevated Groups Counseling- Mental Health Services-Family Counseling-DUI-Substance Abuse. DOT SAP.,mtelevated@gmail.com,+17084440304,https://duigroups.com/,Chicago Ridge,IL
Mayo Behavioral Health Services,info@mayobehavioralhealth.org,+12252560110,https://www.mayobehavioralhealth.org/,Baton Rouge,LA
Cornerstone Counseling Center - Southington location,coordinator@cornerstonecounselingct.com,+18607365386,https://www.cornerstonecounselingct.com/,Plantsville,CT
Mindfully Therapy - Montgomery,info@mindfully.com,+18888300347,https://mindfully.com/,Cincinnati,OH
North Jersey Health & Wellness - Florham Park,info@njhwellness.com,+19735567702,http://njhwllc.com/,Florham Park,NJ
Center for Interpersonal Effectiveness,info@cie-ankeny.com,+16417919425,https://www.cie-ankeny.com/,Ankeny,IA
"Agape Counseling Services, P.C.",fwagapetherapy@gmail.com,+17087946857,https://www.agapecounselingservicepc.com/,Homewood,IL
"Complete Care Behavioral Health, PLLC",slukula@completebh.com,+16304057820,https://completebh.com/,Bolingbrook,IL
"Complete Care Behavioral Health, PLLC",info@completebh.com,+16304057820,https://completebh.com/,Bolingbrook,IL
Mindfully Therapy - Kenwood,info@mindfully.com,+18888300347,https://mindfully.com/,Cincinnati,OH
"Best Practice Psychotherapy, LLC",info@bestpracticepsychotherapy.com,+12035539957,https://www.bestpracticepsychotherapy.com/,Woodbridge,CT
In Sync Counseling,info@insynccounseling.com,+15016790232,https://www.insynccounseling.com/,Conway,AR
Behavioral Health Clinic,appointments@bhclinic.com,+18556078242,https://wibehavioralhealth.com/,Madison,WI
In Sync Counseling,info@insynccounseling.com,+15016790232,https://www.insynccounseling.com/,Greenbrier,AR
"Heart and Solutions, LLC A Strength Based Counseling Agency",help@heartandsolutions.net,+18005314236,https://heartandsolutions.net/,Ames,IA
Behavioral Health Clinic,appointments@bhclinic.com,+18556078242,https://wibehavioralhealth.com/,Fort Atkinson,WI
Behavioral Health Clinic,appointments@bhclinic.com,+18556078242,https://wibehavioralhealth.com/,Wausau,WI
Behavioral Health Clinic,appointments@bhclinic.com,+18556078242,https://wibehavioralhealth.com/,Marshfield,WI
Northeastern Counseling Center,info@nccutah.org,+14357256300,https://nccutah.org/,Vernal,UT
Carroll Counseling Services,tbutler@carrollinstitute.org,+16053393345,https://carrollinstitute.org/,Sioux Falls,SD
Carroll Counseling Services,support@carrollinstitute.org,+16053393345,https://carrollinstitute.org/,Sioux Falls,SD
Carroll Counseling Services,aleighton@carrollinstitute.org,+16053393345,https://carrollinstitute.org/,Sioux Falls,SD
Rhapsody Counseling and Wellness Center,admin@rhapsodycounseling.org,+12102869339,https://rhapsodycounseling.com/,Live Oak,TX
Community Counseling Solutions,webmaster@ccsemail.org,+15416769161,http://communitycounselingsolutions.org/,John Day,OR
"AZ Behavioral Health Specialists, LLC",azbehavioral@gmail.com,+16029976635,https://www.azbehavioral.com/,Phoenix,AZ
"Path of Hope Counseling, LLC",rachel@pathofhopeoregon.com,+15413579523,https://pathofhopeoregon.com/,Springfield,OR
"Path of Hope Counseling, LLC",office@pathofhopeoregon.com,+15413579523,https://pathofhopeoregon.com/,Springfield,OR
Continuum Autism Spectrum Alliance,contact@autismspectrumalliance.com,+18775044141,https://www.autismspectrumalliance.com/,Villanova,PA
Community Counseling Solutions,webmaster@ccsemail.org,+15416769161,http://communitycounselingsolutions.org/,Heppner,OR
Healing Hearts Counseling,office@healinghearts4u.net,+13099660068,http://healinghearts4u.net/,Peoria,IL
Continuum Autism Spectrum Alliance,contact@autismspectrumalliance.com,+18775044141,https://www.autismspectrumalliance.com/,Lakewood,CO
Continuum Autism Spectrum Alliance,contact@autismspectrumalliance.com,+18775044141,https://www.autismspectrumalliance.com/,Colorado Springs,CO
Paragon Autism Services ABA Clinical Office and Preschool-Based ABA Program,info@paragonautismservices.com,+15404793889,https://paragonautismservices.com/,Fredericksburg,VA
"Arrow Behavioral Health Services, LLC.",information@abhtomah.com,+16083777488,http://abhtomah.com/,La Crosse,WI
MosaicSelf Counseling,corie@mosaicself.com,+12182168467,https://mosaicselfcounseling.com/,Ely,MN
Live Well Counseling Center of Greater Nebraska,mail@livewell-gi.com,+13083817487,https://livewell-eap.org/,Grand Island,NE
Cultivate Behavioral Health & Education,hello@cultivatebhe.com,+18554445664,https://cultivatebhe.com/,Barrington,IL
Cultivate Behavioral Health & Education,hello@cultivatebhe.com,+18554445664,https://cultivatebhe.com/,San Antonio,TX
Cultivate Behavioral Health & Education,hello@cultivatebhe.com,+18554445664,https://cultivatebhe.com/,Round Rock,TX
Cultivate Behavioral Health & Education,hello@cultivatebhe.com,+18554445664,https://cultivatebhe.com/,Schertz,TX
Cultivate Behavioral Health & Education,hello@cultivatebhe.com,+18554445664,https://cultivatebhe.com/,Frisco,TX
Cultivate Behavioral Health & Education,hello@cultivatebhe.com,+18554445664,https://cultivatebhe.com/,Southlake,TX
Cultivate Behavioral Health & Education,hello@cultivatebhe.com,+18554445664,https://cultivatebhe.com/,Harker Heights,TX
Cultivate Behavioral Health & Education,hello@cultivatebhe.com,+18554445664,https://cultivatebhe.com/,Austin,TX
Cultivate Behavioral Health & Education,hello@cultivatebhe.com,+18554445664,https://cultivatebhe.com/,Bee Cave,TX
Cultivate Behavioral Health & Education,hello@cultivatebhe.com,+18554445664,https://cultivatebhe.com/,Southwest Ranches,FL
Cultivate Behavioral Health & Education - Counseling Services,hello@cultivatebhe.com,+18554445664,https://cultivatebhe.com/,Fort Mitchell,KY
Cultivate Behavioral Health & Education - Counseling Services,hello@cultivatebhe.com,+18554445664,https://cultivatebhe.com/,Louisville,KY
"Downtown Psychological Services, PC",info@downtownpsychological.com,+16465585667,https://www.downtownpsychological.com/,New York,NY
Cultivate Behavioral Health & Education,hello@cultivatebhe.com,+18554445664,https://cultivatebhe.com/,St. Charles,IL
Prather Behavioral Health and Counseling LLC,jprather@pratherbhc.com,+19048780006,http://pratherbhc.com/,Cape Coral,FL
"OnyiaMind Counseling, Inc",info@onyiamind.com,+17862503494,https://www.onyiamind.com/,Miami,FL
Faith and Hope Psychotherapy,info@faithandhopepsychotherapy.com,+13475038625,http://faithandhopetherapy.com/,Staten Island,NY
A Family Works Counseling,admin@afwcsecure.com,+14802072580,https://www.afamilyworks.com/,Gilbert,AZ
"Emboldened Psychological Services, PLLC",therapy@emboldenedps.com,+12602326531,https://www.emboldenedps.com/,Farmington Hills,MI
Citywide Community Counseling Services,services@citywideccs.org,+12152919500,https://www.citywideccs.org/,Philadelphia,PA
Hope & Wholeness Psychology Center,office.hwpc@gmail.com,+16167950298,https://hopeandwholenesspsychology.com/,Allegan,MI
"Coffee on the Couch Counseling, LLC",info@coffeeonthecouchcounseling.com,+15057050571,https://www.coffeeonthecouchcounseling.com/,Albuquerque,NM
Hope & Wholeness Psychology Center,office.hwpc@gmail.com,+16167950298,https://hopeandwholenesspsychology.com/,Muskegon,MI
Creative Behavioral Connections,cmcguire@cbcautism.com,+17029015201,https://www.cbcautism.com/,Las Vegas,NV
Creative Behavioral Connections,osanchez@cbcautism.com,+17029015201,https://www.cbcautism.com/,Las Vegas,NV
Creative Behavioral Connections,mmcguire@cbcautism.com,+17029015201,https://www.cbcautism.com/,Las Vegas,NV
Creative Behavioral Connections,info@cbcautism.com,+17029015201,https://www.cbcautism.com/,Las Vegas,NV
Creative Behavioral Connections,cnguyen@cbcautism.com,+17029015201,https://www.cbcautism.com/,Las Vegas,NV
Creative Behavioral Connections,csconyers@cbcautism.com,+17029015201,https://www.cbcautism.com/,Las Vegas,NV
Creative Behavioral Connections,lstevens@cbcautism.com,+17029015201,https://www.cbcautism.com/,Las Vegas,NV
Willapa Behavioral Health,inquiries@willapabh.org,+13609422303,https://willapabh.org/,Montesano,WA
Insight Psychological Services,admin@insightpsych.net,+17853206425,http://insightpsych.net/,Manhattan,KS
The Growth & Healing HUB,info@gandh.org,+17039014015,https://www.gandh.org/,Alexandria,VA
The Counselors Couch Therapy DBA,Melissa@thecounselorscouchtherapy.com,+13302308715,https://www.thecounselorscouchtherapy.com/,Warren,OH
The Counselors Couch Therapy DBA,Madeline@thecounselorscouchtherapy.com,+13302308715,https://www.thecounselorscouchtherapy.com/,Warren,OH
Positive Outcomes Psychological Services,PositiveOutcomesOffice@gmail.com,+17065468456,https://positive-outcomes.com/,Athens,GA
Mountaineer Psychological Services,staff@mountaineerpsyc.com,+13042411766,https://mountaineerpsyc.com/,Morgantown,WV
Mountaineer Psychological Services,office@mountaineerpsyc.com,+13042411766,https://mountaineerpsyc.com/,Morgantown,WV
Cornerstone Counseling Center - East Hartford location,coordinator@cornerstonecounselingct.com,+18607365386,https://www.cornerstonecounselingct.com/,East Hartford,CT
Serenity Step,info@serenitystep.com,+13139483000,https://serenitystep.com/,Redford Charter Twp,MI
"New Way Psychological Services, PLLC",info@newwaypsych.com,+18327724055,https://www.newwaypsych.com/,Houston,TX
Riverview Center for Growth,info@riverviewgrowth.org,+15417261465,https://www.riverviewgrowth.org/,Springfield,OR
"Mindfully Therapy - Western Hills, Cincinnati, OH",info@mindfully.com,+18888300347,https://mindfully.com/,Cincinnati,OH
Anew Hope LLC,info@anew-hope.org,+15714492922,https://anew-hope.org/,Woodbridge,VA
"Prairie Wellness Counseling Center, P.C.",info@prairiewellness.org,+16303880264,https://prairiewellness.org/,Batavia,IL
Family Psychological Services Ventura - Behavioral Health & Medication Management,drbarrus@fpsca.com,+18182080733,https://fpsca.com/,Ventura,CA
Family Psychological Services Ventura - Behavioral Health & Medication Management,appointments@fpsca.com,+18182080733,https://fpsca.com/,Ventura,CA
Family Psychological Services Ventura - Behavioral Health & Medication Management,fps4help@fpsca.com,+18182080733,https://fpsca.com/,Ventura,CA
Behavioral Health Therapies,mary@bhtflorida.com,+17273501055,https://behavioralhealththerapies.com/,Tarpon Springs,FL
Behavioral Health Therapies,office@bhtflorida.com,+17273501055,https://behavioralhealththerapies.com/,Tarpon Springs,FL
One Love Services,recovery@oneloveservicesmcdowell.org,+18285590414,https://oneloveservicesmcdowell.org/,Marion,NC
"THRIVE Behavioral Health & Consulting, LLC",info@laquistaerinna.com,+16098322142,https://laquistaerinna.com/,Willingboro,NJ