business_name,email,phone,website,city,state
BugBros Pest Control Tulsa,info@bugbros.com,+19188900987,https://bugbros.com/,Tulsa,OK
Biotech Pest Management,info@biotechpestmanagement.com,+18434523663,https://www.biotechpestmanagement.com/,Moncks Corner,SC
Alpha Wildlife Columbia,helpme@alphawildlife.com,+18337671776,https://alphawildlife.com/,Columbia,SC
"Northern Wildlife Service, LLC",northernwildlife19@gmail.com,+19892559599,https://northernmipestcontrol.com/,Atlanta,MI
Pest Force,info@pesforcepestcontrol.com,+18447777378,https://www.pestforceusa.com/,Midlothian,TX
BugMizer Termite and Pest Inc,info@bugmizer.com,+17608552847,https://bugmizer.com/,San Diego,CA
Cloverleaf Pest Control,info@cloverleafpro.com,+16512123208,https://cloverleafpro.com/,Newport,MN
Custom West Pest & Wildlife,PestControl@customwest.us,+14067284447,https://customwest.us/,Missoula,MT
Complete Ground Control Pest Control Services,cgroundcontrol@gmail.com,+13208088666,https://completegroundcontrol.com/,Alexandria,MN
Rose Pest Solutions Fort Wayne,info@rosepest.com,+18009667673,https://www.rosepestsolutions.com/,Fort Wayne,IN
Pest Pros Bat Removal,pest_pros@hotmail.com,+17124412197,https://pestprosiowa.com/,Arnolds Park,IA
"Oxley Pest Control, Inc.",info@oxleypest.com,+16613252687,https://www.oxleypest.com/,Bakersfield,CA
Adventure Pest and Wildlife (Sutton Weed and Pest),mymail@mailservice.com,+19282550827,https://www.adventurepest.com/,Show Low,AZ
Adventure Pest and Wildlife (Sutton Weed and Pest),office@adventurepest.com,+19282550827,https://www.adventurepest.com/,Show Low,AZ
Nextgen Pest Solutions,info@ngpest.com,+14702990784,https://ngpest.com/,Birmingham,AL
Pest Pros: Bugs & Bat Removal,pest_pros@hotmail.com,+17124412197,https://pestprosiowa.com/,Sioux Center,IA
Anderson Pest Control,andersonpest.russ@hotmail.com,+17195961004,https://andersonpestcos.com/,Colorado Springs,CO
Hirby Pest Control,hirby1@sbcglobal.net,+19155668673,https://hirbypestcontrol.com/,El Paso,TX
Regal Pest Control,contact@regalpestmi.com,+17343350219,https://regalpestmi.com/,Canton,MI
Barnes Wildlife Control,office@barneswildlifecontrol.com,+19373401867,https://barneswildlifecontrol.com/,Troy,OH
Pilgrim Pest Professionals,info@pilgrimpestpro.com,+15082083864,https://www.pilgrimpestpro.com/,Plymouth,MA
Pigeon Pros,info@pigeonpros.com,+14808888838,https://pigeonpros.com/,Mesa,AZ
"Animal Rangers, Wildlife Removal & Pest Control",info@animalrangers.com,+18002487264,https://wildlifecontrol.services/,Port St. Lucie,FL
Accurate Pest Management,AccuratePestNJ@gmail.com,+19733988798,https://www.accuratepestmanagement.com/,Landing,NJ
Xceptional Wildlife Removal,info@xceptionalwildlife.com,+18009297163,https://www.xceptionalwildlife.com/,Fredericksburg,VA
Nextgen Pest Solutions,info@ngpest.com,+14702990784,https://ngpest.com/,Alpharetta,GA
North Shore Goose Control,northshoregoose@sbcglobal.net,+18479135855,https://www.northshoregoose.com/,Lincolnshire,IL
Viking Pest Control,FreeQuote@vikingpest.com,+18006182847,https://www.vikingpest.com/,Warren,NJ
Viking Pest Control,CustomerService@vikingpest.com,+18006182847,https://www.vikingpest.com/,Warren,NJ
Advanced Green Pest Solutions,service@bugenout.com,+15034847394,https://bugenout.com/,Newberg,OR
Critter Detective,info@critterdetective.com,+15138021626,https://www.critterdetective.com/,Williamsburg,OH
Viking Pest Control,FreeQuote@vikingpest.com,+18006182847,https://www.vikingpest.com/,Saddle Brook,NJ
Viking Pest Control,CustomerService@vikingpest.com,+18006182847,https://www.vikingpest.com/,Saddle Brook,NJ
ASAP Wildlife Control And Removal - Virginia,asapwildlifecontrol@outlook.com,+18045161000,https://asapwildlifecontrol.com/,Richmond,VA
"LEE's Pest Services, LLC",lee@leespestservices.com,+15405339500,http://leespestservices.com/,Winchester,VA
Rose Pest Solutions Saginaw,info@rosepest.com,+18009667673,https://www.rosepestsolutions.com/,Saginaw,MI
Midway Pest Management,info@midwaypestmanagement.com,+19138209737,https://midwaypestmanagement.com/,Olathe,KS
Agricultural Pest Control Services,service@agpest.com,+18587329018,https://www.agpest.com/,Lakeside,CA
Alpha Wildlife Charleston,helpme@alphawildlife.com,+18337671776,https://alphawildlife.com/,Charleston,SC
Nextgen Pest Solutions,info@ngpest.com,+14702990784,https://ngpest.com/,Norcross,GA
JP McHale Pest Management,sales@nopests.com,+18004792284,https://nopests.com/,Buchanan,NY
Stanley Pest Control,service@stanleypest.com,+13239373819,https://www.stanleypest.com/,Anaheim,CA
Viking Pest Control,FreeQuote@vikingpest.com,+18006182847,https://www.vikingpest.com/,Mountainside,NJ
Viking Pest Control,CustomerService@vikingpest.com,+18006182847,https://www.vikingpest.com/,Mountainside,NJ
Waverly Pest Control Inc.,mrwaverly2@gmail.com,+18452976700,https://www.waverlypc.com/,Wappingers Falls,NY
Earth First Pest Control,earthfirstpest@gmail.com,+17148209004,https://www.earthfirstpest.com/,Sherman Oaks,CA
Xceptional Wildlife Removal,info@xceptionalwildlife.com,+18009297163,https://www.xceptionalwildlife.com/,Waleska,GA
Xceptional Wildlife Removal,info@xceptionalwildlife.com,+18009297163,https://www.xceptionalwildlife.com/,New Market,MD
Cummings Termite & Pest,info@cummingspest.com,+14809949599,https://cummingspest.com/,Fountain Hills,AZ
Rose Pest Solutions Columbus,info@rosepest.com,+18009667673,https://www.rosepestsolutions.com/,Columbus,OH
Mid-Pacific Pest Control Maui,info@mauipestcontrol.com,+18088700909,https://mauipestcontrol.com/,Wailuku,HI
Mid-Pacific Pest Control Maui,midpac@maui.net,+18088700909,https://mauipestcontrol.com/,Wailuku,HI
Nextgen Pest Solutions,info@ngpest.com,+14702990784,https://ngpest.com/,Clearwater,FL
Rogue Pest & Wildlife Control,roguewildlife@gmail.com,+17723420262,https://roguepestandwildlife.com/,Port St. Lucie,FL
Tree Hugger Pest Control - Hammond,buick61@msn.com,+12193748900,http://treehuggerpestcontrol.com/,Hammond,IN
Wilkins Wildlife & BedBug 911,services@wilkinswildlifebedbug911.com,+13022363533,https://wilkinswildlifebedbug911.com/,Delmar,DE
Enviro-Tech Pest Services,office@envirotechpestlv.com,+16109281557,https://envirotechpestlv.com/,Emmaus,PA
Plank Termite and Pest Control LLC,office@plankpest.com,+15733683333,https://plankpest.com/,Rolla,MO
"Nextgen Rodent, Wildlife, Iguana & Critter Removal",info@ngpest.com,+14702990784,https://ngpest.com/,West Palm Beach,FL
Viking Pest Control,FreeQuote@vikingpest.com,+18006182847,https://www.vikingpest.com/,Egg Harbor Township,NJ
Viking Pest Control,CustomerService@vikingpest.com,+18006182847,https://www.vikingpest.com/,Egg Harbor Township,NJ
Dynamite Pest Control,info@dynamitepestcontrol.com,+12154742700,https://dynamitepestcontrol.com/,Philadelphia,PA
Viking Pest Control,FreeQuote@vikingpest.com,+18006182847,https://www.vikingpest.com/,Cape May Court House,NJ
Viking Pest Control,CustomerService@vikingpest.com,+18006182847,https://www.vikingpest.com/,Cape May Court House,NJ
Five Boroughs Pest Control,fiveboroughpestcontrol@yahoo.com,+19142903315,https://fiveboroughpest.com/,Bronx,NY
NJ Pest Control,customerservice@4njpest.com,+19738952601,https://4njpest.com/,Flanders,NJ
Pest Gurus,txpestgurus@gmail.com,+19726799759,https://thepestgurus.com/,Duncanville,TX
"TKO Pest Control, Inc.",tkobugman@comcast.net,+16107925461,https://www.tkopestcontrolinc.com/,Royersford,PA
American Bio-Tech Wildlife Services,help@americanbiotech.com,+18603551231,https://americanbio-tech.com/,New Milford,CT
Easy Removal Solutions ( Bee removal),zacharyinfante@easyremovalsolutions.com,+15612487256,https://easyremovalsolutions.com/,West Palm Beach,FL
Waves Pest Control Lakewood Ranch,contact@wavespestcontrol.com,+19412975749,https://wavespestcontrol.com/,Bradenton,FL
Bug Techs Pest Control Company Inc,bugtechs@hotmail.com,+17182060696,https://bugtechs.com/,Richmond Hill,NY
All Animal Removal & Restoration,allanimalremoval1@gmail.com,+16303981331,https://allanimalremoval.com/,Burr Ridge,IL
Critter Control® of Orlando,orlando@crittercontrol.com,+14073151372,https://www.crittercontroloforlando.com/,Altamonte Springs,FL
First Inspection Services Inc.,firstinspectionservices99@gmail.com,+15208182238,https://firstinspectionservices.com/,Saddlebrooke,AZ
Viking Pest Control,FreeQuote@vikingpest.com,+18006182847,https://www.vikingpest.com/,Bound Brook,NJ
Viking Pest Control,CustomerService@vikingpest.com,+18006182847,https://www.vikingpest.com/,Bound Brook,NJ
Best Pest Control,bestpest@live.com,+15733481600,https://lakebestpestcontrol.com/,Osage Beach,MO
Vanish Pest Control IPM,mpapa@vanishpestcontrolipm.com,+17024571011,https://vanishpestcontrolipm.com/,Las Vegas,NV
Vanish Pest Control IPM,office@vanishpestcontrolipm.com,+17024571011,https://vanishpestcontrolipm.com/,Las Vegas,NV
Nextgen Pest Solutions,info@ngpest.com,+14702990784,https://ngpest.com/,Tampa,FL
"Mike's Pest Control, Inc.",info@mikespestcontrol.net,+12813320019,https://mikespestcontrol.net/,League City,TX
Smart Solutions Pest Management,contact@smartsolutionspest.com,+16098890284,https://www.smartsolutionspest.com/,Rio Grande,NJ
Nextgen Pest Solutions,info@ngpest.com,+14702990784,https://ngpest.com/,Blairsville,GA
Affordable Pest Control Indianapolis,info@pestcontrolindy.com,+13174005653,https://pestcontrolindy.com/,Indianapolis,IN
Magic Touch Exterminating and Wildlife Control,magictouc2555@gmail.com,+16469359889,https://www.magictouchexterminating.com/,Queens,NY
Fischer Wildlife Control & Repairs - Attic Clean Out,fischerwildlife@hotmail.com,+18002737055,https://animalremovalnewjersey.com/,Toms River,NJ
"Advantage Pest Control, Inc",info@bugman911.com,+19785619555,https://advantagepestcontrolinc.com/,Manchester-by-the-Sea,MA
Nextgen Pest Solutions,info@ngpest.com,+14702990784,https://ngpest.com/,West Palm Beach,FL
Louisiana Pest Control Services,info@louisianapestcontrol.net,+12257538771,https://www.louisianapestcontrol.net/,Baton Rouge,LA
Schindler Wildlife Solutions LLC,schindlersolutions@gmail.com,+15133782760,https://www.swscincy.com/,Lawrenceburg,IN
Allstar Wildlife,allstarwildlife@yahoo.com,+18037487827,https://www.allstarwildlife.com/,Lexington,SC
McKlein Pest Control,pkeppler@mccomaslacina.com,+13193381125,http://mccomaslacina.com/,Dallas,TX
McKlein Pest Control,dclark@mccomaslacina.com,+13193381125,http://mccomaslacina.com/,Dallas,TX
McKlein Pest Control,kgrenko@mccomaslacina.com,+13193381125,http://mccomaslacina.com/,Dallas,TX
McKlein Pest Control,bhove@mccomaslacina.com,+13193381125,http://mccomaslacina.com/,Dallas,TX
McKlein Pest Control,lhart@mccomaslacina.com,+13193381125,http://mccomaslacina.com/,Dallas,TX
McKlein Pest Control,mmanfull@mccomaslacina.com,+13193381125,http://mccomaslacina.com/,Dallas,TX
McKlein Pest Control,jhein@mccomaslacina.com,+13193381125,http://mccomaslacina.com/,Dallas,TX
McKlein Pest Control,mzimmerman@mccomaslacina.com,+13193381125,http://mccomaslacina.com/,Dallas,TX
McKlein Pest Control,rmccomas@mccomaslacina.com,+13193381125,http://mccomaslacina.com/,Dallas,TX
McKlein Pest Control,wiley@mccomaslacina.com,+13193381125,http://mccomaslacina.com/,Dallas,TX
McKlein Pest Control,mliles@mccomaslacina.com,+13193381125,http://mccomaslacina.com/,Dallas,TX
McKlein Pest Control,bcronk@mccomaslacina.com,+13193381125,http://mccomaslacina.com/,Dallas,TX
McKlein Pest Control,tnixt@mccomaslacina.com,+13193381125,http://mccomaslacina.com/,Dallas,TX
McKlein Pest Control,dkeen@mccomaslacina.com,+13193381125,http://mccomaslacina.com/,Dallas,TX
McKlein Pest Control,rhampton@mccomaslacina.com,+13193381125,http://mccomaslacina.com/,Dallas,TX
Rose Pest Solutions Lansing,info@rosepest.com,+18009667673,https://www.rosepestsolutions.com/,Lansing,MI
Wildlife X Team of Oklahoma City,bradmckey@wildlifexteam.com,+14058169700,https://wildlifeokc.com/,Midwest City,OK
Varmint Eviction Wildlife Removal Services,customerservice@varminteviction.com,+18505442883,https://varminteviction.com/,Tallahassee,FL
Attic Kings Inc,info@attickings.com,+14047231065,https://www.attickings.com/,Norcross,GA
Xceptional Wildlife Removal,info@xceptionalwildlife.com,+18009297163,https://www.xceptionalwildlife.com/,Marietta,GA
Kritter King,info@kritterking.com,+15133712795,https://www.kritterking.com/,Cincinnati,OH
Stanley Pest Control,service@stanleypest.com,+13239373819,https://www.stanleypest.com/,Los Angeles,CA
"Wildlife, Inc.",contact@wildlifeandpest.com,+17206697797,https://wildlifeandpest.com/,Denver,CO
Vigil Pest Management LLC,VigilPest@gmail.com,+19702198616,https://www.vigilpestmanagement.com/,Fort Collins,CO
Alpha Wildlife Memphis,helpme@alphawildlife.com,+18337671776,https://alphawildlife.com/,Germantown,TN
Alpha Wildlife Chattanooga,helpme@alphawildlife.com,+18337671776,https://alphawildlife.com/,Chattanooga,TN
Viking Pest Control,FreeQuote@vikingpest.com,+18006182847,https://www.vikingpest.com/,Denville,NJ
Viking Pest Control,CustomerService@vikingpest.com,+18006182847,https://www.vikingpest.com/,Denville,NJ
"Animal Rangers, Wildlife Removal & Pest Control",info@animalrangers.com,+18002487264,https://animalrangers.com/,Lake Park,FL
"Affordable Pest Control, Inc.",affordablepestcontrolinc@gmail.com,+15138745060,https://www.affordpestcincy.com/,Fairfield,OH
U.S. Pest Protection,info@uspest.com,+16154522300,https://uspest.com/,Nashville,TN
Rose Pest Solutions Toledo,info@rosepest.com,+18009667673,https://www.rosepestsolutions.com/,Toledo,OH
"Dependable Exterminating Co., Inc.",service@dependableexterminating.com,+18443058999,http://dependableexterminating.com/,Bronx,NY
Smithereen Pest Management Services,info@smithereen.com,+18157262468,https://www.smithereen.com/,Chicago,IL
Rose Pest Solutions Grand Rapids,info@rosepest.com,+18009667673,https://www.rosepestsolutions.com/,Grandville,MI
Life After Bugs Pest Control,scheduling@lifeafterbugs.com,+12817092639,https://www.lifeafterbugs.com/,Spring,TX
Viking Pest Control,FreeQuote@vikingpest.com,+18006182847,https://www.vikingpest.com/,York,PA
Viking Pest Control,CustomerService@vikingpest.com,+18006182847,https://www.vikingpest.com/,York,PA
Viking Pest Control,FreeQuote@vikingpest.com,+18006182847,https://www.vikingpest.com/,Dallas,PA
Viking Pest Control,CustomerService@vikingpest.com,+18006182847,https://www.vikingpest.com/,Dallas,PA
Urban Wildlife Trapping Experts,trapperjohnathan@gmail.com,+13105477681,https://urbanwildlifetrappingexperts.com/,Jurupa Valley,CA
Evictor Pest and Wildlife,michael@animalevictor.com,+18774057728,https://animalevictor.com/index.html,Rochester,WA
Intech Pest Control,intechpest@gmail.com,+15102740333,https://intechpest.com/,Hayward,CA
Nextgen Pest Solutions,info@ngpest.com,+14702990784,https://ngpest.com/,Dunwoody,GA
YES Pest Pros,info@yespest.com,+18123767575,https://www.yespest.com/,Bloomington,IN
Viking Pest Control,FreeQuote@vikingpest.com,+18006182847,https://www.vikingpest.com/,Ocean Township,NJ
Viking Pest Control,CustomerService@vikingpest.com,+18006182847,https://www.vikingpest.com/,Ocean Township,NJ
Green Valley Wildlife Solutions LLC,info@greenvalleywildlifesolutions.com,+16142193481,https://greenvalleywildlifesolutions.com/,Westerville,OH
Serve Pest Control,servepestcontrol@gmail.com,+14352535394,https://servepestcontrol.com/,Provo,UT
Pest Management Sciences Inc. - Mrs. Advani Pest Control School,pestmanagementsciences@yahoo.com,+19176530319,https://www.pestcontrolschoolny.com/,Elmhurst,NY
Jarrod's Pest Control,jarrod@jarrods.net,+17062218000,http://jarrods.net/,Columbus,GA
A-1 Pest Master Exterminating Company Inc.,contact@a1pestmasters.com,+17737376939,https://www.a1pestmasters.com/,Chicago,IL
Friendly Pest Control,info@friendlypestcontrolaz.com,+19288880679,https://friendlypestcontrolaz.com/,Payson,AZ
Viking Pest Control,FreeQuote@vikingpest.com,+18006182847,https://www.vikingpest.com/,Saddle Brook,NJ
Viking Pest Control,CustomerService@vikingpest.com,+18006182847,https://www.vikingpest.com/,Saddle Brook,NJ
JP McHale Pest Management,sales@nopests.com,+18004792284,https://nopests.com/,New York,NY
"Animal Rangers, Pest Control & Animal Removal",info@animalrangers.com,+18002487264,https://animalrangers.com/,Pembroke Pines,FL
Life After Bugs Pest Control Richmond,scheduling@lifeafterbugs.com,+12817092639,https://www.lifeafterbugs.com/,Richmond,TX
IntelliPEST,Steve.Byrd@intellipestpros.com,+16823808238,https://intellipestpros.com/,Grapevine,TX
IntelliPEST,Chris.Castillo@intellipestpros.com,+16823808238,https://intellipestpros.com/,Grapevine,TX
IntelliPEST,request@intellipestpros.com,+16823808238,https://intellipestpros.com/,Grapevine,TX
Michigan Wildlife Solutions,info@michiganwildlifesolutions.com,+12486364160,https://www.michiganwildlifesolutions.com/,Fenton,MI
Abra Kadabra Environmental Services,info@abrakadabraenvironmental.com,+17635370330,https://abrakadabraenvironmental.com/,Minneapolis,MN
Konold Pest Control,jacob@konoldpestcontrol.com,+17204057378,https://konoldpestcontrol.com/,Parker,CO
Alert One Termite & Pest Control,customerservice@rottler.com,+14176245144,http://alertonepestcontrol.com/,Joplin,MO
U.S. Wildlife Removal Service,wildlifeextractor@me.com,+18475323008,https://lakecountywildliferemoval.com/,Ingleside,IL
ASAP Wildlife Control and Removal - North Carolina,asapwildlifecontrol@outlook.com,+18045161000,https://asapwildlifecontrol.com/,Chapel Hill,NC
Midway Pest Management,info@midwaypestmanagement.com,+19138209737,https://midwaypestmanagement.com/,Overland Park,KS
Viking Pest Control,FreeQuote@vikingpest.com,+18006182847,https://www.vikingpest.com/,West Berlin,NJ
Viking Pest Control,CustomerService@vikingpest.com,+18006182847,https://www.vikingpest.com/,West Berlin,NJ
Trap Masters LLC,info@trapmasters.net,+17728009818,http://trapmasters.net/,Port St. Lucie,FL
Pest and Pool Wranglers Inc,info@pestwranglers.com,+15126707808,http://pestwranglers.com/,Round Rock,TX
Viking Pest Control,FreeQuote@vikingpest.com,+18006182847,https://www.vikingpest.com/,Salisbury,MD
Viking Pest Control,CustomerService@vikingpest.com,+18006182847,https://www.vikingpest.com/,Salisbury,MD
"Advantage Pest Control, Inc",info@bugman911.com,+19785619555,https://advantagepestcontrolinc.com/,Topsfield,MA
Xceptional Wildlife Removal,info@xceptionalwildlife.com,+18009297163,https://www.xceptionalwildlife.com/,Summerdale,AL
Smithereen Pest Management Services,info@smithereen.com,+18157262468,https://www.smithereen.com/,Kansas City,MO
Alpha Wildlife Nashville,helpme@alphawildlife.com,+18337671776,https://alphawildlife.com/,Nashville,TN
District Wildlife Solutions Humane Wildlife Removal,districtwildlifesolutions@gmail.com,+12029973410,https://northeastwildlifesolutions.com/,Washington,DC
BugBoss The X-Terminator,info@bugbosswi.com,+18662842677,https://www.bugbosswi.com/,Clintonville,WI
Boone Wildlife Control,bobby@boonewildlife.com,+13142469135,http://boonewildlife.com/,Kirkwood,MO
ANTEX Exterminating,patrick@antexpest.com,+19512075339,https://antexpest.com/,Palm Desert,CA
JP McHale Pest Management,sales@nopests.com,+18004792284,https://nopests.com/,Oakdale,NY
Xceptional Wildlife Removal,info@xceptionalwildlife.com,+18009297163,https://www.xceptionalwildlife.com/,Jacksonville,FL
Sacramento Pest Control by Millennium Termite and Pest,support@mtpest.com,+18002730988,https://www.mtpest.com/,Sacramento,CA
Viking Pest Control,FreeQuote@vikingpest.com,+18006182847,https://www.vikingpest.com/,Wayne,NJ
Viking Pest Control,CustomerService@vikingpest.com,+18006182847,https://www.vikingpest.com/,Wayne,NJ
Viking Pest Control,FreeQuote@vikingpest.com,+18006182847,https://www.vikingpest.com/,Paramus,NJ
Viking Pest Control,CustomerService@vikingpest.com,+18006182847,https://www.vikingpest.com/,Paramus,NJ
Stanley Pest Control,service@stanleypest.com,+13239373819,https://www.stanleypest.com/,South El Monte,CA
"Cayce Exterminating Company, Inc",info@cayceexterminating.com,+18037962847,https://caycebugs.com/,Cayce,SC
El Valle Pest Control,daniel@evpc.services,+19154074967,https://www.evpc.services/,El Paso,TX
Feather Fighters Wildlife Removal,emcd@featherfighters.com,+18435681249,https://featherfighters.com/,Meggett,SC
Adair's Animal Nuisance Trapping,adairsanimals@gmail.com,+15733788739,https://adairs-animals.com/,Eldon,MO
Precision Pest and Wildlife Removal of Anderson County,service@precisionpredator.com,+18643929404,https://precisionpredator.com/,Honea Path,SC
Manning Brothers Pest Control,info@manningpest.com,+19547723077,https://manningpest.com/,Oakland Park,FL
Manning Brothers Pest Control,mbpc@manningpest.com,+19547723077,https://manningpest.com/,Oakland Park,FL
Wilkins Wildlife & BedBug 911,services@wilkinswildlifebedbug911.com,+13022363533,https://wilkinswildlifebedbug911.com/,Bethany Beach,DE
Griffin Pest Management,info@griffinpestmgmt.com,+18884009011,https://www.griffinpestmgmt.com/,Santa Ana,CA
Bella's Exterminator,info@bellasexterminator.com,+16266252869,https://bellasexterminator.com/,Glendora,CA
JP Pest Services,billingquestions@jppestservices.com,+18002222908,https://www.jppestservices.com/,Hingham,MA
JP Pest Services,customerservice@jppestservices.com,+18002222908,https://www.jppestservices.com/,Hingham,MA
Titan Pest Services,info@pestcontrolnjnyc.com,+12017507378,https://www.titanpestservices.com/,Closter,NJ
Dynamite Pest Control,info@dynamitepestcontrol.com,+12154742700,https://dynamitepestcontrol.com/,Philadelphia,PA
Nextgen Pest Solutions,info@ngpest.com,+14702990784,https://ngpest.com/,Suwanee,GA
Wildernex LLC Wildlife Control,info@wildernex.com,+12143969270,http://wildernex.com/,Magnolia,TX
"Pest Control Zionsville | Residential, Commercial Pest Control, Bed Bugs, Stinging Insects, & Rodents Control in Zionsville",pestcontrolzionsville@gmail.com,+13174493246,https://pestcontrolzionsville.com/,Zionsville,IN
JP Pest Services,billingquestions@jppestservices.com,+18002222908,https://www.jppestservices.com/,Meredith,NH
JP Pest Services,customerservice@jppestservices.com,+18002222908,https://www.jppestservices.com/,Meredith,NH
Critterex LLC,norman@critterex.com,+18452195141,https://www.critterex.com/,Lake Katrine,NY
Nextgen Pest Solutions,info@ngpest.com,+14702990784,https://ngpest.com/,Cumming,GA
"Emergency Pest Patrol, LLC.",emergencypestpatrol@yahoo.com,+18776672876,https://emergencypestpatrol.com/,Tampa,FL
"Emergency Pest Patrol, LLC.",questions@emergencypestpatrol.com,+18776672876,https://emergencypestpatrol.com/,Tampa,FL
JP McHale Pest Management,sales@nopests.com,+18004792284,https://nopests.com/,Southampton,NY
Viking Pest Control,FreeQuote@vikingpest.com,+18006182847,https://www.vikingpest.com/,Freehold,NJ
Viking Pest Control,CustomerService@vikingpest.com,+18006182847,https://www.vikingpest.com/,Freehold,NJ
E&J Termite and Pest Control LLC,bugs@ejtermite.com,+16092395665,https://www.ejtermite.com/,Beverly,NJ
Precision Pest and Wildlife Removal,service@precisionpredator.com,+18643929404,https://precisionpredator.com/,Greenville,SC
Complete Pest Solutions,info@completepestsolution.com,+18334276006,https://www.completepestsolution.com/,Youngstown,OH
JEM Pest Solutions,jempestsolutions@gmail.com,+13025351141,https://jempestsolutions.com/,Camden,DE
Xceptional Wildlife Removal,info@xceptionalwildlife.com,+18009297163,https://www.xceptionalwildlife.com/,Wilmington,DE
"Pest Off Exterminators, LLC",info@pestoffllc.com,+19184377378,https://pestoffllc.com/,Claremore,OK
Entex Pest Solutions,info@entexpest.com,+12146128044,https://www.entexpest.com/,Richardson,TX
Rose Pest Solutions Metro Detroit North,info@rosepest.com,+18009667673,https://www.rosepestsolutions.com/,Troy,MI
Robbins Pest Control LLC,robbinspc88@gmail.com,+14196190686,https://www.robbinspestcontrol.com/,Tiffin,OH
Hawkeye Bird and Animal Control & Falconry Experience Florida,hawkeye@hawkeye.ca,+14164295393,https://www.hawkeye.ca/,West Palm Beach,FL
West Palm Beach Wildlife Removal,info@wpbwildliferemoval.com,+15614407121,https://wpbwildliferemoval.com/,West Palm Beach,FL
Smithereen Pest Management Services,info@smithereen.com,+18157262468,https://www.smithereen.com/,New Lenox,IL
Viking Pest Control,FreeQuote@vikingpest.com,+18006182847,https://www.vikingpest.com/,Oakland,NJ
Viking Pest Control,CustomerService@vikingpest.com,+18006182847,https://www.vikingpest.com/,Oakland,NJ
Green Man Exterminator,greenmanexterminator@yahoo.com,+15708514863,http://greenmanexterminator.com/,Tobyhanna,PA
24 Hour Pest Control NYC,info@247pestcontrol.nyc,+18004568400,https://247pestcontrolnyc.com/,New York,NY
417 Pest Solutions,info@417pestsolutions.com,+14173563021,https://417pestsolutions.com/,Springfield,MO
Dallas Fort Worth Wildlife Control,dfwwildlife@icloud.com,+18176067607,https://dfwwildlife.com/,Bedford,TX
Bats and Bugs Pest Solutions,batsandbugspestsolutions@gmail.com,+15152183400,https://batsandbugspestsolutions.com/,Urbandale,IA
Rose Pest Solutions Metro Detroit West,info@rosepest.com,+18009667673,https://www.rosepestsolutions.com/,Livonia,MI
Nextgen Pest Solutions,info@ngpest.com,+14702990784,https://ngpest.com/,Cumming,GA
Nextgen Pest Solutions,info@ngpest.com,+14702990784,https://ngpest.com/,Alpharetta,GA
Alpha Wildlife Knoxville,helpme@alphawildlife.com,+18337671776,https://alphawildlife.com/,Knoxville,TN
Wildlife Removal Flagstaff,info@wildlifeanimalcontrol.com,+19285150335,http://wildlifeanimalcontrol.com/,Flagstaff,AZ
Barnes Wildlife Control,office@barneswildlifecontrol.com,+19373401867,https://barneswildlifecontrol.com/,Beavercreek,OH
Desert Squad Pest & Wildlife – Pest Control and Wildlife Removal,info@desertsquadpestandwildlife.com,+17029079453,https://desertsquadpestandwildlife.com/,Las Vegas,NV
Pestgo Exterminators Inc,info@pestgoexterminatorsinc.com,+18138753083,https://www.pestgoexterminatorsinc.com/,Tampa,FL
Tart Property Services,tartproperty@gmail.com,+12603303298,http://tartproperty.services/,Wabash,IN
Dynamite Pest Control,info@dynamitepestcontrol.com,+12154742700,https://dynamitepestcontrol.com/,Audubon,NJ
Dynamic Pest Control LLC,dynamicfirst@aol.com,+17325053277,http://dynamicpestcontrolnj.com/,Toms River,NJ
Smithereen Pest Management Services,info@smithereen.com,+18157262468,https://www.smithereen.com/,Sheboygan,WI
All Seasons Pest Control Inc.,office@aspest.com,+17342853200,https://www.aspest.com/,Southgate,MI
All Seasons Pest Control Inc.,billing@aspest.com,+17342853200,https://www.aspest.com/,Southgate,MI
Abra Kadabra Environmental Services,info@abrakadabraenvironmental.com,+17635370330,https://abrakadabraenvironmental.com/,Mound,MN
Precision Wildlife Services,info@precisionwildlife.com,+15083781428,http://precisionwildlife.com/,East Bridgewater,MA
Amco Ranger Termite & Pest Solutions,email@amcoranger.com,+13143732847,https://amcoranger.com/,Cottleville,MO
Drake Lawn & Pest Control,info@drakepest.com,+14073737607,https://www.drakepest.com/,Jacksonville,FL
Greenville Wildlife Removal,info@greenvillencwildliferemoval.com,+12526487187,https://greenvillencwildliferemoval.com/,Greenville,NC
Critter Stop,help@critterstop.com,+12145612744,https://critterstop.com/,Southlake,TX
Monterey Bay Pest Control Inc,montereybaypestcontrol@gmail.com,+18313947378,http://montereybaypestcontrol.com/,Seaside,CA
See Pest Control,info@seebugs.com,+12153926871,https://seebugs.com/,Collegeville,PA
Marco Polo Pest Elimination & Animal Trapping LLC,MarcoPoloPestandAnimal@gmail.com,+17278779310,https://marcopolopesteliminationandanimaltrappingllc.com/,Tarpon Springs,FL
"Iowa Illinois Termite & Pest Control, Inc.",support@iailtermite.biz,+13097979823,https://www.iailtermite.biz/,Davenport,IA
Absolute Termite & Pest Control,absolute2003@yahoo.com,+15404429988,https://absolutepestcontrolva.com/,Harrisonburg,VA
Elite Wildlife Removal,elite1wildlife@gmail.com,+13018485048,https://www.eliteanimalsolutions.com/,Colonial Beach,VA
Martin Exterminating,info@mybugexpert.com,+18663720440,https://roanokerapidspestcontrol.com/,Roanoke Rapids,NC
"Top Pest Elimination, Inc.",james@topbugman.com,+18134222155,https://www.topbugman.com/,Tarpon Springs,FL
Omnis Pest Control,info@omnispest.com,+17205834126,https://omnispest.com/,Castle Rock,CO
Wildlife Removal Charlotte,info@charlottepestwildlife.com,+17044198169,http://charlottepestwildlife.com/,Charlotte,NC
Paragon Pest Control,edward@paragonpestcontrol.com,+19417296564,https://www.paragonpestcontrol.com/,Parrish,FL
Parker Pest Pro,parkerpestpro@yahoo.com,+17079627015,http://parkerpestpro.com/,Ukiah,CA
Parker Pest Pro,parkerpestpro@gmail.com,+17079627015,http://parkerpestpro.com/,Ukiah,CA
Melton Pest & Wildlife Control,Loremepsum@gmail.com,+18154998836,https://m-pwc.com/,Prophetstown,IL
Fox Pest Control,service@fox-pest.com,+18559531976,https://fox-pest.com/,Normal,IL
EcoPro Pest Control,myecopropest@gmail.com,+16154570805,https://myecopropestcontrol.com/,Franklin,TN
Nick's Pest Management Inc.,nicks@nickspest.com,+12708211636,http://nickspestcontrolky.com/,Madisonville,KY
"Wildlife Solutions, Inc.",fred@wildlifesolutionsinc.com,+12515104316,https://wildlifesolutionsinc.com/,Fairhope,AL
"Wildlife Solutions, Inc.",jmccool@bellsouth.net,+12515104316,https://wildlifesolutionsinc.com/,Fairhope,AL
"Wildlife Solutions, Inc.",michael@wildlifesolutionsinc.com,+12515104316,https://wildlifesolutionsinc.com/,Fairhope,AL
"Wildlife Solutions, Inc.",info@wildlifesolutionsinc.com,+12515104316,https://wildlifesolutionsinc.com/,Fairhope,AL
"Wildlife Solutions, Inc.",admin@wildlifesolutionsinc.com,+12515104316,https://wildlifesolutionsinc.com/,Fairhope,AL
Vermin Control Co.,vermincontrol@atlanticbbn.net,+17244376351,https://www.vermincontrol.com/,Uniontown,PA
Synergy Pest Control,pcojoe@synergypestcontrol.net,+17205982847,https://synergypestco.com/,Commerce City,CO
World Class Wildlife Removal & Rodent Remediation,worldclasswildlife@gmail.com,+17272631880,https://worldclasswildliferemoval.com/,Sarasota,FL
Rogue Wildlife Control,info@roguewildlifecontrol.com,+17702841466,https://roguewildlifecontrol.com/,Roswell,GA
Jamison Animal Removal,JamisonService@yahoo.com,+17069833090,https://www.jamisonservice.com/,Jefferson,GA
First Rate Pest Solutions,sam@pestfree123.com,+18455342229,https://pestfree123.com/,New Windsor,NY
Molebusters LLC,nomomoles@gmail.com,+15133101356,http://moletrapper.com/,Lawrenceburg,IN
Molebusters LLC,sosmole@yahoo.com,+15133101356,http://moletrapper.com/,Lawrenceburg,IN
Molebusters LLC,molesolution@aol.com,+15133101356,http://moletrapper.com/,Lawrenceburg,IN
Preventive Pest Control Las Vegas,LasVegas@preventivepest.com,+17026490019,https://preventivepestvegas.com/,Las Vegas,NV
Traction Wildlife and Pest Control,info@tractionwildlifeandpest.com,+18186021871,https://tractionwildlifeandpest.com/,Van Nuys,CA
Quick Catch,admin@quick-catch.com,+19048596585,https://quick-catch.com/,Jacksonville,FL
Bug-Z Termite and Pest Control,Team@bugzpest.com,+14029914005,https://www.bugzpest.com/,Omaha,NE
Great Lakes Nuisance Animal Control,carl@greatlakesnac.com,+12318306538,https://www.greatlakesnuisanceanimalcontrol.com/,Muskegon Charter Township,MI
"Huntsman Wildlife, LLC",huntsmanwildlife@gmail.com,+15134005218,https://www.huntsmanwildlife.com/,Batavia,OH
AAPEX PEST CONTROL,aapex@aapex.org,+15867252847,https://www.aapex.org/,New Baltimore,MI
Muddy Waters Wildlife Control,muddywaterswildlifecontrol@gmail.com,+17406379965,http://muddywaterswildlifecontrol.com/,Chillicothe,OH
Dr. Death Pest Control Inc.,drdeathpestcontrol@yahoo.com,+17864682847,https://drdeathinc.com/,Miami,FL
Resolve Pest Solutions,info@resolvepestsolutions.com,+17737561404,https://resolvepestsolutions.com/,Chicago,IL
Fur Finder,eileen@furfindernj.com,+18333873463,https://www.furfindernj.com/,Roseland,NJ
A-Team Wildlife & Pest Solutions,ateamwildlifepest@gmail.com,+18007669352,https://ateamwildlifepest.com/,Morrisville,PA
Attic Animal Pest Raleigh,info@raleighanimalattic.com,+19198876585,https://raleighanimalattic.com/,Raleigh,NC
J Douglass Wildlife Handyman LLC,jdouglasswildlifehandyman@gmail.com,+17065318118,https://www.jdouglasswildlifehandyman.com/,Clermont,GA
Trapper Ron’s,rgbassociates@msn.com,+12489390314,https://trapperron.com/,Northport,MI
Francis Animal and Pest Control,sean@fallscreekservices.com,+18668382868,https://fallscreekservices.com/,Center City,MN
Wingman Pest Control,office@wingmanpest.com,+18109233364,https://wingmanpest.com/,South Lyon,MI
Critter Cowboys,crittercowboys1@gmail.com,+16784090478,https://www.thecrittercowboy.com/,Woodstock,GA
Bug Busters Inc,support@bugbustersincsc.com,+18006330694,http://bugbustersincsc.com/,Hampton,SC
Piedmont Wildlife & Pest Management,pwpm20@gmail.com,+18042714614,https://piedmontwpm.com/,Richmond,VA
Cagey Critter Wildlife Removal & Trapping,jacob@cageycritter.com,+12108462694,https://cageycritter.com/,San Antonio,TX
"Snake Guru, LLC",nickmassimo@snakeguru.com,+19285336276,https://www.snakeguru.com/,Phoenix,AZ
"Varment Wildlife Control, Inc.",info@varmentwildlifecontrol.com,+18448276368,https://www.varmentwildlifecontrol.com/,Valley Stream,NY
"All Service Pest Management, Inc",allservicepestmanagement@yahoo.com,+19416275833,https://www.allservicepestmgmt.com/,Port Charlotte,FL
Catch A Critter - Wildlife Removal Specialists,catchacritterga@gmail.com,+14706808102,https://www.catchacritterga.com/,Cumming,GA
NCS Wildlife Solutions,ncswildlifesolutions@outlook.com,+12039823173,https://www.ncswildlifesolutions.com/,Milford,CT
Charlotte Wildlife Removal,office@charlottewildliferemoval.net,+17048371815,https://charlottewildliferemoval.net/,Charlotte,NC
Illinois State Wildlife Service,info@illinoisstatewildlifeservice.com,+13094096245,http://illinoisstatewildlifeservice.com/,Manito,IL
ProTrappers LLC,protrappers@protrappers.com,+16098003734,https://www.protrappers.com/,Burlington,NJ
Pest Patrol,bugs@grandecom.net,+13618524002,https://pestpatrolcc.com/,Corpus Christi,TX
"Warner's Outdoor Solutions, Inc.",office@warnersoutdoorsolutions.com,+16517352100,https://warnersoutdoorsolutions.com/,Woodbury,MN
"Warner's Outdoor Solutions, Inc.",RJWarner@warnersoutdoorsolutions.com,+16517352100,https://warnersoutdoorsolutions.com/,Woodbury,MN
"Warner's Outdoor Solutions, Inc.",info@warnersoutdoorsolutions.com,+16517352100,https://warnersoutdoorsolutions.com/,Woodbury,MN
"Suamico Trap, LLC",suamicotrap@gmail.com,+19208197272,https://suamicotrap.com/,Suamico,WI
Flexible Pest Services,info@flexiblepestservices.com,+17702646454,https://flexiblepestservices.com/,Loganville,GA
"Janus Pest Management, Inc.",service@januspest.com,+18885268744,https://januspest.com/,Glendora,CA
"Elite Pest Solutions, LLC",info@elite-pests.com,+16085727839,https://elite-pests.com/,Madison,WI
#1 'Til Done Pest Control,thebugguy@tildonepestcontrol.com,+18623778178,https://www.tildonepestcontrol.com/,Bloomingdale,NJ
Raptor Rodent and Wildlife Services,RaptorRodent@gmail.com,+13468311531,https://raptorrodent.com/,Spring,TX
Aapex Pest Control,aapex@aapex.org,+15867252847,https://www.aapex.org/,St Clair,MI
The Wildlife Professionals of Wheeling,cary@twpwheeling.com,+13046503529,https://twpwheeling.com/,Wheeling,WV
"Animal Pro, Inc.",info@animalproinc.com,+12486768800,https://animalproinc.com/,Brighton,MI
Smoky Wildlife Control,info@smokywildlifecontrol.com,+19312664319,https://www.smokywildlifecontrol.com/,Clarksville,TN
Crown Pest Control,info@crownpestonline.com,+15403732047,http://crownpestonline.com/,King George,VA
Flyaway Geese & Wildlife Management,sales@flyawaybordercollies.com,+17049752575,https://flyawaygeese.com/,Stanfield,NC
Sunstate Pest Solutions,sunstatepestsolutions@gmail.com,+14074025308,https://sunstatepestsolutions.com/,Sanford,FL
Fox Pest Control,service@fox-pest.com,+18559531976,https://fox-pest.com/,Berlin,CT
Animal Control Experts,info@animalcontrolexpertstx.com,+15125845552,https://www.animalcontrolexpertstx.com/,Austin,TX
Target Pest Control,targetpestcontrol@rochester.rr.com,+15854277175,http://targetpestcontrolny.com/,Rush,NY
Patriot Pest Management LLC,info@patriotpestusa.com,+18668202501,https://patriotpestusa.com/,Westminster,MD
Beacon Pest Control,service@beaconpestcontrol.com,+18003002752,https://beaconpestcontrol.com/,Hoquiam,WA
A-1 Able Pest Doctors,info@pestdoc.com,+19372309269,https://pestdoc.com/,Springfield,OH
"Florida Wildlife Busters, LLC",flwildlifebusters@gmail.com,+14077338623,http://floridawildlifebusters.com/,Lake Mary,FL
Care Pest Pros,Customerservice@carepestpros.com,+15127929520,https://www.carepestpros.com/,Spicewood,TX
CFour Spraying LLC,derek_chisum@cfoursprayingllc.com,+14055450548,https://cfourspraying.com/,Hydro,OK
Finger Lakes Wildlife Control LLC,brooktrout28@yahoo.com,+13152272065,https://fingerlakeswildlifecontrol.com/,Dundee,NY
Martin Exterminating Company,info@mybugexpert.com,+18663720440,https://roanokerapidspestcontrol.com/,Littleton,NC
Select Exterminating,henry@selectexterminating.com,+18003116655,https://selectexterminating.com/,Bronx,NY
Venus Pest Company,service@venuspest.com,+19797740486,https://www.venuspest.com/,College Station,TX
Fox Pest Control,service@fox-pest.com,+18559531976,https://fox-pest.com/,Manchester,NH
Gavilan Pest Control,gavilanpc@att.net,+18006757909,https://www.gavilanpestcontrol.com/,Salinas,CA
Platinum Wildlife Solutions LLC,platinumwildlifesolutions@gmail.com,+14432011003,https://platinumwildlifesolutions.com/,Abingdon,MD
Ozark Pest Solutions,info@ozarkpestsolutions.com,+15738733424,https://www.ozarkpestsolutions.com/,Waynesville,MO
Seitz Wildlife & Chimney Services,seitzwildlife@gmail.com,+16109992606,https://seitzwildlife.com/,Elverson,PA
Enviro-Tech Pest Control Inc.,envirotech2014@gmail.com,+19512891502,http://enviro-techpestcontrol.com/,Menifee,CA
Drake Lawn & Pest Control,info@drakepest.com,+14073737607,https://www.drakepest.com/,Daytona Beach,FL
Better Wildlife Control,betterwildlifecontrol@gmail.com,+19517956093,https://betterwildlifecontrol.com/,Idyllwild-Pine Cove,CA
Rat Patrol Rodent Control,RatPatrolKevin@gmail.com,+19549444080,https://ratcontrolflorida.com/,Stuart,FL
Butler Pest Control Services,butlertermitetn@gmail.com,+17314244074,https://www.butlerpestcontroltn.com/,Jackson,TN
Texas Pest & Wildlife,texaspestandwildliferemoval@gmail.com,+12813938001,https://texaspestandwildlife.com/,Spring,TX
Arete Pest Control,info@aretepestcontrol.com,+17709548770,http://aretepestcontrol.com/,Dacula,GA
Fowler and Sons Pest Control,richrideout@fowlerandsonsinc.com,+15087715008,https://www.fowlerandsonsinc.com/,Hyannis,MA
Fowler and Sons Pest Control,tracy@fowlerandsonsinc.com,+15087715008,https://www.fowlerandsonsinc.com/,Hyannis,MA
Fowler and Sons Pest Control,bugs@fowlerandsonsinc.com,+15087715008,https://www.fowlerandsonsinc.com/,Hyannis,MA
Fowler and Sons Pest Control,mikeparsons@fowlerandsonsinc.com,+15087715008,https://www.fowlerandsonsinc.com/,Hyannis,MA
Fox Pest Control,service@fox-pest.com,+18559531976,https://fox-pest.com/,Logan,UT
"Blythewood Wildlife Removal, Lexington",BlythewoodWildlifeRemoval@gmail.com,+18037609166,https://www.blythewoodwildliferemoval.com/,Lexington,SC
"Blythewood Wildlife Removal, Columbia",BlythewoodWildlifeRemoval@gmail.com,+18037609166,https://www.blythewoodwildliferemoval.com/,Columbia,SC
Wrex Wildlife,rex@wrexwildlife.com,+19145669739,https://www.wrexwildlife.com/,Croton-On-Hudson,NY
Fox Pest Control,service@fox-pest.com,+18559531976,https://fox-pest.com/,Scott,LA
"Advantage Pest Control, Inc.",info@advantagepestnorcal.com,+19168991222,https://advantagepestnorcal.com/,Roseville,CA
Stormin' Norman Termite and Pest Control,storminnorman@azpestcontrol.com,+15205680426,https://www.azpestcontrol.com/,Maricopa,AZ
"Suburban Pest Services, Inc.",SuburbanPest@aol.com,+17033356030,https://www.suburbanpestservices.com/,Manassas,VA
Beaver County Wildlife Removal,info@beavercountywildlife.com,+17243833462,https://beavercountywildlife.com/,Beaver,PA
Iguana Removal 305,hello@iguanaremoval305.com,+13057471488,https://iguanaremoval305.com/,Miami,FL
JP Pest Services,billingquestions@jppestservices.com,+18002222908,https://www.jppestservices.com/,White River Junction,VT
JP Pest Services,customerservice@jppestservices.com,+18002222908,https://www.jppestservices.com/,White River Junction,VT
MTB Pest Control,mtbpest@gmail.com,+13014492937,https://www.mtbpestcontrol.net/,District Heights,MD
All Star Home Services,allstar.homeservices@yahoo.com,+19013566908,https://www.allstartn.com/,Moscow,TN
Lovelace Wildlife Control,zanelovelace61@gmail.com,+19182412402,https://lovelacewildlifecontrol.com/,Sand Springs,OK
Grim D Extreme Outfitters LLC,hogtrapping@grimdextremehogtrapping.com,+18034200071,https://www.grimdextremehogtrapping.com/,Elgin,SC
Grim D Extreme Outfitters LLC,grimdextreme@gmail.com,+18034200071,https://www.grimdextremehogtrapping.com/,Elgin,SC
Dame Pest Solutions Inc,info@clementspestcontrol.com,+15612000705,https://www.clementspestcontrol.com/dame/,Naples,FL
BARHK Wildlife Solutions LLC,barhkwildlife@gmail.com,+19378443091,https://barhkwildlife.com/,West Manchester,OH
Dependable Pest Management,info@pestsgone.com,+14107785658,https://www.dependablepestmanagement.com/,Chestertown,MD
McCauley Agricultural & Pest Control,gmccauley@mccauleyag.com,+19256341255,https://mccauleyag.com/,Brentwood,CA
"Liberty Pest Control, Inc.",info@libertypestnyc.com,+17188379030,https://libertypest.nyc/,Brooklyn,NY
Critter Removal Indianapolis,office@critterindy.com,+13175140898,https://critterremovalindianapolis.com/,Indianapolis,IN
"Out Right Wildlife Solutions, LLC",info@outrightwildlife.com,+17209250316,https://outrightwildlife.com/,Castle Rock,CO
Northwest Nuisance Wildlife Control Company,NNWC1985@willardspestcontrol.com,+14258207476,https://seattlewildlifecontrol.com/,Kirkland,WA
Snowball Pest Control,snowballpestcontrol@gmail.com,+18596357793,https://snowballpestcontrol.com/,Highland Heights,KY
Serve Pest Control,servepestcontrol@gmail.com,+14352535394,https://servepestcontrol.com/,Sandy,UT
Nick and Sons Critter Control LLC,Nkennebeck28@gmail.com,+16129780469,https://nickandsonscrittercontrolllc.com/,Hastings,MN
Easy Peasy Home Services,holcomb@easypeasyhomeservices.com,+18506654329,https://www.easypeasyhomeservices.com/,Milton,FL
BURROW Hi- Tech Gopher Control,burrownw@gmail.com,+15412823225,https://www.burrownw.com/,Grants Pass,OR
"Lookout Pest Control, Formerly Cramer",info@cramerpest.com,+18038872917,https://cramerpestcontrol.com/,Fort Mill,SC
Arete Pest Control,info@aretepestcontrol.com,+17709548770,http://aretepestcontrol.com/,Norcross,GA
Pro 1 Pest Control,info@obxpest.com,+12522613111,https://obxpest.com/,Kill Devil Hills,NC
Total Exterminating Services,steven.shetter@tespest.com,+17179513868,https://www.tespest.com/,Columbia,PA
Wingman Pest Control,office@wingmanpest.com,+18109233364,https://wingmanpest.com/,Chelsea,MI
EcoPro Pest Control - Columbia,myecopropest@gmail.com,+16154570805,https://myecopropestcontrol.com/,Columbia,TN
Squash Pest Control LLC,squashpestcontrol@gmail.com,+19109181167,https://squashpestcontrol.com/,Little River,SC
Professional Termite & Pest Control,contact@jerseyexterminator.com,+12017980087,https://www.jerseyexterminator.com/,Jersey City,NJ
Rats to Bats Pest & Wildlife Control,info@ratstobats.com,+17726318547,https://www.ratstobats.com/,Palm City,FL
A Wildlife Whisperer,help@totalwildlifecontrol.com,+12399006411,https://totalwildlifecontrol.com/,Cape Coral,FL
Houston Gulf Coast Exterminators,info@gcepests.com,+12814497404,https://gcepests.com/,Houston,TX
Rapid Wildlife Services,jake@rapidwildlife.com,+15633492535,https://www.rapidwildlife.com/,Davenport,IA
Aspen Pest Control Vancouver,service@aspenpestservice.com,+15034054300,https://aspenpestservice.com/,Vancouver,WA
King Exterminating Co.,alan@kingexterminating.com,+12529378878,https://www.kingexterminating.com/,Rocky Mount,NC
Pro Defense Pest Control - San Antonio,prodefensepestcontrol@gmail.com,+12109019150,https://www.prodefensepestcontrol.com/,San Antonio,TX
The Bug Master,customerservice@thebugmaster.com,+12549394458,https://thebugmaster.com/,Temple,TX
Hartz Pest Control,asawyer@hartzpestcontrol.com,+17134614866,https://hartzpestcontrol.com/,Houston,TX
Hartz Pest Control,tcollier@hartzpestcontrol.com,+17134614866,https://hartzpestcontrol.com/,Houston,TX
Hartz Pest Control,jsmith@hartzpestcontrol.com,+17134614866,https://hartzpestcontrol.com/,Houston,TX
Hartz Pest Control,npatnaude@hartzpestcontrol.com,+17134614866,https://hartzpestcontrol.com/,Houston,TX
"LaHara Pest Termite and Wildlife services,LLC.",luigi@laharapest.com,+19739289500,http://laharapest.com/,Newark,NJ
Elite Wildlife Solutions,todd@elitewildlifesolutionsga.com,+14703048341,https://elitewildlifesolutionsga.com/,Ball Ground,GA
Elite Wildlife Solutions,elitewildlifesolutions1@gmail.com,+14703048341,https://elitewildlifesolutionsga.com/,Ball Ground,GA
Wild Science Solutions,info@wildsciencesolutions.com,+19195578000,https://wildsciencesolutions.com/,Holly Springs,NC
"PeeDee Wildlife Control, Inc.",gatorgitter@icloud.com,+18433196720,https://peedeewildlifecontrolinc.com/,Florence,SC
Holmes Pest Control,info@holmespestcontrolinc.com,+13306749094,https://www.holmespestcontrolinc.com/,Millersburg,OH
Complete Pest Solutions Of Akron,info@completepestsolution.com,+18334276006,https://www.completepestsolution.com/,Kent,OH
Protective Thermal Solutions,info@pts-pest.com,+16143125770,https://pts-pest.com/,Columbus,OH
"Lycan 360, llc",service@lycan360.com,+15043009722,https://lycan360.com/,Metairie,LA
American Pest Control,info@organicpestcontrolinmichigan.com,+12485852600,https://organicpestcontrolinmichigan.com/,Troy,MI
Vinx Pest Control,info@vinxpestcontrol.com,+19728558469,https://vinxpestcontrol.com/,Virginia Beach,VA
Fox Pest Control Rochester,service@fox-pest.com,+18559531976,https://fox-pest.com/,Rochester,NY
The Bug Master,customerservice@thebugmaster.com,+12549394458,https://thebugmaster.com/,Austin,TX
Blue Ridge Wildlife & Pest Management,info@blueridgewildlife.net,+15407761769,https://blueridgewildlife.net/,Roanoke,VA
A Bad Critter Raccoon & Squirrel Removal,squirrelman444@yahoo.com,+16093746794,https://abadcritter.com/,Atco,NJ
Bat Free Batproofing Plymouth Minnesota,batfreemn@yahoo.com,+16123235313,https://batfree.net/,Plymouth,MN
Diam Pest Control,perrylee@diampestcontrol.com,+15152443533,https://www.diampestcontrol.com/,Urbandale,IA
Diam Pest Control,Diamservice@diampestcontrol.com,+15152443533,https://www.diampestcontrol.com/,Urbandale,IA
A&R Pest Solutions,info@arpestsolutions.com,+13605241674,http://aandrpestsolutions.com/,Vancouver,WA
Vinx Pest Control,info@vinxpestcontrol.com,+19728558469,https://vinxpestcontrol.com/,Greer,SC
Eco-Safe Pest Control,info@ecosafepest.com,+12143577373,https://ecosafepest.com/,Dallas,TX
World Class Wildlife Removal & Rodent Remediation,worldclasswildlife@gmail.com,+17272631880,https://worldclasswildliferemoval.com/,Largo,FL
Rats to Bats Pest & Wildlife Control,info@ratstobats.com,+17726318547,https://www.ratstobats.com/,Port St. Lucie,FL
Fox Pest Control,service@fox-pest.com,+18559531976,https://fox-pest.com/,Lubbock,TX
BatGuys,info@batguys.com,+18663202287,http://batguys.com/,East Taunton,MA
PJ Mac Pest Control,info@pjmacpestcontrol.com,+16109466822,https://pjmacpestcontrol.com/,Media,PA
Long's Termite & Pest Control Inc.,longspestcontrol@gmail.com,+14345281644,https://www.longstermiteandpestcontrol.com/,Lynchburg,VA
Massey Services Pest Control,hornes@hornespestcontrol.com,+18036439598,http://hornespestcontrol.com/,Martinez,GA
AJS Wildlife Solutions,info@ajswildlifesolutions.com,+13143204944,https://ajswildlifesolutions.com/,St. Louis,MO
Bee Conscious Removal,chrisbconrad@comcast.net,+14153505700,https://beeconsciousremoval.com/,Santa Rosa,CA
L&M Prairie Control,lmprairiecontrol@gmail.com,+19703974404,https://www.lmprairiecontrol.com/,Greeley,CO
All American Pest Control,Office@pestcontrolinorlandofl.com,+13215597378,https://www.pestcontrolinorlandofl.com/,Orlando,FL
Rodent Guys,contact@rodentguys.com,+18188694284,https://rodentguys.com/,San Dimas,CA
"Frontier Trapper, LLC",amanda@frontiertrapper.com,+18169148660,https://www.frontiertrapper.com/,Overland Park,KS
Countryside Pest Control,joel@countrysidepest.net,+17172789918,http://countrysidepest.net/,Stevens,PA
"Captor Wildlife Services, Inc.",bob@captorwildlife.com,+13154955561,https://captorwildlife.com/,Munnsville,NY
Wingman Pest Control,office@wingmanpest.com,+18109233364,https://wingmanpest.com/,Lansing,MI
EcoPest Solutions - Pest & Wildlife Management,jake@ecopestsolutionsohio.com,+14193452099,https://ecopestsolutionsohio.com/,Maumee,OH
Bee Bat & Bird Men,beebatbird@gmail.com,+18042882220,https://www.beebatbirdmen.com/,Richmond,VA
Saber Exterminating,info@saberexterminating.com,+19195570999,https://www.saberexterminating.com/,Fuquay-Varina,NC
Buckeye Wildlife Solutions NW,buckeyewildlifenw@gmail.com,+14195522001,https://buckeyewildlifesolutionsnw.com/,Clyde,OH
"Action Pest Control, Inc.",email@actionpest.net,+16143679500,https://actionpest.net/,Columbus,OH
VIP Wildlife Control,vipwildlifecontrol@gmail.com,+14702388816,https://www.vipwildlifecontrol.com/,Flowery Branch,GA
ANTEX Exterminating,antex1955@aol.com,+19107189357,https://antexexterminating.com/,Pinehurst,NC
A#1 Animal and Pest Control,devin_isom@yahoo.com,+17174223916,https://animalandpestcontrol.com/,East Stroudsburg,PA
Acorn Wildlife solutions,acornwildlifesolutions@gmail.com,+14136260434,https://www.acornwildlifesolutions.com/,Russell,MA
Fox Pest Control,service@fox-pest.com,+18559531976,https://fox-pest.com/,Mandeville,LA
Mid-Atlantic Pest Control,manny@midatlanticpestcontrol.com,+17328137378,https://midatlanticpestcontrol.com/,Lakewood,NJ
McDonald Pest Control,mpcmanage@gmail.com,+17277340963,https://www.mcdonaldpestcontrol.com/,Largo,FL
Vinx Pest Control,info@vinxpestcontrol.com,+19728558469,https://vinxpestcontrol.com/,Richardson,TX
Naperville Pest Control Pros,napervillepestcontrol@gmail.com,+16302164440,http://napervillepestcontrolpros.com/,Naperville,IL
Wild Trappers,Dave@wildtrappers.com,+17705044154,https://wildtrappers.com/,Woodstock,GA
Matrix Pest & Termite Company,info@pestmatrix.com,+18442628749,http://pestmatrix.com/,South El Monte,CA
Aspen Pest Control Portland,service@aspenpestservice.com,+15034054300,https://aspenpestservice.com/,Happy Valley,OR
Wildlife Rescue and Control Inc.,info@wildliferescueandcontrolinc.com,+18005324605,http://wildliferescueandcontrolinc.com/,Greenwood,IN
TNR Exterminators Inc,customerservice@tnrexterminators.net,+17183382526,http://tnrpestcontrol.com/,Brooklyn,NY
The LadyBug Pest and Wildlife Control,info@calltheladybug.com,+13176012873,https://www.calltheladybug.com/,Zionsville,IN
SurGuard Exterminating Inc,info@surguardexterminating.com,+14049999999,http://surguardexterminating.com/,Ball Ground,GA
Prime Pest Solutions,wecare@primepestsolutionsco.com,+17204421887,https://www.primepestsolutionsco.com/,Longmont,CO
Animal Xtractors,ssprattwildlife@gmail.com,+12486789931,https://animalxtractors.com/,Rochester Hills,MI
Get'em Gone Wildlife Removal LLC,Getemgonellc@yahoo.com,+16073217694,https://getemgonellc.com/,Endicott,NY
Scenic City Wildlife,sceniccitywildliferemoval@gmail.com,+14236005715,https://www.sceniccitywildliferemoval.com/,Hixson,TN
Vinx Pest Control,info@vinxpestcontrol.com,+19728558469,https://vinxpestcontrol.com/,Columbia,SC
Eastside Exterminators,info@eastsideexterminators.com,+14253187912,http://eastsideexterminators.com/,Woodinville,WA
Agile Pest Control,support@agilepests.com,+17327242269,https://agilepests.com/,Holmdel,NJ
Smoky Wildlife Control,info@smokywildlifecontrol.com,+19312664319,https://www.smokywildlifecontrol.com/,Nashville,TN
Mucky Boot Pest Control,muckybootpest@gmail.com,+14352589771,https://muckybootpestcontrol.com/,Eagle Mountain,UT
"Preferred Pest Management - Pest Control, Mosquito Control & Wildlife Removal",owner@preferredpestmanagement.org,+12149783877,https://preferredpestmanagement.org/,Plano,TX
Pro Defense Pest Control New Braunfels,prodefensepestcontrol@gmail.com,+12109019150,https://www.prodefensepestcontrol.com/,New Braunfels,TX
"Southern Fumigation and Pest Control, Inc.",patricia@southernfumigationpc.com,+19042599811,https://southernfumigationpc.com/,Macclenny,FL
Trap Kings Animal Trapping & Pest Control Services,trapkingsfl@gmail.com,+19415488071,https://www.sarasotaanimalcontrol.com/,Sarasota,FL
Clays Wildlife & Pest Services,clayswildlife@gmail.com,+16036677016,http://clayswildlifeservices.com/,Gilmanton,NH
"GRS Wildlife Control - Nuisance Wildlife Removal servicing SC & NC squirrels, bats, skunks, snakes and more",melissalakehomedesign@gmail.com,+18643609701,https://grswildlifecontrol.wordpress.com/,West Union,SC
Optimum Pest Control,info@optimumpestcontrol.com,+15165098362,https://www.optimumpestcontrol.com/,Larchmont,NY
Gopher Patrol,alexgopherpatrol@gmail.com,+15034876895,http://gopherpatroloregon.com/,Amity,OR
Critter Removal Ohio,office@critterohio.com,+13175140898,https://critterohio.com/,Columbus,OH
Fox Pest Control Buffalo,service@fox-pest.com,+18559531976,https://fox-pest.com/,Williamsville,NY
Carroll Exterminating Company,carrollext@gmail.com,+17709971118,https://www.carrollext.com/,Fayetteville,GA
Fox Pest Control Odessa,service@fox-pest.com,+18559531976,https://fox-pest.com/,Odessa,TX
Pest Control Services,pcs2005@hotmail.com,+16184937725,https://pestcontrolservicesil.com/,Hoyleton,IL
T.N.T Exterminators,tntexterminators@att.net,+17082688720,https://tntexterminators.com/,Oak Lawn,IL
Bandit Busters Pest & Wildlife Management,info@banditbusters.com,+19032266555,https://www.banditbusters.com/,Quinlan,TX
A-1 Able Pest Doctors,info@pestdoc.com,+19372309269,https://pestdoc.com/,Troy,OH
PJ Mac Pest Control,info@pjmacpestcontrol.com,+16109466822,https://pjmacpestcontrol.com/,West Chester,PA
ADC-Animal Damage Control,matt@animaldamagecontrolofillinois.com,+12173770969,https://animaldamagecontrolofillinois.com/,St Joseph,IL
CT Mole Pro,info@ctmolepro.com,+18605504568,https://www.ctmolepro.com/,Mansfield Center,CT
Pest Control Specialists,contact@pestcontrolsiouxland.com,+17123952772,https://www.pestcontrolsiouxland.com/,Alton,IA
Same Day Wildlife Removal,samedaywildlife@gmail.com,+15139303002,https://samedaywildlife.com/,Cincinnati,OH
Emerald Tree & Shrub Care Company,info@emeraldtreecare.com,+17183637253,https://www.emeraldtreecare.com/,New Rochelle,NY
Suburban Wildlife Solutions LLC,SuburbanWS@gmail.com,+19202281033,https://suburbanwildlifesolutionsllc.com/,Kaukauna,WI
SWAT Pest Squad,info@swatpestsquad.com,+13058349821,https://www.swatpestsquad.com/,Hollywood,FL
ATA Family Pest Solutions,atafamilypest@gmail.com,+16782355280,https://www.atafamilypestsolutions.com/,Demorest,GA
S&S Pest Control,sspestcontrol.ss@gmail.com,+14192972964,https://www.sandspestcontrolco.com/,Toledo,OH
Alabama Pest Control,info@alabamapest.com,+12055957378,https://www.alabamapest.com/,Birmingham,AL
PIG PROBLEM INC. - Hog Hunting,info@pigproblem.com,+17069275580,https://www.pigproblem.com/,Americus,GA
Imperial Pest Prevention,imperialpestprevent@gmail.com,+13869569506,https://it.imperialpestprevent.com/,South Daytona,FL
Long Island Exterminator - Optimum Pest Control,info@optimumpestcontrol.com,+15165098362,https://www.optimumpestcontrol.com/,Wantagh,NY
Fox Pest Control York,service@fox-pest.com,+18559531976,https://fox-pest.com/,York,PA
Fox Pest Control Baton Rouge,service@fox-pest.com,+18559531976,https://fox-pest.com/,Baton Rouge,LA
Dog & Whistle Goose Control,info@dogandwhistlegoosecontrol.com,+15308233628,https://dogandwhistlegoosecontrol.com/,Auburn,CA
Austin's Wildlife Removal Services,info@austinswildliferemoval.com,+15122780278,https://www.austinswildliferemoval.com/,Round Rock,TX
Hunt Country Wildlife Control LLC,info@huntcountrywildlifecontrol.com,+17035819146,https://huntcountrywildlifecontrol.com/,Purcellville,VA
Tall Timber Wildlife Services LLC,info@talltimberwildlife.com,+17249722420,https://www.talltimberwildlife.com/,Greensburg,PA
Faircloth Chimney Sweeps and Wildlife Removal LLC,fairclothchimney@gmail.com,+13366393632,https://www.fairclothchimneysweeps.com/,Burlington,NC
Excalibur Pest Control,info@excaliburpest.com,+12813536366,https://www.excaliburpest.com/,Conroe,TX
ABC Home & Commercial Services,abcbees@comcast.net,+18107945678,https://www.abcbees.com/,Clay Township,MI
Red Beards Wildlife Solutions,Trevor@redbeardwildlife.com,+14059198101,https://redbeardwildlife.com/,Edmond,OK
ARC Animal Removal & Control,animalremovalandcontrol@gmail.com,+15138068556,https://arcecosystems.com/,Okeana,OH
Anderson Wildlife Control LLC,kurtandersonwildlife@gmail.com,+12037580555,https://www.andersonwildlifecontrolllc.com/,Naugatuck,CT
Northeast Wildlife Removal LLC,newildliferemoval@gmail.com,+17159271353,http://newildliferemoval.com/,Wausaukee,WI
"St. Clair County Critter Removal, LLC",906mutt@gmail.com,+18109909964,https://stclaircountycritterremoval.com/,Fort Gratiot Twp,MI
120 Pest - Marietta,contact@120pest.com,+14042478091,https://120pest.com/,Marietta,GA
Fox Pest Control Acton,service@fox-pest.com,+18559531976,https://fox-pest.com/,Acton,MA
G Green Inc. Pest and Wildlife Management,BellinghamExterminator@gmail.com,+13603893599,https://www.bellinghamexterminator.com/,Bellingham,WA
High Country Pest Solutions,info@highcountrypestsolutions.com,+18284574469,https://www.highcountrypestsolutions.com/,Vilas,NC
GoPestTech,gopesttech@gmail.com,+19209334000,https://gopesttech.com/,Fond du Lac,WI
A-1 Able Pest Doctors,info@pestdoc.com,+19372309269,https://pestdoc.com/,Dayton,OH
Cheshire County Wildlife Removal,info@cheshirecountywildliferemoval.com,+16038766259,https://cheshirecountywildliferemoval.com/,Keene,NH
Rest Easy Pest Control,info@resteasypestcontrol.com,+15168064382,https://www.resteasypestcontrol.com/,Glen Cove,NY
Bat Specialists of Wisconsin,batspecofwi@gmail.com,+19204683556,https://www.batspecialistsofwi.com/,Green Bay,WI
PestDepot.com,contact@pestdepot.com,+19545495509,https://pestdepot.com/,Deerfield Beach,FL
AR1 Group,info@ar1groupllc.com,+18665801977,https://ar1groupllc.net/,Alexandria,VA
Far Hills Pest Control and Home Services,farhillspestcontrol@gmail.com,+19372347741,https://farhillspestcontrol.com/,Centerville,OH
Samson Pest and Termite Services,info@samsonpest.com,+12816980085,https://www.samsonpest.com/,Houston,TX
Fox Pest Control Corpus Christi,service@fox-pest.com,+18559531976,https://fox-pest.com/,Corpus Christi,TX
World Class Wildlife Removal & Rodent Remediation,worldclasswildlife@gmail.com,+17272631880,https://worldclasswildliferemoval.com/,Tampa,FL
Placer Snake Removal,tyler@placersnakeremoval.com,+19165091087,https://www.placersnakeremoval.com/,Rocklin,CA
PJ Mac Pest Control,info@pjmacpestcontrol.com,+16109466822,https://pjmacpestcontrol.com/,Glen Mills,PA
Wildwoods Pest Control & Crawl Space Solutions,wildwoodspestcontrol1@gmail.com,+15033864100,https://wildwoodspestcontrol.com/,Sandy,OR
Drake Lawn & Pest Control,info@drakepest.com,+14073737607,https://www.drakepest.com/,Orlando,FL
Hawaii Wildlife Removal,hawaiiwildliferemoval@gmail.com,+18088967140,https://www.hawaiiwildliferemoval.com/,Hilo,HI
"Critter Wranglers, LLC",info@critterwranglerstn.com,+18653442985,https://critterwranglerstn.com/,Powell,TN
Squared Away Pest Control,guy@squaredawaypestcontrol.com,+17813531989,https://www.squaredawaypestcontrol.com/,Pembroke,MA
Squared Away Pest Control,admin@squaredawaypestcontrol.com,+17813531989,https://www.squaredawaypestcontrol.com/,Pembroke,MA
A & B Termite & Pest Control,aandbtermite@gmail.com,+18654758429,https://www.aandbtermite.com/,New Market,TN
A All Animal Control of Central Texas,wildlifecareer@aallanimalcontrol.com,+15126863485,http://aallanimalcontrol.com/,Austin,TX
Honest Rodent Proofing Inc,customercare@honestrodentproofing.com,+19254333988,https://www.honestrodentproofing.com/,Walnut Creek,CA
Buckeye Wildlife Solutions,intel@buckeyewildlifesolutions.com,+14403989418,https://www.buckeyewildlifesolutions.com/,Delaware,OH
Christmans Wildlife Services,christman5@aol.com,+13194627923,http://christmanswildlife.com/,Moline,IL
S.W.A.T Critter Solutions,swatllcmi@gmail.com,+15173768708,https://swatnow.com/,Walled Lake,MI
Schneider's Wildlife Control LLC,schniederswildlifecontrol@yahoo.com,+17153457012,https://www.schneiderswildlifecontrol.com/,Stevens Point,WI
Gray Brothers Bat-Wildlife-Squirrel Removal CT,eric@graybrotherswildlife.com,+12038551888,https://www.graybrotherswildlife.com/,Norwalk,CT
Sigma Pest Control,info@sigmapest.com,+15409474462,https://www.sigmapest.com/,Fredericksburg,VA
Christmans Wildlife Services,christman5@aol.com,+13194627923,http://christmanswildlife.com/,Rock Island,IL
Honey Bee Joe,joe@honeybeejoe.com,+19514668765,https://honeybeejoe.com/,Temecula,CA
Fox Pest Control Syracuse,service@fox-pest.com,+18559531976,https://fox-pest.com/,Syracuse,NY
PESTBUSTERS LLC,812pestbusters@gmail.com,+18126328897,https://www.pestbustersllc.com/,Princeton,IN
OutLook Pest Management,OutLookPest@gmail.com,+15034629005,https://www.outlookpest.com/,Canby,OR
Green City Pest Control,info@greencitypestcontrol.com,+12063054631,https://greencitypestcontrol.com/,Maple Valley,WA
Fox Pest Control,service@fox-pest.com,+18559531976,https://fox-pest.com/,Southlake,TX
Tri-County Pest Control,tricountytermite@yahoo.com,+17402790676,https://2sleeptight.com/,Logan,OH
Fox Pest Control,service@fox-pest.com,+18559531976,https://fox-pest.com/,Oxford,CT
Fox Pest Control Chesapeake,service@fox-pest.com,+18559531976,https://fox-pest.com/,Chesapeake,VA
All Critter Removal,allcritterremoval@outlook.com,+13204441130,http://allcritterremoval.com/,Kandiyohi,MN
Keene Pest Control LLC,keenepestcontrol@comcast.net,+16035258116,https://www.keenepestcontrol.com/,Walpole,NH
Keene Pest Control LLC,crittersolutions@comcast.net,+16035258116,https://www.keenepestcontrol.com/,Walpole,NH
Critter Stop,help@critterstop.com,+12145612744,https://critterstop.com/,Fort Worth,TX
Critter Stop,help@critterstop.com,+12145612744,https://critterstop.com/,Richardson,TX
Spanky's Hog & Wildlife Removal,stephen.martin65@yahoo.com,+12259784862,https://www.spankyshogwildliferemoval.com/,Holden,LA