business_name,email,phone,website,city,state
Pawtropolis East Athens,bark@pawtropolis.com,+17062277887,https://pawtropolis.com/,Athens,GA
Harrisville Working Dogs,harrisvilleworkingdogs@gmail.com,+18014589676,https://harrisvilleworkingdogs.com/,Harrisville,UT
"City Paws Pet Club - Dog Daycare, Boarding, Training & Grooming",info@citypawspetclub.com,+16123247297,https://citypawspetclub.com/,Minneapolis,MN
"City Paws Pet Club - Dog Daycare, Boarding, Training & Grooming",Training@citypawspetclub.com,+16123247297,https://citypawspetclub.com/,Minneapolis,MN
The Spotted Dog,thespotteddognj@gmail.com,+12016447272,https://spotteddognj.com/,Oakland,NJ
Dog Over Breed - Pleasant Hill,info@dogoverbreed.com,+14154804962,https://dogoverbreed.com/,Pleasant Hill,CA
Island Veterinary Hospital,islandpetvet@brickellavenuevet.com,+13053616205,https://islandpetvet.com/,Miami,FL
Pawsh Pet Resort & Spa,info@pawshpet.net,+14076547297,https://pawshpet.net/,Oakland,FL
Positive Approach Dog Training & Daycare,Contact@positiveapproachdogtraining.com,+12536274275,https://www.positiveapproachdogtraining.com/,Tacoma,WA
Poochies & Mutts,petcare@poochiesandmutts.com,+19204982669,https://www.poochiesandmutts.com/,Green Bay,WI
Dino Suds N Scissors (NCMG & ICPE Groomer ),Records@dinosudsnscissors.com,+13852506919,https://www.dinosudsnscissors.com/,Vernal,UT
Dino Suds N Scissors (NCMG & ICPE Groomer ),Help@dinosudsnscissors.com,+13852506919,https://www.dinosudsnscissors.com/,Vernal,UT
"Kings K9 Kennel & Training, LLC",filler@godaddy.com,+12525679339,https://kingsk9kennel.com/,Nashville,NC
"Buddies: Pet Daycare, Boarding and Grooming",hello@petbuddieslv.com,+17022024003,https://www.petbuddieslv.com/,Las Vegas,NV
PUPS Pet Club,info@pupspetclub.com,+13129717080,https://pupspetclub.com/,Chicago,IL
PUPS Pet Club,info@pupspetclub.com,+13129717080,https://pupspetclub.com/,Chicago,IL
Affordable Pet Boarding LLC,aab@affordableboarding-hi.com,+18086682622,https://affordableboarding-hi.com/,Waianae,HI
Paws with Claws Pet Spa & Resort,grooming@pawswclaws.com,+14807914197,http://pawswclaws.com/,Phoenix,AZ
Chateau Marmutt,info@chateaumarmutt.com,+13236532062,https://chateaumarmutt.com/,Los Angeles,CA
Zen Animals: Clean + Holistic Pet Spa,bedstuy@zenanimals.love,+17189750950,https://www.zenanimals.love/,Brooklyn,NY
Love Your Dog,ashleyloveyourdog@gmail.com,+17166360440,https://loveyourdogtraining.com/,East Amherst,NY
Noble Woof Dog Training PDX,info@noblewoof.com,+15034068759,https://www.noblewoof.com/,Portland,OR
Waggie Pet Zone,info@waggiepetzone.com,+19796939663,http://waggiepetzone.com/,College Station,TX
Paw Community,wecare@mypawcommunity.com,+12543005081,https://mypawcommunity.com/,Waco,TX
Piper's Playhouse,Alicia@pipersplayhouse.org,+12564054261,http://pipersplayhouse.org/,Anniston,AL
Lucky's Bed & Biscuit,info@luckysbb.com,+16095979009,http://luckysbb.com/,Manahawkin,NJ
Doggie-Do & Playtime Too!,info@doggiedonyc.com,+12122883633,https://doggiedonyc.com/,New York,NY
Hunky Hound Handlers - Holistic Healthy Hounds,info@hunkyhoundhandlers.com,+19592279013,https://hunkyhoundhandlers.com/,Canaan,CT
Paws Country Club,pawscountryclub@gmail.com,+12125018700,https://www.pawscountryclub.com/,New York,NY
Paws In Paradise NYC,answers@pawsinparadisenyc.com,+17187681888,https://www.pawsinparadisenyc.com/,Brooklyn,NY
Rosey Lane Boarding & Grooming Kennel LLC.,Roseylanekennels@gmail.com,+18282880276,https://www.roseylaneboardingkennel.com/,Rutherfordton,NC
Peachy Paws,peachypawspetstore@gmail.com,+17066410374,https://peachypawspets.com/,Lavonia,GA
CF Pet Supplies,info@cfpetsupplies.com,+18329770406,http://cfpetsupplies.com/,Spring,TX
Kat's Kennels LLC,katskennels3@gmail.com,+14346037303,https://katskennels.com/,Farmville,VA
California Pampered Pooches,nicari@capamperedpooches.com,+15106102388,https://capamperedpooches.com/,Vallejo,CA
Aborn Pet Hospital,frontdesk@abornpethospital.com,+15103190973,https://www.abornpethospital.com/,Fremont,CA
Big N' Small Paws 317,bignsmallpaws317llc@gmail.com,+13176032292,https://bignsmallpaws317.com/,Indianapolis,IN
My Cute Pawz Pet Salon & Grooming,mycutepawz@gmail.com,+14047819880,https://www.mycutepawz.com/,Lawrenceville,GA
The Grand Paw,info@thegrandpaw.com,+17603989900,https://thegrandpaw.com/,Coachella,CA
Social Pawz,info@socialpawzftl.com,+19545339262,https://socialpawzftl.com/,Fort Lauderdale,FL
Doggin' Around Daycare,info@teamdoggin.com,+18052233630,https://dogginarounddaycare.com/,Ventura,CA
The Whole Cat and Kaboodle,info@wholecatandkaboodle.com,+14253071008,https://www.wholecatandkaboodle.com/,Kirkland,WA
Deb's Riverview Kennels,info@debriverviewkennels.com,+19136822269,https://debsriverviewks.com/,Leavenworth,KS
"Doggie Business, LLC",info@doggiebusinessllc.com,+16083991266,https://www.doggiebusinessllc.com/,Holmen,WI
Walkers Pet HoTail Pet Care Center,info@walkerspethotail.com,+17243277297,http://walkerspethotail.com/,North Versailles,PA
Walkers Pet HoTail Pet Care Center,info@walkerspethotail.com,+17243277297,http://walkerspethotail.com/,Murrysville,PA
Far Fetched PetQuarters,farfetchedgrooming@gmail.com,+12763933824,https://www.farfetchedgrooming.us/,Big Stone Gap,VA
4 Paws Pet Resort & Activity Center,info@4pawsactivitycenter.com,+12245077297,https://www.4pawsresortac.com/,Crystal Lake,IL
Pets a Go Go LLC,thepawsquad@petsagogo.com,+19144584181,https://www.petsagogo.com/,Briarcliff Manor,NY
Pets a Go Go LLC,thepawsquad@petsagogo.com,+19144584181,https://www.petsagogo.com/,Stamford,CT
Canyon Crest K-9 Training Center,ronpace@canyoncrestk9.com,+12539269200,https://canyoncrestk9.com/,Tacoma,WA
Diamond in the RUFF Grooming Spa Daycare & Training,diamondintheruffgrooming@yahoo.com,+15087635351,https://diamondintheruffspa.com/,Acushnet,MA
Uptown Paw,info@uptownpaw.com,+17145965312,http://uptownpaw.com/,Huntington Beach,CA
Wagging Tails Pet Resort and Spaw | Cat & Dog Boarding - Cat & Dog Grooming CT,info@waggingtails.com,+18606217387,https://www.waggingtails.com/,West Hartford,CT
Malibu Pet Hotel | Pet Boarding,malibupethotel@aol.com,+15163796040,https://www.malibupethotel.com/,Freeport,NY
Sweet Pea Kennels,SweetPea@sweetpeakennels.com,+15738330898,http://sweetpeakennels.com/,Jackson,MO
The K9 Spot,Vaccines@thek9spot.com,+17405873660,https://www.thek9spot.com/,Newark,OH
Everything Dog,cindy@everythingdogresort.com,+17817165400,https://everythingdogresort.com/,Canton,MA
Wagging Tails Animal Daycare & Pet Spa | Cat & Dog Boarding CT - Cat & Dog Grooming CT,info@waggingtails.com,+18606217387,https://www.waggingtails.com/,Wolcott,CT
Canine Cabana,info@caninecabana.biz,+18136729663,https://caninecabana.biz/,Riverview,FL
PawKeepers Dog DayCare,pawkeeperspa@gmail.com,+18143274598,https://pawkeepers.com/,Duncansville,PA
FETCH Daycare and Overnight,info@fetchutah.com,+13855222146,https://fetchutah.com/,Salt Lake City,UT
Woof Pack Resort & Spa,info@woofpackresort.com,+15154164255,https://woofpackresort.com/,Johnston,IA
Lake Park Paws,admin@lakeparkpaws.com,+12182349269,https://www.lakeparkpaws.com/,Lake Park,MN
Goose Creek Bed & Biscuit,info@amcgoose.com,+18435693647,https://amcgoose.com/,Goose Creek,SC
Goose Creek Bed & Biscuit,boardinginfo@amcgoose.com,+18435693647,https://amcgoose.com/,Goose Creek,SC
Pampered Pets Resort and Spa,info@pamperedpetservices.com,+18478447585,https://pamperedpetservices.com/,East Dundee,IL
"Paws Mahal, LLC",pawsmahalllc@gmail.com,+15019527765,http://pawsmahal.org/,Sherwood,AR
Tanks Place Dog Boarding & Daycare,tanksplace247@gmail.com,+19133989066,https://www.tanksplace.net/,Bonner Springs,KS
Bob's Animal Friends,bob@bobsanimalfriends.com,+15076353398,https://www.bobsanimalfriends.com/,Mantorville,MN
Upstate Pet BnB- Your Pet's B&B,assist.petbnb@gmail.com,+15182036280,https://www.upstatepetbnb.com/,Watervliet,NY
Carolina Pooper Scoopers - Charlotte/Huntersville,info@carolinapooperscoopers.com,+19802727757,https://carolinapooperscoopers.com/,Huntersville,NC
"City Paws Pet Club - Dog Daycare, Boarding, Training & Grooming",info@citypawspetclub.com,+16123247297,https://citypawspetclub.com/,Minneapolis,MN
"City Paws Pet Club - Dog Daycare, Boarding, Training & Grooming",Training@citypawspetclub.com,+16123247297,https://citypawspetclub.com/,Minneapolis,MN
Circle Kennel Club,circlekennelclub@yahoo.com,+19204292310,https://www.circlekennelclub.com/,Green Bay,WI
Pet Spa and Retreat Pearland- Silverlake,petspapetbox@gmail.com,+12819977387,https://www.psrpearland.com/,Pearland,TX
Pet Story NY,petstoryny@gmail.com,+15164904110,https://www.petstorymineola.com/,Mineola,NY
PetDog Grooming,Contact@petdogsgrooming.com,+19739192421,https://petdogsgrooming.com/,Myrtle Beach,SC
Bouse Fur House,bousefurhouse@gmail.com,+19188935695,https://bousefurhouse.com/,Broken Arrow,OK
City Dogs H Street NE,info@city-dogs.com,+12022349247,https://www.city-dogs.com/,Washington,DC
Pawllywood Kingdom,info@pawllywoodkingdom.com,+12819462369,https://pawllywoodkingdomforpets.com/,Cypress,TX
The PawPlex,admin@thepawplex.com,+17709041970,http://thepawplex.com/,Suwanee,GA
Pet Home - 萌宠之家,pethomellc@gmail.com,+19176056808,https://pet-home-webpage.web.app/,Flushing,NY
Bone Sweet Bone - Woodland Hills,info@bonesweetbone.net,+18189852663,https://bonesweetbone.com/,Woodland Hills,CA
City Dogs 18th Street NW,info@city-dogs.com,+12022349247,https://www.city-dogs.com/,Washington,DC
Pet Galaxy,info@petgalaxyusa.com,+18308855335,https://petgalaxyusa.com/,Spring Branch,TX
Puppy Plus,puppyplusinc@gmail.com,+19542558233,https://www.puppyplusinc.com/,Parkland,FL
Paradise Pet Hotel & Day Spa,office@paradisepethotelandspa.com,+13096620880,https://paradisepethotelandspa.com/,Bloomington,IL
The Madison Dog Resort & Spa,wayne@themadisondogresort.com,+19738327711,https://www.themadisondogresort.com/,Wayne,NJ
The Madison Dog Resort & Spa,hawthorne@themadisondogresort.com,+19738327711,https://www.themadisondogresort.com/,Wayne,NJ
The Madison Dog Resort & Spa,waldwick@themadisondogresort.com,+19738327711,https://www.themadisondogresort.com/,Wayne,NJ
The Madison Dog Resort & Spa,bricktown@themadisondogresort.com,+19738327711,https://www.themadisondogresort.com/,Wayne,NJ
NYC Pet Services,nycpsinfo@gmail.com,+17183501635,http://nycpetservices.org/,Astoria,NY
PUPS Pet Club,info@pupspetclub.com,+13129717080,https://pupspetclub.com/,Chicago,IL
Woof Park Lodge,stay@woofparklodge.com,+18033299663,https://www.woofparklodge.com/?wait-before-scraping=1000&save-markdown=true&save-html=false,Rock Hill,SC
The Dog House,thedoghouseportland@gmail.com,+15032415905,https://www.thedoghouseportland.com/,Portland,OR
pupculture West 57th,dumbo@pupculture.com,+17184060140,https://www.pupculture.com/,New York,NY
pupculture West 57th,soho@pupculture.com,+17184060140,https://www.pupculture.com/,New York,NY
pupculture West 57th,tribeca@pupculture.com,+17184060140,https://www.pupculture.com/,New York,NY
pupculture West 57th,west57@pupculture.com,+17184060140,https://www.pupculture.com/,New York,NY
pupculture West 57th,fidi@pupculture.com,+17184060140,https://www.pupculture.com/,New York,NY
Cuddle Bugs Pet Resort,cuddlebugspetresort@gmail.com,+13524330665,https://cuddlebugspetresort.com/,Ocala,FL
pupculture FiDi,dumbo@pupculture.com,+17184060140,https://www.pupculture.com/,New York,NY
pupculture FiDi,soho@pupculture.com,+17184060140,https://www.pupculture.com/,New York,NY
pupculture FiDi,tribeca@pupculture.com,+17184060140,https://www.pupculture.com/,New York,NY
pupculture FiDi,west57@pupculture.com,+17184060140,https://www.pupculture.com/,New York,NY
pupculture FiDi,fidi@pupculture.com,+17184060140,https://www.pupculture.com/,New York,NY
Bark + Boarding,info@barkandboarding.com,+17039315057,https://www.barkandboarding.com/,Bailey's Crossroads,VA
PUPS Pet Club,info@pupspetclub.com,+13129717080,https://pupspetclub.com/,Brooklyn,NY
pupculture Dumbo,dumbo@pupculture.com,+17184060140,https://www.pupculture.com/,Brooklyn,NY
pupculture Dumbo,soho@pupculture.com,+17184060140,https://www.pupculture.com/,Brooklyn,NY
pupculture Dumbo,tribeca@pupculture.com,+17184060140,https://www.pupculture.com/,Brooklyn,NY
pupculture Dumbo,west57@pupculture.com,+17184060140,https://www.pupculture.com/,Brooklyn,NY
pupculture Dumbo,fidi@pupculture.com,+17184060140,https://www.pupculture.com/,Brooklyn,NY
"The Dog Stop - West Liberty/South Hills, Pittsburgh",info@thedogstop.com,+14123431171,https://thedogstop.com/,Pittsburgh,PA
"The Dog Stop - East End, Pittsburgh",info@thedogstop.com,+14123610911,https://thedogstop.com/,Pittsburgh,PA
Idlewire Pet Care,info@idlewire.com,+18014793000,https://idlewire.com/,South Ogden,UT
pupculture Tribeca,dumbo@pupculture.com,+17184060140,https://www.pupculture.com/,New York,NY
pupculture Tribeca,soho@pupculture.com,+17184060140,https://www.pupculture.com/,New York,NY
pupculture Tribeca,tribeca@pupculture.com,+17184060140,https://www.pupculture.com/,New York,NY
pupculture Tribeca,west57@pupculture.com,+17184060140,https://www.pupculture.com/,New York,NY
pupculture Tribeca,fidi@pupculture.com,+17184060140,https://www.pupculture.com/,New York,NY
Animal Loving Care,hi@animallovingcare.com,+16468457773,https://animallovingcare.com/,Brooklyn,NY
Boston Dog Butlers,newclients@bostondogbutlers.com,+16177122082,https://bostondogbutlers.com/,Boston,MA
Boston Dog Butlers,butler@bostondogbutlers.com,+16177122082,https://bostondogbutlers.com/,Boston,MA
Meyer's Tails Up Farm,info@meyerstailsupfarm.com,+18155475778,https://www.meyerstailsupfarm.com/,Belvidere,IL
Bay Paws Pet Resort,Trinity@baypaws.com,+17274988727,https://www.baypaws.com/,Clearwater,FL
Bay Paws Pet Resort,info@baypaws.com,+17274988727,https://www.baypaws.com/,Clearwater,FL
Bay Paws Pet Resort,ybor@baypaws.com,+17274988727,https://www.baypaws.com/,Clearwater,FL
Bayside Bed and Biscuit,reservations@bayside-bb.com,+12813349663,http://bayside-bb.com/,Kemah,TX
Pawbillion,info@pawbillion.com,+14254293178,https://www.pawbillion.com/,Bellevue,WA
Tails-A-Waggin Animal Hospital & Pet Resort,tawah11960@gmail.com,+12394826897,http://tailsawagginanimalhospital.com/,Fort Myers,FL
Bark Square,info@barksquare.com,+17869819769,http://barksquare.com/,Doral,FL
Infinity Pets & Company LLC,infinitypetsinfo@gmail.com,+13179106024,https://www.infinitypetsandco.net/,Crestview,FL
Hilltop Family Vet,hello@hilltopfamilyvet.com,+13864623822,https://hilltopfamilyvet.com/,Alachua,FL
Paws-N-Claws Pet Shop,pawsforneiner@sbcglobal.net,+17852632878,https://www.papillonspaws-n-claws.com/,Abilene,KS
Peace Of Mind Dog Boarding,peaceofmindmontrose@live.com,+19702752388,https://peaceofmindmontrose.com/,Montrose,CO
Natural Instincts Healthy Pet Center,NaturalInstincts2109@gmail.com,+16194451550,http://healthynaturepets.com/,Alpine,CA
Four Leggers Pet Supplies & Services,info@fourleggersdogdaycare.com,+19789224182,https://www.fourleggersdoggiedaycare.com/,Beverly,MA
Holliston Meadows Pet Resort,hollistonmeadows.ma@gmail.com,+15084291580,http://hollistonmeadows.com/,Holliston,MA
Bubbles And Bows Pet Services,bnbofgr@yahoo.com,+12183276079,https://bubblesandbowsgr.com/,Grand Rapids,MN
Country Kennels Bed & Biscuit,info@countrykennelsbedandbiscuit.com,+19206253628,https://www.countrykennelsbedandbiscuit.com/,Iron Ridge,WI
"Taj MaDog, Inc.",Contact@tajmadog.com,+17852158900,https://tajmadog.com/,Topeka,KS
A Stay in the Country Pet Lodge and Training Center,fun@astayinthecountry.com,+18047959415,http://astayinthecountry.com/,Charles City,VA
Doggyland Daycare & Boarding,info@doggyland.pet,+15099245263,https://doggylanddaycare.com/,Spokane Valley,WA
Paradise Pet Resorts,paradisepetresort1@gmail.com,+17075953834,https://paradisepetresorts.com/,Santa Rosa,CA
Paradise Pet Resorts,paradise.pet.resorts@gmail.com,+17075953834,https://paradisepetresorts.com/,Santa Rosa,CA
The Inn of the Dog,info@theinnofthedog.com,+17722881998,https://theinnofthedog.com/,Stuart,FL
My Buddies Pet Care,mybuddiespetcare@gmail.com,+19412583647,https://mybuddiespetcare.com/,Port Charlotte,FL
Oakview Pet Resort,oakviewpetslz@gmail.com,+18475261388,https://www.oakviewpetresort.com/,Wauconda,IL
Oakview Pet Resort,oakviewpetswau@gmail.com,+18475261388,https://www.oakviewpetresort.com/,Wauconda,IL
Yuppie Puppie Play Care,yuppiepuppie@comcast.net,+18473520383,https://www.yuppiepuppie.net/,Roselle,IL
Hillside Canine Resort and Training,forms@hillsidecanine.com,+19285676304,https://hillsidecanine.com/,Camp Verde,AZ
"Paws and Claws Pet Care, Inc.",pawsandclaws585@gmail.com,+15854850000,https://pawsandclaws585.com/,Rochester,NY
"Animal Activity Center, Inc.",Staff@animalactivitycenter.com,+15864123900,https://www.animalactivitycenter.com/,Clinton Twp,MI
EPK9 Stay and Play,info@epknine.com,+19152198177,https://www.epknine.com/,El Paso,TX
Barking Lodge Pet Resorts,info@barkinglodgepr.com,+17142781086,https://barkinglodgepetresorts.com/,Fullerton,CA
Watch My Wag,watchmywag@gmail.com,+19107251888,https://watchmywag.com/,Southern Pines,NC
Olde Towne Pet Resort,info@otpets.com,+17034559000,https://www.oldetownepetresort.com/,Springfield,VA
Shamrock Dog Grooming,shamrockdoggrooming@gmail.com,+14134439700,https://www.shamrockdoggrooming.com/,Pittsfield,MA
The Cool Dog Country Club,cooldogcountryclub@gmail.com,+18434749997,https://cooldogcountryclub.com/?oo-step=true&wait-before-scraping=1000&save-html=false&save-markdown=true,North Charleston,SC
American Pets Inn,americanpetsinn@gmail.com,+15867780780,https://americanpetsinn.com/,St Clair Shores,MI
Pet Planet Hotel and Day Camp,petplanetoffice@gmail.com,+15755288180,https://www.petplanetcomplex.com/,Las Cruces,NM
Pet Planet Hotel and Day Camp,petplanetlc@gmail.com,+15755288180,https://www.petplanetcomplex.com/,Las Cruces,NM
"Blaine Kennels Boarding, Training & Daycare",info@blainekennels.com,+17637863616,https://www.blainekennels.com/,Blaine,MN
"Poodles To Hounds, LLC",jimmy@poodlestohounds.com,+16183156500,https://www.poodlestohounds.com/,Mt Vernon,IL
Camelot Kennels,camelotkennels2004@yahoo.com,+14132674036,https://www.camelotkennels.com/,Monson,MA
Red Bluff Pet Resort & Grooming Salon,redbluffpetresort@yahoo.com,+12816806000,https://www.redbluffanimals.com/,Pasadena,TX
Kountry Pet Resort,reservations@kountrypetresort.com,+18477415434,https://kountrypetresort.com/,Hampshire,IL
Purr'n Pooch Pet Resort,wall@purrnpooch.com,+17328424949,https://purrnpooch.com/,Tinton Falls,NJ
Purr'n Pooch Pet Resort,tintonfalls@purrnpooch.com,+17328424949,https://purrnpooch.com/,Tinton Falls,NJ
The Ace Dog Trainer,theacedogtrainer@gmail.com,+15615023198,https://www.theacedogtrainer.com/,Palm City,FL
Posh Pet Club,team@poshpetclub.com,+16302943453,https://www.poshpetclub.com/,Chicago,IL
Lake Shore Boarding,info@lakeshoreboarding.com,+12082878488,https://lakeshoreboarding.com/,Nampa,ID
Pet Ponderosa,admin@petponderosa.com,+12538477763,https://petponderosa.com/,Graham,WA
Bobs Pet Stop Inc.,BobsPetStop@gmail.com,+12679945390,https://bobspetstop.com/,Wycombe,PA
Stay and Obey,info@stayandobey.com,+12694656239,https://stayandobey.com/,Stevensville,MI
Pinnacle Pet Lodge,pinnaclepetlodge@gmail.com,+15017664749,http://pinnaclepetlodge.com/,Little Rock,AR
Meelo's Pet World,info@meelospetworld.com,+16318290528,https://meelospetworld.com/,East Northport,NY
Urban Pet Hospital And Resort,uphr@urbanpethospital.com,+15152803051,https://www.urbanpethospital.com/,Urbandale,IA
Dog Town,info@dogtown309.com,+12673080459,https://dogtown309.com/,Hatfield,PA
Marcie's Pet Spa,marciespetspaws@gmail.com,+19208960900,https://www.marciespetspa.com/,West Salem,WI
Marcie's Pet Spa,marciescountrypetspasparta@gmail.com,+19208960900,https://www.marciespetspa.com/,West Salem,WI
Marcie's Pet Spa,marciespetsparipon@gmail.com,+19208960900,https://www.marciespetspa.com/,West Salem,WI
pupculture SoHo,dumbo@pupculture.com,+17184060140,https://www.pupculture.com/,New York,NY
pupculture SoHo,soho@pupculture.com,+17184060140,https://www.pupculture.com/,New York,NY
pupculture SoHo,tribeca@pupculture.com,+17184060140,https://www.pupculture.com/,New York,NY
pupculture SoHo,west57@pupculture.com,+17184060140,https://www.pupculture.com/,New York,NY
pupculture SoHo,fidi@pupculture.com,+17184060140,https://www.pupculture.com/,New York,NY
Grateful Dog Daycare,info@gratefuldogdaycare.com,+19164462501,https://gratefuldogdaycare.com/index.php,Sacramento,CA
PupStars Pet Care,info@pupstars.com,+17733223160,http://pupstarspetcare.com/,Chicago,IL
North Coast K-9 Training & Boarding,dogtraining@northcoastk9.com,+14194654542,https://www.northcoastk9.com/,Monroeville,OH
Petrock Hotel and Spa | Encino,info@petrockhotel.com,+13104794319,https://www.petrockhotel.com/,Encino,CA
"Whited K-9 Services, Inc.",whitedk9@me.com,+13303527779,https://whitedk9services.com/,Kent,OH
Paws & Pals Pet Resort,guestservices@pawsresort.com,+19522098931,https://pawsresort.com/,Prior Lake,MN
Georgia's Pet Salon & Boutique,christine@georgiaspetsalon.com,+19032786575,https://georgiaspetsalon.com/,Nash,TX
Georgia's Pet Salon & Boutique,christine@georgiaspetsalons.com,+19032786575,https://georgiaspetsalon.com/,Nash,TX
Springbrook Kennels,springbrookkennels@shots.pet,+15708424502,https://www.springbrookkennels.com/,Spring Brook Township,PA
Bridger Barks Grooming,email@bridgerbarksgrooming.com,+14064511657,https://bridgerbarks.weebly.com/,Belgrade,MT
Fluff N Stuff Pet Resort,info.fluffnstuff@gmail.com,+12169717297,https://www.fluffnstuffpetservices.com/,Cleveland,OH
The Woofhaus,woof@thewoofhaus.com,+17205190883,https://thewoofhaus.com/,Denver,CO
The Pampered Pooch,pamperedpoochpethotel@gmail.com,+16619477297,http://pamperedpoochav.com/,Palmdale,CA
The Pampered Pooch,pamperedpooch12@gmail.com,+16619477297,http://pamperedpoochav.com/,Palmdale,CA
Tangled Tails,info@tangledtailspetgrooming.com,+15153810511,https://www.tangledtailspetgrooming.com/,Altoona,IA
The Barking-lot,genevabarkinglot@gmail.com,+12622483901,https://genevabarkinglot.com/,Lake Geneva,WI
Fur-Baby Pet Services LLC,info@fur-babypetservices.com,+17065614193,https://www.fur-babypetservices.com/,Columbus,GA
Albany Pet Hotel,albanypethotelstaff@gmail.com,+15419269351,https://www.albanypethotel.com/,Albany,OR
Miami's Pet Grooming (Bird Road Store),miamispetgrooming@me.com,+17862220592,https://miamispetgrooming.com/,Miami,FL
Pet Hotel Hadley,info@pethotelhadley.com,+14135865525,https://pethotelhadley.com/,Hadley,MA
Dioji K-9 Resort & Athletic Club,info@diojik9.com,+18057730003,http://dioji.com/,Santa Barbara,CA
Antonia's Paw Spa & Retreat,grooming@pawspajackson.com,+17313003197,https://www.pawspajackson.com/,Jackson,TN
Antonia's Paw Spa & Retreat,boarding@pawspajackson.com,+17313003197,https://www.pawspajackson.com/,Jackson,TN
Smelly Dog,smellydog@smellydogaz.com,+16022656806,https://www.smellydogaz.com/,Phoenix,AZ
Dozo Dog,info@dozodog.com,+17182556322,https://www.dozodog.com/,Astoria,NY
Port Rover,info@portrover.com,+17576578060,http://portrover.com/,Portsmouth,VA
Lovely Cuts Pet Grooming,info@lovelycutspetgrooming.com,+19545328414,https://lovelycutspetgrooming.com/,Deerfield Beach,FL
The Pooch Patio,info@thepoochpatio.com,+12142521550,https://thepoochpatio.com/,Dallas,TX
The Pooch Patio,enroll@thepoochpatio.com,+12142521550,https://thepoochpatio.com/,Dallas,TX
Bay Paws Pet Resort - Ybor City,Trinity@baypaws.com,+17274988727,https://www.baypaws.com/,Tampa,FL
Bay Paws Pet Resort - Ybor City,info@baypaws.com,+17274988727,https://www.baypaws.com/,Tampa,FL
Bay Paws Pet Resort - Ybor City,ybor@baypaws.com,+17274988727,https://www.baypaws.com/,Tampa,FL
Fur Family Cinema LLC,furfamilycinema@gmail.com,+18339782881,https://furfamilycinema.com/,Lewiston,ID
Pets and the City NYC,petsandthecitynyc@gmail.com,+19173480945,https://petsandthecitynyc.com/,New York,NY
Upper Dogs Social Club | Dog Daycare & Pet Grooming,andreiasdogs@gmail.com,+19176694206,https://andreiasdogs.com/,New York,NY
North Tampa Pet Depot,northtampa@petdepot.net,+18138667387,http://northtampapetdepot.com/,Tampa,FL
Brandons Exotic Pets,B@brandonexotic.com,+18044261145,https://brandonexotic.com/,Midlothian,VA
Pet Palace of New City,sales@petpalaceonline.com,+18456381378,http://petpalaceonline.com/,New City,NY
Heather's Feathers,hparrotfeathers@gmail.com,+16828120134,https://heathergamble105.website3.me/,Bedford,TX
Dog Training Anytime,dogtraininganytime@gmail.com,+18432525095,https://dogtraininganytime.com/,Myrtle Beach,SC
Jackie's Grooming Spa & Hotel,jackiesgroomingspahotel@gmail.com,+15617398663,https://www.jackiesgroomingspahotel.com/,Boynton Beach,FL
South Shores Pet Clinic,frontoffice@sspet.com,+13108321318,https://sspet.com/,San Pedro,CA
Academy Kennels Boarding & Grooming Salon,academyboardingkennels@gmail.com,+15058847878,https://academyboarding.com/,Albuquerque,NM
Dioji K-9 Resort & Athletic Club,info@diojik9.com,+18057730003,http://dioji.com/,Goleta,CA
"The Dog Stop- Strip District, Pittsburgh, PA",info@thedogstop.com,+14123157050,https://thedogstop.com/,Pittsburgh,PA
Orange Grooming,email@woocommerce-326972-3102047.cloudwaysapps.com,+13055763444,http://orangegrooming.com/,Miami,FL
Veterinary Care Center of Valdosta,vetcarevaldosta@gmail.com,+12292422792,http://vetcarecenter.vetstreet.com/,Valdosta,GA
Mountain Dogs Romp & Chomp,mtndoglife@gmail.com,+17194862014,https://www.mountaindoglife.com/,Leadville,CO
Animal Ark Pet Resort,anark2150@gmail.com,+15138257387,https://www.animalarkpet.com/,Cincinnati,OH
Abracadabra Pet Center,abracadabrapets@gmail.com,+13866738189,http://abrapets.com/,Ormond Beach,FL
Wet Noses Dry Paws,wndpcs@gmail.com,+12064967692,https://www.wetnosesdrypaws.com/,Tacoma,WA
Rexpointe Kennels,rexpointekennels@gmail.com,+12488790940,https://rexpointe.com/,Troy,MI
Eagle Caves Pet Resort llc,customerservice@eaglecavespetresort.com,+15412987297,https://eaglecavespetresort.com/,The Dalles,OR
The Pack Canine Studio,packcanine@gmail.com,+19122684156,https://www.packcaninestudio.com/,St Simons Island,GA
Dog Resort,info@resort4dogs.com,+13234991414,http://resort4dogs.com/,North Hollywood,CA
TailWaggers Doggy Daycare,info@tailwaggersdoggydaycare.com,+19208572111,https://www.tailwaggersdoggydaycare.com/,Green Bay,WI
WiseDog Pet Care,petsitters@wisedogpetcare.com,+13218008862,https://www.wisedogpetcare.com/,Clermont,FL
Little Jodie's PlayHouse,littlejodiesplayhouse@gmail.com,+12029033069,https://www.littlejodiesplayhouse.com/,Washington,DC
Waldorf Kennels,waldorfkennels@gmail.com,+13605732421,https://www.waldorfkennels.com/,Ridgefield,WA
Old Stage Kennel,mymail@mailservice.com,+19378624353,https://oldstagekennels.com/,Waynesville,OH
Kingdom Canine,info@kingdomcanine.com,+13146316738,https://www.kingdomcanine.com/,Pacific,MO
Lily's Play-N-Stay,BeltonTeam@lilysplaynstay.com,+18163883737,https://lilysplaynstay.com/,Belton,MO
DEN Urban Dog Retreat Grooming Daycare,info@denurbandog.com,+18333367225,https://denurbandog.com/,Los Angeles,CA
DEN Urban Dog Retreat Grooming Daycare,manager@denurbandog.com,+18333367225,https://denurbandog.com/,Los Angeles,CA
Puppy Village,puppyvillageinc@gmail.com,+12532427500,https://puppyvillage.net/,Federal Way,WA
Barking Pet Spa（Chinatown),barkingpetspa@gmail.com,+18322924766,https://barkingpetspa.com/,Houston,TX
Pet Lovers Resort | Grooming and Boarding for Dogs and Cats,info@petloversresort.com,+18185785664,https://petloversresort.com/,Tarzana,CA
Fresh Prints Pet Lodge and Day Resort,freshprintspetresort@gmail.com,+19042953964,https://www.freshprintspetresort.com/,Jacksonville,FL
Pup Country Club,pupcountryclub@gmail.com,+18303281839,https://pupcountryclub.dog/,Medina,TX
Dirty Dog Solutions,mo@dirtydogsolutions.com,+16104009145,http://dirtydogsolutions.com/,Newtown Square,PA
Puppies Paws Paradise - Miami- Kendall,support@puppiespawsparadise.com,+17867039379,https://www.puppiespawsparadise.com/,Miami,FL
Noah's Ark Labradoodles,noahsarklabradoodles@gmail.com,+16159446451,https://noahsarklabradoodles.com/,Murfreesboro,TN
A Paw Above,gretchen@apawabove.net,+17542107387,https://www.apawabove.net/,Hollywood,FL
The Dog House Pet Salon,memorial@thedoghouseps.com,+17138206140,https://www.thedoghouseps.com/,Houston,TX
The Dog House Pet Salon,pearland@thedoghouseps.com,+17138206140,https://www.thedoghouseps.com/,Houston,TX
The Dog House Pet Salon,galleria@thedoghouseps.com,+17138206140,https://www.thedoghouseps.com/,Houston,TX
City Bark Miami,citybarkmiami@gmail.com,+17862387909,https://citybarkmiami.com/,Miami,FL
DIGS Canine Hotel Spa & Daycare,contact@digshotel.com,+16318323281,https://www.digshotel.com/,Brooklyn,NY
All American Pet Resort - Royal Oak,info@allamericanpetresorts.com,+18005551234,https://www.allamericanpetresorts.com/,Royal Oak,MI
Paw Pals,info@pawpalslove.com,+18454442255,https://www.pawpalslove.com/,Nanuet,NY
Tuscarora's Country Club for Dogs,tuscaroracc@yahoo.com,+17044368521,https://www.tuscaroracc.com/,Mt Pleasant,NC
The Pets' Home,thepetshome@gmail.com,+18152541166,https://www.thepetshome.com/,Oswego,IL
Paws & Rec Inc.,fun@pawsandrec.com,+17189549117,https://www.pawsandrec.com/,Brooklyn,NY
Paw Addicts Hawaii Pet Care Services,pawaddictsva@gmail.com,+14049404416,http://pawaddicts.net/,Ewa Beach,HI
Paw Addicts Hawaii Pet Care Services,pawaddictshi@gmail.com,+14049404416,http://pawaddicts.net/,Ewa Beach,HI
Paw Addicts Hawaii Pet Care Services,pawaddictsatl@gmail.com,+14049404416,http://pawaddicts.net/,Ewa Beach,HI
Zoomies Pet Care,info@zoomiespetcarega.com,+14702047073,https://www.zoomiespetcarega.com/,Griffin,GA
Bow Wow Meow Purrfessional Petcare,petcare@bowwowmeow.pet,+14146009266,https://www.bowwowmeow.pet/,Chicago,IL
"Cindys Pet Care & Grooming, Dog Day Care, Boarding",cindyspetcare@comcast.net,+19783978980,https://cindysdogcare.com/,Haverhill,MA
The Bark Shoppe,info@thebarkshoppe.com,+16465901903,https://thebarkshoppe.com/,New York,NY
Pawtel Inc,pawtelny@gmail.com,+13479536888,https://mypawtel.com/,Flushing,NY
GoDog Durham,info@godogwestnashville.com,+16158912536,https://godoghq.com/,Durham,NC
GoDog Durham,info@godogdurham.com,+16158912536,https://godoghq.com/,Durham,NC
GoDog Durham,info@godogchatt.com,+16158912536,https://godoghq.com/,Durham,NC
GoDog Durham,rtp@godoghq.com,+16158912536,https://godoghq.com/,Durham,NC
Fur The Love Of Your Pet,MARIA@furtheloveofyourpet.com,+16195522267,https://www.furtheloveofyourpet.com/,San Diego,CA
Fur The Love Of Your Pet,maria@furtheloveofyourpet.com,+16195522267,https://www.furtheloveofyourpet.com/,San Diego,CA
The Barkery Boarding and Daycare Inc.,barkeryboarding@gmail.com,+18139209800,https://thebarkeryboardinganddaycare.godaddysites.com/,Lutz,FL
Pet Lodge USA of Boardman,petlodgeusa@gmail.com,+13307262222,http://petlodgeusaofboardman.com/,Boardman,OH
Woodland Pet Resort,woodlandpetresort@gmail.com,+19897932882,https://www.woodlandpetresort.com/,Saginaw,MI
Tails of Hawaii,reservations@tailsofhawaii.com,+18086769663,https://www.tailsofhawaii.com/index.html,Pearl City,HI
"""PET DYNASTY"" Boarding, Daycare, Grooming, & Training",petdynastyus@gmail.com,+19254167877,https://www.petdynasty.us/,Pleasanton,CA
Claridge Spa Pet Resort,info@theclaridgepetresort.com,+19018536551,https://www.theclaridgepetresort.com/,Collierville,TN
Sun-Golden Kennels,info@sungoldenkennels.com,+17812345678,http://sungoldenkennels.com/,Edgerton,WI
Barking Around the Clock (Paws & Claws Adventure Resort),J.K@pawsandclawsadventureresort.com,+13602890541,https://pawsandclawsadventureresort.com/,Ocean Shores,WA
"A1 Bed & Biscuit Kennel & Grooming Salon ... dog, cat, or pet sitting boarding",A1BB11299@gmail.com,+14402868686,https://www.a1bedandbiscuit.com/,Chardon,OH
The Doggie Depot | Beverly Farms,info@thedoggiedepot.com,+19789690285,https://thedoggiedepot.com/,Beverly,MA
"Country Comfort Inn ""Your Pet's Getaway""",cciypg06@gmail.com,+17166523353,https://countrycomfortinn.com/,Elma,NY
Paws Sitters Pet Sitting Services,hello@pawssitters.com,+17865571725,http://pawssitters.com/,Homestead,FL
Dan's Pet Care - Glen Cove,hello@danspetcare.com,+15165511613,https://danspetcare.com/,Glen Cove,NY
"Mutt Island Dog Daycare, Grooming, Extended Stay & Training",muttisland320@gmail.com,+19012758311,https://muttisland.com/,Memphis,TN
Humble Paws,humblepaws1@gmail.com,+17193607246,https://humblepawsco.com/,Colorado Springs,CO
Amie's At Home Pet Care,amie@aapetsitter.com,+15127262223,http://aapetsitter.com/,Hutto,TX
Cal's Alaskan Pet Resort,vanessam@calsalaskanpetresort.com,+17862901666,https://www.calsalaskanpetresort.com/,North Miami Beach,FL
Pet Lodge & Spa of Reidville,petlodgeofreidville@gmail.com,+18645907533,http://petlodgeofreidville.com/,Woodruff,SC
Affectionate Pet Care,apcmail@affectionatepetcare.com,+17032505233,https://www.affectionatepetcare.com/,Fairfax,VA
Dot's Canine Retreat (formerly Dot's Groom and Board),email@dots-groom-and-board.com,+15632462020,http://dotsgroomandboard.com/,Calamus,IA
Country Club Pet Resort,rrccpetresort@gmail.com,+19702411277,https://www.rrccpetresort.com/,Grand Junction,CO
Fido Fido Dog Daycare & Boarding,info@fidofido.com,+14042503920,https://www.fidofido.com/,Sandy Springs,GA
Doggie In the Window,records@ditw.net,+12483362655,http://ditw.net/,Berkley,MI
Yuppy Puppy Pet Spa,yuppypuppypetspa@gmail.com,+16366250030,https://yuppypuppyspa.com/,O'Fallon,MO
The Lovable Dogs Club Dog Daycare and Spa,theldclub20@gmail.com,+14704870521,https://thelovabledogsclub.com/,Powder Springs,GA
Yetto's Bed & Biscuit,yettosbedandbiscuit@gmail.com,+16105824252,http://yettosbedandbiscuit.com/,Birdsboro,PA
The Ranch Woodlands,theranchwoodlands@gmail.com,+18326109900,https://www.theranchwoodlandstx.com/,Magnolia,TX
The Woof Lodge,wooflodge78@gmail.com,+18448306075,http://thewooflodge.com/,Arden,NC
The Chase - Dog Daycare • Hotel • Spa,bark@thechasedogclub.com,+17632373032,https://thechasedogclub.com/,Oak Grove,MN
Pet Au Pairs,info@petaupairs.com,+19704974761,https://petaupairs.com/,Crested Butte,CO
Paws Paradise Fur Life,info@pawsparadisefl.com,+18135332733,https://pawsparadisefl.com/,Tampa,FL
2 Peas In A Pod Pet Care,2peasinapodpetcare@gmail.com,+13134209081,https://www.2peasinapodpetcare.com/,Leslie,MI
The Dog House Pet Salon,memorial@thedoghouseps.com,+17138206140,https://www.thedoghouseps.com/,Houston,TX
The Dog House Pet Salon,pearland@thedoghouseps.com,+17138206140,https://www.thedoghouseps.com/,Houston,TX
The Dog House Pet Salon,galleria@thedoghouseps.com,+17138206140,https://www.thedoghouseps.com/,Houston,TX
Pawsitively Pets,Linda@pawsitivelypets.net,+19783402620,https://pawsitivelypets.net/,Bolton,MA
Puppylicious Pet Grooming Salon,puppyliciousgroomingsalon@gmail.com,+19549681113,https://puppyliciousgrooming.com/,Coconut Creek,FL
The Bowhaus Pet Company,info@bowhauspets.com,+16267147030,https://bowhauspets.com/,Pasadena,CA
Mr. Muggles' Dogs,jourdain@mrmugglesdogs.com,+14158171744,https://mrmugglesdogs.com/,San Francisco,CA
Animal Care Center of Polaris,polaris@animalcareinfo.com,+16148884050,https://www.animalcarecenterpolaris.com/,Lewis Center,OH
"Walks And Wags, Inc",contact@walksandwags.com,+16312345678,https://walksandwags.com/,Mobile,AL
Pounce Hawaii,info@pouncehawaii.com,+18085943168,https://www.pouncehawaii.com/,Honolulu,HI
Wine Country Pet Boutique & Spa,service@winecountrypetboutiquespa.com,+17079879709,https://winecountrypetboutiqueandspa.com/,Middletown,CA
It's Raining Cats & Dogs Luxury Pet Resort,pamperedpets2013@gmail.com,+16307159230,https://itsrainingcatsdogs.com/,Sugar Grove,IL
Pleasant Paws Pet Center,woofwoof@pleasantpawspetcenter.com,+12034912770,https://pleasantpawspetcenter.com/,Newtown,CT
Lola Bell's Pet Facility,GLYNN_D@lolabellspet.com,+12512324754,https://lolabellspet.com/,Mobile,AL
Paw Pack Doggy Daycare,jointhepack@pawpack.net,+15706302812,https://pawpack.net/,Lake Ariel,PA
The Pet Set-Grooming Daycare & Board,thepetset@thepetset.com,+14046338755,http://thepetset.com/,Atlanta,GA
4 Paws Lodge,info@4pawslodging.com,+18774747297,https://www.4pawslodging.com/,Fishers,IN
American Boarding Kennel,abkburnsville@gmail.com,+19528003170,https://americanboardingkennel.com/,Burnsville,MN
PawHootz Pet Resort,play@pawhootz.com,+18174986410,https://pawhootz.com/,Hurst,TX
Dog Days of New York,info@dogdaysofny.com,+12127679022,https://dogdaysofny.com/,New York,NY
Peachtree Pets,info@thepeachtreepets.com,+14704144834,https://thepeachtreepets.com/,Peachtree City,GA
Weymouth Dog Shop,john@weymouthdogshop.com,+17813318425,https://weymouthdogshop.com/,Weymouth,MA
Weymouth Dog Shop,tom@weymouthdogshop.com,+17813318425,https://weymouthdogshop.com/,Weymouth,MA
Blue Ribbon Pets,brpets@mcn.org,+17074858454,https://www.brpets.com/,Ukiah,CA
Pawtropolis West Athens,bark@pawtropolis.com,+17062277887,https://pawtropolis.com/,Bogart,GA
Canine Sports Center,diamonds56@diamondcreek.com,+18604913904,https://caninesportscenter.com/,Goshen,CT
Sam & Danni's Pet Resort,loveit@samanddannis.com,+13202522844,https://www.samanddannis.com/,Sauk Rapids,MN
Dancing Creek Farm,dancingcreekfarm@gmail.com,+14345491616,https://dancingcreekfarm.com/,Cascade,VA
Bandits Stay and Play,contact@stronghoundations.com,+13853752144,https://www.stronghoundations.com/,Orem,UT
Expert Pet,hello@expertpet.com,+14153477305,https://www.expertpet.com/,San Francisco,CA
"Petlover Central, Inc.",reservations@petlovercentral.com,+15612413977,https://petlovercentral.com/,Boca Raton,FL
Central Pet Tucson,tucson@centralpetaz.com,+15208827577,https://www.centralpetaz.com/,Tucson,AZ
Disco Paws,hello@discopaws.com,+17186852864,https://www.discopaws.com/,Astoria,NY
Kennesaw Mountain Animal Hospital,frontdesk@kennesawvet.com,+17704190362,https://kennesawvet.com/,Kennesaw,GA
Noah's Ark Veterinary and Boarding Resort,vet@navbr.com,+14109690100,https://noahsarkboardingresort.com/,Millersville,MD
Noah's Ark Veterinary and Boarding Resort,info@navbr.com,+14109690100,https://noahsarkboardingresort.com/,Millersville,MD
Royal Oak Animal Hospital,frontdesk.royaloakvet@gmail.com,+12485427330,https://royaloakvethospital.com/,Royal Oak,MI
Waggs to Riches,info@waggstoriches.com,+15612728100,http://waggstoriches.com/,Boca Raton,FL
Manhattan Puppies & Kittens,manhattanpuppies@gmail.com,+19144377600,https://www.manhattan-puppies.com/,New York,NY
"Select A Puppy, Inc.",customerservice@selectapuppy.com,+17327067600,https://selectapuppynj.com/,Middletown Township,NJ
Audrey's Barkyard,info@audreysbarkyard.com,+19194358491,https://audreysbarkyard.com/,Wake Forest,NC
Boxer & Dane Pet Hotel & Doggy Daycare,reservations@boxeranddane.com,+12016006980,https://www.boxeranddane.com/,North Arlington,NJ
Hill Family Pet Care,hillfamilypetcarechicago@gmail.com,+12244710622,https://www.hillfamilypetcarechicago.com/,Chicago,IL
K9 University Chicago,k9u@k9uchicago.com,+17735335959,https://k9uchicago.com/,Chicago,IL
NaJu Pets,najupets@shots.pet,+18557071489,https://www.najupets.com/,Panama City,FL
NaJu Pets,info@najupets.com,+18557071489,https://www.najupets.com/,Panama City,FL
VIP Dog Hotel,best.ddc.hotel@gmail.com,+14699547444,https://www.bestdoggydaycarehotel.com/,Dallas,TX
Highmark Kennel,highmarkkennel@aol.com,+15122880847,https://www.highmarkkennel.com/,Austin,TX
"Crossroads Pet Resort, Best Behavior Dog Training, Canine Behavior Specialist",info@crossroadspetresort.com,+17148216622,https://crossroadspetresort.com/?oo-step=true&wait-before-scraping=1000&save-html=false&save-markdown=true,Stanton,CA
Angelcare Pet Resort,angelcarevet3337@gmail.com,+12628868728,http://angelcarevet.net/,Racine,WI
PAWS'itive Pals Dog Training,alphalauren@pawsitivepalsdogtraining.com,+15306157297,http://pawsitivepalsdogtraining.com/,Grass Valley,CA
SAHO Owasso Animal Hospital,info-skiatook@sahovets.com,+19182748387,https://sahovets.com/,Owasso,OK
SAHO Owasso Animal Hospital,info@sahovets.com,+19182748387,https://sahovets.com/,Owasso,OK
Doggie Works,doggieworkschicago@gmail.com,+17736977339,https://www.doggieworks.net/,Chicago,IL
HI-BK Doggy Daycare,woof@hi-bk.com,+17189719605,http://hi-bk.com/,Brooklyn,NY
Blue Dog Boarding & Daycare,info@dogboarding.net,+13012170010,https://www.dogboarding.net/,Kensington,MD
All About Pets,allaboutpetshhi@gmail.com,+18438427387,https://www.allaboutpetshhi.com/,Hilton Head Island,SC
"Tailwaggers Pet Food & Supplies, Pet Boarding, Doggie Daycare and Grooming",info@tailwaggerspets.com,+13234649600,https://tailwaggerspets.com/,Palm Springs,CA
Doggie Zen Den,info@doggiezenden.com,+19727470222,https://www.doggiezenden.com/,Plano,TX
Leader of the Pack Doggie Daycare,leader@lotpdd.com,+16085717225,https://www.lotpdd.com/,Sun Prairie,WI
Perfect Pet,perfectpetfood@adamswells.com,+12608460276,https://perfectpetbluffton.com/,Bluffton,IN
Play All Day Dog Daycare,info@playalldaydoggiedaycare.com,+13096981200,http://playalldaydoggiedaycare.com/,East Peoria,IL
Harmony Pet Resort,info@harmonypetresort.com,+17069231881,https://harmonypetresort.com/,Eatonton,GA
Canine College,enrollment@caninecollegemi.com,+12484278245,https://caninecollegemi.com/,Farmington Hills,MI
The Happy Dog Hotel,christopher@thehappydoghotel.com,+14043698512,https://thehappydoghotel.com/,Johns Creek,GA
The Happy Dog Hotel,stacy@thehappydoghotel.com,+14043698512,https://thehappydoghotel.com/,Johns Creek,GA
The Happy Dog Hotel,frontdesk@thehappydoghotel.com,+14043698512,https://thehappydoghotel.com/,Johns Creek,GA
Northwind Kennels,info@northwindkennelsny.com,+19142343771,https://www.northwindkennelsny.com/,Bedford,NY
Northwind Kennels,kennelsnorthwind@yahoo.com,+19142343771,https://www.northwindkennelsny.com/,Bedford,NY
Country K9,ck9reservations@gmail.com,+15407220189,https://countryk9pets.com/index.html,Stephenson,VA
Country K9,countryk9pets@yahoo.com,+15407220189,https://countryk9pets.com/index.html,Stephenson,VA
AAA Pet Resort,info@aaapetresort.com,+19417441080,https://aaapetresort.com/,Bradenton,FL
Euclid Veterinary Hospital,euclidvethospital@yahoo.com,+19095914706,https://euclidveterinaryhospital.com/,Ontario,CA
Community Animal Hospital,cah2845@hotmail.com,+14234723252,http://vetcleveland.com/,Cleveland,TN
Parkland Veterinary Hospital,vetparkland@gmail.com,+19547571729,https://parklandvethospital.com/,Parkland,FL
Puppy Mansion | Puppies in Miami | Premier Puppy Store,support@puppymansionmiami.com,+17863553444,http://puppymansionmiami.com/,Miami,FL
Angel's Pet World,angelspetworld@comcast.net,+17153866740,https://angelspetworld.com/,Hudson,WI
Pawsitive Pet Services,info@pawsitivepetservicesllc.com,+17129445414,https://pawsitivepetservicesllc.com/,Lawton,IA
Truly Clear Dog Training,Trulycleardogtraining@yahoo.com,+19107873363,https://trulycleardogtraining.com/,Richlands,NC
Animal Care Services,reception@animalcareservices.com,+19513717120,https://animalcareservices.com/,Norco,CA
Epic Puppies,epicpuppiesmiami@gmail.com,+17867176477,http://epicpuppies.com/,Miami,FL
Adorable Pet Salon & Spa,adorablepetsalon@gmail.com,+14788082835,https://www.adorablepetsalon.org/,Byron,GA
The Pooch Parlor,thepoochparlorbklyn@gmail.com,+17186760789,https://thepoochparlornewyork.com/,Brooklyn,NY
Deco Dogs Daycare,carey@decodogs.com,+16037497387,https://decodogs.com/,Dover,NH
Amayla Kennels,amy@amaylakennels.com,+12549673206,https://amaylakennels.com/,Hico,TX
Fast Friends Greyhound Adoption,info@fastfriendsgreyhounds.org,+16033551556,https://www.helpinggreyhounds.org/,Swanzey,NH
Como Pet Lodge,ComoPetLodge@gmail.com,+15205990981,https://www.comopetlodge.com/,Tucson,AZ
K W Pet Resort & Spa Boarding & Grooming,kwpetresortspa@gmail.com,+18048434419,https://www.kwpetresort.com/,West Point,VA
"White Knoll Pet Resort, Day Spa and Aquatic Center",info@wkpetresort.com,+18038080251,http://whiteknollvet.com/,Lexington,SC
Highland Pets,jimmy@petsofhighland.com,+12487148169,https://petsofhighland.com/,Highland,MI
Charlie's Bark Park - Belleville,belleville@charliesbarkpark.com,+16084241300,https://charliesbarkpark.com/,Belleville,WI
Charlie's Bark Park - Belleville,monroe@charliesbarkpark.com,+16084241300,https://charliesbarkpark.com/,Belleville,WI
Bone Sweet Bone,info@bonesweetbone.net,+18189852663,https://bonesweetbone.com/,North Hollywood,CA
Happy Paws Pet Resort,paws@happypawsinc.com,+12124316898,https://www.happypawsinc.com/,New York,NY
Urban Woof NYC,contact@urbanwoof.com,+16468865515,https://urbanwoofnyc.com/,New York,NY
Yale Street Dog House,info@yalestreetdoghouse.com,+13462562338,http://yalestreetdoghouse.com/,Houston,TX
The Dog Stop,info@thedogstop.com,+14123733355,https://thedogstop.com/,Monroeville,PA
Korob Pet Hotel,kpethotel@gmail.com,+18324042337,https://anytimepetsitters.com/,Houston,TX
Tailwaggers & Tailwashers Larchmont Village,info@tailwaggerspets.com,+13234649600,https://tailwaggerspets.com/,Los Angeles,CA
Dog's Den,dogsdentwinfalls@gmail.com,+12089442632,https://dogsdentwinfalls.com/,Filer,ID
Gagnon's Pet Resort,info@gagnonspetresort.com,+18604005172,https://gagnonspetresort.com/,Colchester,CT
PetSuites Middletown,info@petsuitesmdd.com,+14125555555,http://middletown.petsuitesofamerica.com/,Louisville,KY
Dal Acres,dalacreswestkennel@gmail.com,+12177933647,https://dalacreskennel.com/,Springfield,IL
Pawsitive Pet Services,amber@pawsitiveservices.com,+12184610135,https://pawsitiveservices.com/,Floodwood,MN
Rancho Luna Lobos,rescued@lunalobos.com,+14357833473,https://www.lunalobos.com/,Peoa,UT
Meadowlake Pet Resort - 288 South,info@meadowlakepetresort.com,+17134131633,https://www.meadowlakepetresort.com/,Houston,TX
Pet Squire,info@thepetsquire.com,+17862088599,https://thepetsquire.com/,Miami,FL
Bunk & Biscuit,info@bunkandbiscuit.net,+12696842865,https://www.bunkandbiscuit.net/,Niles,MI
ComeSitStay,renee@comesitstayomaha.com,+14029333774,https://comesitstayomaha.com/,Omaha,NE
Town and Country Animal Care Center,tcinfo@tcanimalcare.com,+19193877833,https://www.tcanimalcare.com/,Apex,NC
Furbabies Spa,jenniferg@furbabiesspa1.com,+19542426643,https://www.furbabiesspa1.com/,Coral Springs,FL
Connected Canine,info@connectedcanine.com,+14802994544,https://connectmycanine.com/,Glendale,AZ
Town & Country Pet Care Center,info@townandcountrypetcarecenter.com,+12157523661,https://www.townandcountrypetcarecenter.com/,Langhorne,PA
Chino's Caring Kennel,info@chinoscaringkennel.com,+19096272212,https://www.chinoscaringkennel.com/,Chino,CA
Brook-Falls Luxury Pet Resort & Doggy Daycare,resort@brook-falls.com,+12628466006,https://www.brookfallsveterinary.com/,Menomonee Falls,WI
Brook-Falls Luxury Pet Resort & Doggy Daycare,dvm@brook-falls.com,+12628466006,https://www.brookfallsveterinary.com/,Menomonee Falls,WI
The Pet Palace,info@thepetpalace.net,+12812149231,https://thepetpalace.net/,Webster,TX
Wingmont Stables & Kennels Inc,wingmont@earthlink.net,+18049942712,https://www.wingmont.com/,Aylett,VA
Happy Hound Dog Resorts,happyhounddogresorts@gmail.com,+19048008800,https://www.happyhounddogresorts.com/,Jacksonville,FL
Alcala Country Pet Resort,alcalacountrypetresort@gmail.com,+17604366619,https://alcalacountrypetresort.com/,Encinitas,CA
Woodland Lodge Pet Resort,resort@doralvet.com,+17863914949,https://miamipetresort.com/,Doral,FL
Meadowlake Pet Resort,info@meadowlakepetresort.com,+17134131633,https://www.meadowlakepetresort.com/,Houston,TX
Posh Pets Hamshire-Fannett,poshpets124@gmail.com,+14097942557,https://poshpetssetx.com/,Hamshire,TX
Tina Critter Sitter Pet Care Services,Tina@tinathecrittersitter.com,+12058862408,https://www.tinathecrittersitter.com/,Northport,AL
Happy Tails Pet Resort and Spa,customerservice@happytailsvermont.com,+18024895496,https://www.happytailsvermont.com/,South Burlington,VT
PetSuites Dayton,info@petsuitesdayton.com,+19375501364,http://dayton.petsuitesofamerica.com/,Dayton,OH
Ugly Dog Daycare & Training,uglydogdaycareandtraining@gmail.com,+18102504902,https://www.uglydogdaycareandtraining.com/,Goodrich,MI
Bittersweet Pet Resorts - Northwest Indiana Area,info@bittersweetpetresorts.com,+12696847361,http://bittersweetpetresorts.com/,Valparaiso,IN
Shady Spring Pet Retreat,info@shadyspringpetretreat.com,+14107951957,https://shadyspringpetretreat.com/,Woodbine,MD
FUSION Pet Retreat,info@fusionpetretreat.com,+19529369000,https://fusionpetretreat.com/,Minnetonka,MN
All Island Pet Supplies,allislandpet@gmail.com,+16314487990,https://www.allislandpetsupplies.com/,Middle Island,NY
It's A Pet's World,info@itsapetsworld.biz,+17813310181,https://www.itsapetsworld.biz/,Weymouth,MA
Gibson's Natural Pet,info@gibsonsnaturalpet.com,+15089268627,https://gibsonsnaturalpet.com/,Worcester,MA
M&D Bird World Exotic Birds,info.mdbirdfarm@gmail.com,+13026844101,https://manddbirdfarm.com/,Harbeson,DE
Strutting Mutts | Dog Walkers | Day Care,info@struttingmutts.com,+16463622271,https://www.struttingmutts.com/,Brooklyn,NY
Frisky Dream Puppies,friskypuppies1@gmail.com,+12567384413,https://www.friskypuppies.com/,Arab,AL
Fairfield Area Humane Society Adoption Center and Wellness Clinic,info@fairhumane.org,+17406870627,http://fairhumane.org/,Lancaster,OH
Francis Kennels,contactfranciskennels@gmail.com,+19373741636,https://www.franciskennels.com/,Xenia,OH
Dog Dynamics — Dog Training Briones,info@dogdynamics.org,+19252298200,https://dogdynamics.org/,Briones,CA
One Paw Away Dog Grooming,Onepawaway@outlook.com,+19086529989,https://www.onepawaway.net/,Succasunna,NJ
The Dog Stop - Lafayette,info@thedogstop.com,+13376282275,https://thedogstop.com/,Lafayette,LA
"The Dog Stop - Trussville, Birmingham",info@thedogstop.com,+12056557297,https://thedogstop.com/,Birmingham,AL
"The Dog Stop - Wexford, PA",info@thedogstop.com,+17249353647,https://thedogstop.com/,Wexford,PA
Woof! Orlando,wooforlando@gmail.com,+14074222206,https://wooforlando.com/,Orlando,FL
Woof! Orlando,Michelle@wooforlando.com,+14074222206,https://wooforlando.com/,Orlando,FL
Woof! Orlando,Boarding@wooforlando.com,+14074222206,https://wooforlando.com/,Orlando,FL
Woof! Orlando,Grooming@wooforlando.com,+14074222206,https://wooforlando.com/,Orlando,FL
"The Dog Stop - Boardman, OH",info@thedogstop.com,+13306299247,https://thedogstop.com/,Boardman,OH
"The Dog Stop - Gulf Breeze, FL",info@thedogstop.com,+18505655335,https://thedogstop.com/,Gulf Breeze,FL
Shaggy to Chic Dog Enhancement Center,info@shaggytochicdec.com,+18065707806,https://www.shaggytochicdec.com/,Amarillo,TX
Double Dog Day Care,info@doubledogdaycare.com,+13309684272,https://doubledogdaycare.com/,Stow,OH
On Cloud Canine LLC,info@cloudcanine.dog,+13306965574,https://cloudcanine.dog/,Akron,OH
Critter Clipper Boutique,tonka.gt47@gmail.com,+17149626988,https://critterclipperboutiqueca.com/,Fountain Valley,CA
Fit & Go Pets,woof@fitandgopets.com,+18886919461,https://fitandgopets.com/,Miami,FL
Bokhara Kennels - Traverse City Area,er-pets@bokhara.com,+12312646667,https://www.bokharapetresort.com/,Williamsburg,MI
Ruff Day Pet Resort,info@ruffdayresort.com,+15855632630,https://www.ruffdayresort.com/,Webster,NY
Bark Avenue Pet Resort,supply.mesa@barkavepet.com,+14802105610,http://barkavepet.com/,Mesa,AZ
Bark Avenue Pet Resort,resort.bark@barkavepet.com,+14802105610,http://barkavepet.com/,Mesa,AZ
Bark Avenue Pet Resort,supply.gilbert@barkavepet.com,+14802105610,http://barkavepet.com/,Mesa,AZ
Wagsworth Manor Pet Resort,wags@wagsworthmanor.com,+16102510434,https://wagsworthmanor.com/,Malvern,PA
Spa Paw & Tail Premier Pet Resort,info@spapawandtail.com,+12627847297,http://spapawandtail.com/,New Berlin,WI
Bed & Biscuit Austin,info@bedandbiscuitaustin.com,+15123430723,https://bedandbiscuitaustin.com/,Austin,TX
City Pet Club,havingfun@citypetclub.com,+18015316566,http://citypetclub.com/,Salt Lake City,UT
Companion Pet Lodge,hello@companionpetlodge.net,+12482212121,http://companionpetlodge.net/,Waterford Twp,MI
"Wilton's Manor Doggie Daycare, Resort & Spa",alan@wiltonsmanor.com,+17542234776,https://wiltonsmanor.com/,Wilton Manors,FL
"Wilton's Manor Doggie Daycare, Resort & Spa",josh@wiltonsmanor.com,+17542234776,https://wiltonsmanor.com/,Wilton Manors,FL
"Jackson's Place Unleashed Pet Resort & Bakery - Dog Daycare, Dog Boarding, Dog Grooming & Dog Training",Midtown@jacksonsplace.com,+17135291200,https://houstondogdaycare.com/,Houston,TX
A Paw Above Canine Boarding Service,info@apawaboveboarding.com,+17193867291,https://www.apawaboveboarding.com/,Colorado Springs,CO
Fido Fido Dog Daycare & Boarding,info@fidofido.com,+14042503920,https://www.fidofido.com/,Alpharetta,GA
Whispering Pines Pet Resort,info@whisperingpinespetresort.com,+13037763907,https://whisperingpinespetresort.com/,Longmont,CO
Klassic Tails Inn,TheTeam@klassictailsinn.com,+15419351180,https://www.klassictailsinn.com/,Elmira,OR
PetAgree Fun Lodge & Styling Salons,contact@pafunlodge.com,+13178387248,https://www.petagreeresorts.com/,Brownsburg,IN
Camp TLC Pet Resort,gaildogmom@gmail.com,+14086566402,https://mobile-pet-grooming.com/,Aromas,CA
Bass Pet Resort & Spa,info@basspetresort.com,+14078636806,https://basspetresort.com/,Kissimmee,FL
Poochie's Park,poochies@poochiespark.com,+19042724545,https://poochiespark.com/,Orange Park,FL
Muddy Paws Grooming and Boarding,muddypaws117@gmail.com,+19562941296,https://muddypawstx.com/,Mercedes,TX
A Walk In The Bark,AWalkInTheBark2@gmail.com,+19783889663,https://awitb.com/,Merrimac,MA
OnePupTwoPup Dog Grooming,onepuptwopupnyc@gmail.com,+19292087907,https://www.onepuptwopup.com/,Brooklyn,NY
Playful Pooch Doggie Daycare,info@playfulpooch.net,+17246877911,http://playfulpooch.net/,Mars,PA
Urban Hound,info@urbanhoundreno.com,+17757871410,https://urbanhoundreno.com/index.html,Reno,NV
Almost Home Pet Resort,ahpr@att.net,+12549392501,https://almosthomepetresorttx.com/,Temple,TX
Happy Tails Dog Camp Brooklyn,happytailsadventurecamp@gmail.com,+17324543373,https://www.happytail-dogs.com/,Brooklyn,NY
DogWoods Pet Hotel & Spa,DogWoods325@gmail.com,+17708944100,https://dogwoodskennel.com/,Jasper,GA
Cloud Nine Pet Resort and Spa,cloudninepetresort@gmail.com,+19724421199,https://cloudninepetresort.com/,Wylie,TX
Macfee's Paw Spa & Inn,macfeespawspa@gmail.com,+13083403433,https://macfeespawspa.com/,McCook,NE
Hot Diggity Dog Daycare,info@hotdiggitydogdaycare.com,+17024057774,https://hotdiggitydogdaycare.com/,Las Vegas,NV
Smooch My Pooch,info@smoochmypooch.com,+12252626061,http://smoochmypooch.com/,Greenwell Springs,LA
Sirius Pet Styling: Dog Grooming & Doggy Daycare,SiriusPetStyling@yahoo.com,+17023645566,https://www.siriuspetstyling.com/,Las Vegas,NV
My Pets Place,info@mypetsplace.com,+13036830330,http://mypetsplace.com/,Littleton,CO
West LA Dogs- Big Dog Building,westladogs@gmail.com,+13105970424,https://www.westladogs.com/,Los Angeles,CA
"Firefly Kennel, LLC",fireflykennel@gmail.com,+12072343566,https://www.fireflykennel.com/,Dixmont,ME
"Countryside Bed & Biscuit For Pets, Ltd.",countrysidebedandbiscuit@gmail.com,+18047948702,https://countrysidebedandbiscuit.com/,Powhatan,VA
Monte Vista Pet Lodge,info@mvpetlodge.com,+15059981494,https://www.mvpetlodge.com/,Rio Rancho,NM
Tahoe Best Friends,reservations@tahoebestfriends.com,+15305422336,https://tahoebestfriends.com/,South Lake Tahoe,CA
Four Paws Pet Resort VI,info@fourpawspetresort.com,+18042234569,https://4pawsresort.com/,Richmond,VA
Four Paws Pet Resort VI,contact@fourpawspetresort.com,+18042234569,https://4pawsresort.com/,Richmond,VA
Paws in Paradise,info@pawsinparadisesc.com,+18433885978,https://www.pawsinparadisesc.com/,Mt Pleasant,SC
Bark 'N' Town Pet Resort and Day Spa,info@barkntown.com,+18157592275,https://barkntown.com/,Ingleside,IL
BarksBnb,barksbnb@gmail.com,+19417446486,http://barksbnb.com/,Bradenton,FL
Mid City Animal House Dog Daycare & Boarding,MidCityAnimalHouse@gmail.com,+15043736640,https://www.midcityanimalhouse.com/,New Orleans,LA
Bed & Biscuits Pet Retreat,bbpetretreat@gmail.com,+18597339306,https://www.bbpetretreat.com/,Harrodsburg,KY
Clippendales,quote@aquospoolservices.com,+18887712236,https://aquospoolservices.com/,Montgomery,TX
Nefertitis Puppy Palace,info@nefertitispuppypalace.com,+19543664747,https://nefertitispuppypalace.com/,Pompano Beach,FL
Nefertitis Puppy Palace,nefertitispuppypalace@gmail.com,+19543664747,https://nefertitispuppypalace.com/,Pompano Beach,FL
Mary's Pooch Pad,maryspoochpad@gmail.com,+16305538918,https://www.maryspoochpad.com/,Newark,IL
Sutton Place,info@suttonplacepetboarding.com,+12568888888,https://suttonplacepetboarding.com/,Bluefield,WV
Midwest Dog Center,info@midwestdogcenter.com,+13163006893,https://www.midwestdogcenter.com/,Andale,KS
The Best Little Dog House In Texas,bldhtx@gmail.com,+17135331117,https://www.thebestlittledoghouseintexas.com/,Houston,TX
Clark's Canine Camp,katnkids18@gmail.com,+14065292971,http://clarksk9camp.com/,Stevensville,MT
DogDayz,headdog@dog-dayz.com,+13177734500,https://dog-dayz.com/?oo-step=true&wait-before-scraping=1000&save-html=false&save-markdown=true,Noblesville,IN
Copyright Pet Resort,copyrightpetresort@gmail.com,+19313728107,https://www.copyrightpetresort.com/,Cookeville,TN
Ooh La La Pet Spaw and Hotel,OOHLALAPETSPAWANDHOTEL@gmail.com,+19045248707,https://www.oohlalapetspaw.com/,Jacksonville,FL
A Pet's Life,info@apetslife.com,+17063640766,http://apets-life.com/,Augusta,GA
BARK! Doggie Daycare + Hotel + Spa,info@barkdenver.com,+13032191003,https://barkdenver.com/,Denver,CO
Red River Pet Resort LLC,cheryl_6000@yahoo.com,+15803806938,http://redriverpetresort.com/,Mead,OK
Inn The Doghouse,info@innthedoghouse.com,+12166510873,https://innthedoghouse.com/,Lakewood,OH
Inn The Doghouse,mentor@innthedoghouse.com,+12166510873,https://innthedoghouse.com/,Lakewood,OH
Shady Pines Kennels,shadypines1@yahoo.com,+19128442883,https://www.shadypinessav.com/,Savannah,GA
Lucy's Doggy Daycare and Spa,info@lucysdoggydaycare.com,+12104953647,https://lucysdoggydaycare.com/,San Antonio,TX
Bloomingtails Pet Grooming LLC,info@bloomingtails.us,+19734259274,https://bloomingtails.us/,Morristown,NJ
"Golden Wood, Georgetown",gwgeorgetown@gmail.com,+17245734665,https://www.goldenwoodgeorgetown.com/,Georgetown,PA
"DogGone Gorgeous; Daycare, Boarding & Grooming",DG3sandusky@gmail.com,+15672835150,https://www.doggonegorgeous.net/,Sandusky,OH
"DogGone Gorgeous; Daycare, Boarding & Grooming",dgggrooming@gmail.com,+15672835150,https://www.doggonegorgeous.net/,Sandusky,OH
Readington Animal Hospital,readingtonvet@gmail.com,+19085344058,http://readingtonvet.com/,Readington Township,NJ
Cedar Run Company #2,Info860@cedarruncompany.com,+13192005381,http://cedarruncompany.com/,Hiawatha,IA
Cedar Run Company #2,info@cedarruncompany.com,+13192005381,http://cedarruncompany.com/,Hiawatha,IA
Broken Arrow Pet Resort & Spa,BAPetResort@gmail.com,+19184863494,https://brokenarrowpetresort.com/,Coweta,OK
"Copeland's Pet Motel & Grooming, Inc.",copelandspmg@gmail.com,+12516615021,http://copelandspetmotel.com/,Mobile,AL
Red Barn Pet Retreat - Dog Boarding Maple Grove,redbarnpetretreat@gmail.com,+17632089711,https://www.redbarnpetretreat.com/,Rogers,MN
Kathy's Pampered Paws,kathyspamperedpaws@live.com,+19316470586,https://kathyspamperedpaws.com/,Clarksville,TN
West LA Dogs- Small Dog Building,westladogs@gmail.com,+13105970424,https://www.westladogs.com/,Los Angeles,CA
Three Bark Pet Hotel,sunderwood@threebarkpethotel.com,+18177186004,https://threebarkpethotel.com/,Alvarado,TX
South Park Doggie - Adventureland (South Bay),adventureland@southparkdoggie.com,+13107566110,http://southparkadventureland.com/,Gardena,CA
Woodstock Canine Clubhouse,woodstockcanineclubhouse@gmail.com,+18153085815,https://www.woodstockcanineclubhouse.com/,Woodstock,IL
Shel-Ray Pet Shalet,pets@shelray.net,+12628572163,https://shelray.net/,Bristol,WI
Golden Wood Aliquippa,gwaliquippa@gmail.com,+17243781202,https://www.goldenwoodaliquippa.com/,Aliquippa,PA
Fat Cat's Dog Boarding,fatcatsdogboarding@gmail.com,+19137243647,https://www.fatcatsdogboarding.com/,Basehor,KS
The Woof On Durand Dog Daycare & Boarding,info@the-woof.com,+12624978787,https://www.the-woof.com/,Sturtevant,WI
Moonshadow Pet Resort,info@moonshadowkennel.com,+18435590571,https://www.moonshadowpetresort.com/,Johns Island,SC
Doggy Daydream,doggydaydreamllc@gmail.com,+18479472807,https://doggydaydream.com/,Prospect Heights,IL
Southern Country Pet Care,FrontDesk@southerncountrypetcare.com,+18643774378,http://southerncountrypetcare.com/,Greenwood,SC
Four Paws Pet Resort,info@fourpawsinc.com,+16518822211,https://fourpawsinc.com/,Eagan,MN
Downtown Dog Lounge,slu@downtowndoglounge.com,+12064824665,https://www.downtowndoglounge.com/,Seattle,WA
Downtown Dog Lounge,ballard@downtowndoglounge.com,+12064824665,https://www.downtowndoglounge.com/,Seattle,WA
Downtown Dog Lounge,reservations@downtowndoglounge.com,+12064824665,https://www.downtowndoglounge.com/,Seattle,WA
Bokhara Pet Resort (Elk Rapids - Williamsburg),er-pets@bokhara.com,+12312646667,https://www.bokharapetresort.com/,Williamsburg,MI
Almost Home Pet Resort,contactus@almosthomeboxelder.com,+16059237000,https://petresort.almosthomeboxelder.com/,Box Elder,SD
The Bark Park,info@thebarkparkonline.com,+17722208605,https://thebarkparkonline.com/,Stuart,FL
Citydog! Club,info@citydogclub.com,+12065551234,https://www.citydogclub.com/,West Hollywood,CA
PAWS Pet Concierge,pppooches@yahoo.com,+19196010233,http://pawsconcierge.dog/,Cary,NC
Brendle's Boarding & Daycare,Brendlespetplay@gmail.com,+15017014401,https://www.hotspringsboarding.com/,Pearcy,AR
Mud Creek Kennels & Retrievers,mudcreekboardingkennels@gmail.com,+14233094888,https://www.mudcreekkennel.com/,Dayton,TN
Spanish Springs Pet Resort,info@spanishspringspetresort.com,+17757419117,https://www.spanishspringspetresort.com/,Sparks,NV
Handsome Hounds Boarding and Grooming LLC,hhpgadel@icloud.com,+15159934466,http://adelgroomingboarding.com/,Adel,IA
Jorgensen's Doggy Barn,jorgensensdoggybarn@gmail.com,+15179304020,https://www.jorgensensdoggybarn.com/,Williamston,MI
McGrupp's Doggie Daycare,mcgruppsdoggiedaycare@gmail.com,+19783044990,https://www.mcgruppsdoggiedaycare.com/,Middleton,MA
Marsh Pups Grooming,info@marshpupsgrooming.com,+18432992020,https://marshpups.com/,Murrells Inlet,SC
Canine Country Club & Feline Inn,info@caninecountryclub.com,+16022448171,http://caninecountryclubaz.com/,Phoenix,AZ