business_name,email,phone,website,city,state
Zero Excuses Physical Therapy,dr.reubenjames@gmail.com,+13468670003,https://zeroxpt.com/,Missouri City,TX
Park Sports Physical Therapy,williamsburg@ivyrehab.com,+19295902212,https://parksportspt.com/,Brooklyn,NY
Park Sports Physical Therapy,clintonhill@ivyrehab.com,+19295902212,https://parksportspt.com/,Brooklyn,NY
Park Sports Physical Therapy,ppw@ivyrehab.com,+19295902212,https://parksportspt.com/,Brooklyn,NY
Park Sports Physical Therapy,southslope@ivyrehab.com,+19295902212,https://parksportspt.com/,Brooklyn,NY
Park Sports Physical Therapy,williamsburg@ivyrehab.com,+19295902212,https://parksportspt.com/,Brooklyn,NY
Park Sports Physical Therapy,clintonhill@ivyrehab.com,+19295902212,https://parksportspt.com/,Brooklyn,NY
Park Sports Physical Therapy,ppw@ivyrehab.com,+19295902212,https://parksportspt.com/,Brooklyn,NY
Park Sports Physical Therapy,southslope@ivyrehab.com,+19295902212,https://parksportspt.com/,Brooklyn,NY
Park Sports Physical Therapy,williamsburg@ivyrehab.com,+19295902212,https://parksportspt.com/,Brooklyn,NY
Park Sports Physical Therapy,clintonhill@ivyrehab.com,+19295902212,https://parksportspt.com/,Brooklyn,NY
Park Sports Physical Therapy,ppw@ivyrehab.com,+19295902212,https://parksportspt.com/,Brooklyn,NY
Park Sports Physical Therapy,southslope@ivyrehab.com,+19295902212,https://parksportspt.com/,Brooklyn,NY
Park Sports Physical Therapy,williamsburg@ivyrehab.com,+19295902212,https://parksportspt.com/,Brooklyn,NY
Park Sports Physical Therapy,clintonhill@ivyrehab.com,+19295902212,https://parksportspt.com/,Brooklyn,NY
Park Sports Physical Therapy,ppw@ivyrehab.com,+19295902212,https://parksportspt.com/,Brooklyn,NY
Park Sports Physical Therapy,southslope@ivyrehab.com,+19295902212,https://parksportspt.com/,Brooklyn,NY
Victory Rehabilitation,info@victoryrehabilitation.net,+17065075917,https://victoryrehabilitation.net/,Columbus,GA
"Kauai Therapy & Wellness, Sandpoint - Ponderay, Idaho",idaho@kit-therapy.com,+12082059559,https://kit-therapy.com/,Ponderay,ID
Superior Physical Therapy,andrewg@thesuperiortherapy.com,+12314219300,https://www.thesuperiortherapy.com/,Traverse City,MI
Sea Pines Physical Therapy,hello@seapinespt.com,+12066140256,https://www.seapinespt.com/,Seattle,WA
Paramount Physical Therapy & Rehab,info@pararehab.com,+17132705900,http://pararehab.com/,Katy,TX
"Activelife Therapy | Back, Knee & Shoulder Pain Specialist in Grayslake-Gurnee, IL",ptyugi@activelifechicagopt.com,+12244994494,http://activelifechicagopt.com/,Grayslake,IL
Prestige and Performance Physical Therapy,info@pnpphysicaltherapy.com,+16265668444,https://www.pnpphysicaltherapy.com/,Pasadena,CA
Protailored Physical Therapy,info@protailored.com,+12607390300,https://protailored.com/,Fort Wayne,IN
Protailored Physical Therapy,infolima@protailored.com,+12607390300,https://protailored.com/,Fort Wayne,IN
ProTailored Physical Therapy,info@protailored.com,+12607390300,https://protailored.com/,Fort Wayne,IN
ProTailored Physical Therapy,infolima@protailored.com,+12607390300,https://protailored.com/,Fort Wayne,IN
ProTailored Physical Therapy,info@protailored.com,+12607390300,https://protailored.com/,Fort Wayne,IN
ProTailored Physical Therapy,infolima@protailored.com,+12607390300,https://protailored.com/,Fort Wayne,IN
ProTailored Physical Therapy,info@protailored.com,+12607390300,https://protailored.com/,Fort Wayne,IN
ProTailored Physical Therapy,infolima@protailored.com,+12607390300,https://protailored.com/,Fort Wayne,IN
ProTailored Physical Therapy,info@protailored.com,+12607390300,https://protailored.com/,Fort Wayne,IN
ProTailored Physical Therapy,infolima@protailored.com,+12607390300,https://protailored.com/,Fort Wayne,IN
Wellcare Rehabilitation & Wellness Center,info@wellcarerehab.com,+19544544280,https://wellcarerehab.com/,Hallandale Beach,FL
Optimize Physical Therapy and Performance - Michigan,zaki@optimizeptp.com,+17025509552,https://optimizeptp.com/,Bloomfield Township,MI
Northwest Injury Care,info@nwinjurycare.com,+15032068988,https://nwinjurycare.com/,Portland,OR
Activa Physical Therapy,info@goactiva.com,+16306016192,https://goactiva.com/,Burr Ridge,IL
WildHawk Physical Therapy,info@wildhawkpt.com,+18283658133,https://wildhawkphysicaltherapy.com/,Asheville,NC
WildHawk Physical Therapy,pelvichealth@wildhawkpt.com,+18283658133,https://wildhawkphysicaltherapy.com/,Asheville,NC
Rebound Performance Physical Therapy,jon@reboundperformancept.com,+12036017446,https://www.reboundperformancept.com/,Newington,CT
On Point Massage Therapy,OnPointMT@gmail.com,+16198210744,https://www.onpointmassagetherapy.com/,La Mesa,CA
OrMobility Physical Therapy & Performance,garrett.stroup@ormobility.com,+15418453311,https://ormobility.com/,Roseburg,OR
Pros In Rehab,ptpros@prosinrehab.com,+14083997054,https://www.prosinrehab.com/,San Jose,CA
Austin Preferred Integrative Medicine,info@austinpreferred.com,+15124422727,https://austinpreferred.com/,Austin,TX
Peak Physiotherapy and Performance,andrew.junak@p3physio.com,+16144670285,https://p3physio.com/,Blacklick,OH
Peak Physiotherapy and Performance,andrew.junak@p3physio.com,+16144670285,https://p3physio.com/,Canal Winchester,OH
Onyx Physio and Performance,steven@onyxphysionova.com,+17036798917,https://onyxphysionova.com/,Herndon,VA
RēBalance Physical Therapy,info@rebalancewellness.com,+14692005784,https://www.rebalancewellness.com/,McKinney,TX
MindBody Alignment,info@mbalignment.com,+17272105941,https://mbalignment.com/,Largo,FL
CapitalFX - PRIDE Rehabilitation,info@pridedallas.com,+15125037399,https://www.capitalfxaustin.com/,Austin,TX
Quan Medical PLLC,quan@quanmedical.com,+15168987676,https://quanmedical.com/,Hempstead,NY
Ability Rehabilitation,Administration@abilityrehabilitation.com,+14076880071,https://abilityrehabilitation.com/,South Daytona,FL
Gaon Wellness Acupuncture Physical Therapy Chiropractic k-town Manhattan New York 케이타운 맨하탄 병원,gaonwellnessnyc@gmail.com,+19177977000,https://gaonwellness.com/,New York,NY
Club Move Physical Therapy,info@clubmovept.com,+17812022065,https://clubmovept.com/,Burlington,MA
Impact Health & Wellness,info@ihwoh.com,+16149426986,https://impacthealthoh.com/,Westerville,OH
Good Life Physical Therapy,info@goodlifegr.com,+16168556588,https://goodlifegr.com/,Grand Rapids,MI
"Orthopedic & Spine Physical Therapy, PC",denise@orthopedicspinept.com,+15187936333,https://www.orthopedicspinept.com/,Queensbury,NY
"Orthopedic & Spine Physical Therapy, PC",denise.orthospine@gmail.com,+15187936333,https://www.orthopedicspinept.com/,Queensbury,NY
Red Rock Physical Therapy and Wellness McHenry,RRteam@redrocktherapy.com,+18154514502,https://www.redrocktherapy.com/,McHenry,IL
Journey to Harmony Physical Therapy,journeytoharmonypt@gmail.com,+18136413901,https://www.startyourptjourney.com/,Ruskin,FL
Kendall Performance Physical Therapy,kendalldpt@gmail.com,+17162210040,http://kendallperformancept.com/,Williamsville,NY
Lunara Pediatric Therapy,support@lunara.llc,+12677779878,http://lunara.llc/,Oreland,PA
FYZICAL Therapy & Balance Centers - Garfield Ridge,info@fyzicalchicago.com,+13129000994,https://fyzicalchicago.com/,Chicago,IL
Ability Rehabilitation,Administration@abilityrehabilitation.com,+14076880071,https://abilityrehabilitation.com/,Kissimmee,FL
Rise Above Physical Therapy,mike@riseaboveptllc.com,+19782522537,https://www.riseaboveptllc.com/,Methuen,MA
Cohen Health and Performance,info+mclean@cohenhealth.com,+12406865609,https://cohenhp.com/,Bethesda,MD
Cohen Health and Performance,info+bethesda@cohenhealth.com,+12406865609,https://cohenhp.com/,Bethesda,MD
Ability Rehabilitation,Administration@abilityrehabilitation.com,+14076880071,https://abilityrehabilitation.com/,Sanford,FL
Ability Rehabilitation,Administration@abilityrehabilitation.com,+14076880071,https://abilityrehabilitation.com/,Clermont,FL
Ability Rehabilitation,Administration@abilityrehabilitation.com,+14076880071,https://abilityrehabilitation.com/,Orlando,FL
ProRehab Physical Therapy,info@prorehabinc.net,+19784526633,https://www.prorehabinc.com/,Chelmsford,MA
Spectrum Spine & Sport Physical Therapy,info@spectrumspineandsport.com,+14805737355,https://spectrumspineandsport.com/,Gilbert,AZ
Quality Care Physical Therapy,info@qualitycarept.com,+14254866079,https://www.qualitycarept.com/,Bothell,WA
Continuous Motion Physical Therapy- Goodyear,admin@continuousmotionpt.com,+16233438706,https://continuousmotionpt.com/,Goodyear,AZ
Recalibrate Osteopractic & Wellness Physical Therapy,drhartley@hartleypt.com,+19033633391,https://hartleypt.com/,College Station,TX
Ability Rehabilitation,Administration@abilityrehabilitation.com,+14076880071,https://abilityrehabilitation.com/,New Smyrna Beach,FL
Ability Rehabilitation,Administration@abilityrehabilitation.com,+14076880071,https://abilityrehabilitation.com/,Ormond Beach,FL
Carp Physio,drflores@carp-physio.com,+18055660600,https://carp-physio.com/,Carpinteria,CA
Body Gears Physical Therapy - Oak Brook,info@bodygears.com,+18474476040,https://bodygears.com/,Oak Brook,IL
Tristar Physical Therapy,leads@tristarpt.com,+14233177772,https://tristarpt.com/,Jefferson City,TN
Rehabworks Physical Therapy,info@rehabworks-llc.com,+12397343404,https://rehabworks-llc.com/,Naples,FL
Professional Physical Therapy & Sports Medicine 340,frontdesk@proptinc.com,+15085286100,https://proptinc.com/,Franklin,MA
Ability Rehabilitation,Administration@abilityrehabilitation.com,+14076880071,https://abilityrehabilitation.com/,Deltona,FL
Ability Rehabilitation,Administration@abilityrehabilitation.com,+14076880071,https://abilityrehabilitation.com/,Orlando,FL
ProRehab Physical Therapy,info@prorehabinc.net,+19784526633,https://www.prorehabinc.com/,Lowell,MA
Ability Rehabilitation,Administration@abilityrehabilitation.com,+14076880071,https://abilityrehabilitation.com/,Winter Park,FL
Body Gears Physical Therapy - Wheaton,info@bodygears.com,+18474476040,https://bodygears.com/,Wheaton,IL
Willard Physical Therapy Center,admin@willardphysicaltherapy.com,+14177449674,https://willardphysicaltherapy.com/,Willard,MO
Advanced Hand Rehabilitation,aaylett@atlanticptcenter.com,+17326004763,https://advancedhand.com/,Brick Township,NJ
Bodywise Physical Therapy Epping,info@bodywisenh.com,+16036798100,https://bodywisenh.com/,Epping,NH
Carlson Procare,support@carlsonprocare.com,+18603547605,https://carlsonprocare.com/,Meriden,CT
Rogers Physical Therapy and Sports Performance - Walla Walla,greg@rogerspt.com,+15097305950,https://www.rogerspt.com/,Walla Walla,WA
Ability Rehabilitation,Administration@abilityrehabilitation.com,+14076880071,https://abilityrehabilitation.com/,Palm Coast,FL
Body Gears Physical Therapy - Oak Park,info@bodygears.com,+18474476040,https://bodygears.com/,Oak Park,IL
208 Physical Therapy,admin@208pt.com,+12082612123,https://208pt.com/,Rexburg,ID
ProTouch Physical Therapy,contact@protouchpt.com,+19083256556,https://www.protouchpt.com/,Cranford,NJ
Body Gears Physical Therapy - Lincoln Park,info@bodygears.com,+18474476040,https://bodygears.com/,Chicago,IL
Ability Rehabilitation,Administration@abilityrehabilitation.com,+14076880071,https://abilityrehabilitation.com/,Orlando,FL
Newbury Park Physical Therapy,npptbilling@nppt.com,+18054987613,https://www.nppt.com/,Newbury Park,CA
Newbury Park Physical Therapy,frontoffice@nppt.com,+18054987613,https://www.nppt.com/,Newbury Park,CA
Revolution Rehab Physical Therapy,tyler@therevolutionrehab.com,+16163444469,https://www.therevolutionrehab.com/,Grand Rapids,MI
Body Gears Physical Therapy - West Loop,info@bodygears.com,+18474476040,https://bodygears.com/,Chicago,IL
Ability Rehabilitation,Administration@abilityrehabilitation.com,+14076880071,https://abilityrehabilitation.com/,Orange City,FL
CrossRoads Physical Therapy,admin@crphysicaltherapy.com,+13042389468,https://crphysicaltherapy.com/,Wheeling,WV
Body Gears Physical Therapy - Winnetka,info@bodygears.com,+18474476040,https://bodygears.com/,Winnetka,IL
Ability Rehabilitation,Administration@abilityrehabilitation.com,+14076880071,https://abilityrehabilitation.com/,Winter Springs,FL
PTA Physical Therapy - Whitefish (at The Wave),downtownreception@ptflathead.com,+14068920854,https://ptflathead.com/,Whitefish,MT
PTA Physical Therapy - Whitefish (at The Wave),bigforkreception@ptflathead.com,+14068920854,https://ptflathead.com/,Whitefish,MT
PTA Physical Therapy - Whitefish (at The Wave),lakesidereception@ptflathead.com,+14068920854,https://ptflathead.com/,Whitefish,MT
PTA Physical Therapy - Whitefish (at The Wave),kalispellreception@ptflathead.com,+14068920854,https://ptflathead.com/,Whitefish,MT
PTA Physical Therapy - Whitefish (at The Wave),whitefishreception@ptflathead.com,+14068920854,https://ptflathead.com/,Whitefish,MT
PTA Physical Therapy - Whitefish (at The Wave),cfallsreception@ptflathead.com,+14068920854,https://ptflathead.com/,Whitefish,MT
"Valenna Health - Neuromuscular Therapy, Sports & Deep Tissue Massage, Postural Correction ME 44522",Hello@valennahealth.com,+17865404055,https://valennahealth.com/,Hallandale Beach,FL
NeoLife Physical Therapy and Wellness,contact@apexrehabbilling.com,+12282808120,https://www.neolifept.com/,D'Iberville,MS
NeoLife Physical Therapy and Wellness,contact@neolifept.com,+12282808120,https://www.neolifept.com/,D'Iberville,MS
Coury & Buehler Physical Therapy,info@cbphysicaltherapy.com,+17142565074,https://cbphysicaltherapy.com/,Newport Beach,CA
PTA Physical Therapy - Polson,downtownreception@ptflathead.com,+14068920854,https://ptflathead.com/,Polson,MT
PTA Physical Therapy - Polson,bigforkreception@ptflathead.com,+14068920854,https://ptflathead.com/,Polson,MT
PTA Physical Therapy - Polson,lakesidereception@ptflathead.com,+14068920854,https://ptflathead.com/,Polson,MT
PTA Physical Therapy - Polson,kalispellreception@ptflathead.com,+14068920854,https://ptflathead.com/,Polson,MT
PTA Physical Therapy - Polson,whitefishreception@ptflathead.com,+14068920854,https://ptflathead.com/,Polson,MT
PTA Physical Therapy - Polson,cfallsreception@ptflathead.com,+14068920854,https://ptflathead.com/,Polson,MT
Miami Stretch Therapy,stretchingmiami@gmail.com,+17865480360,https://www.miamistretchtherapy.com/,Miami Beach,FL
Envision Physical Therapy,Envisionphysicaltherapy@yahoo.com,+14079360316,https://www.envisionlakemary.com/,Lake Mary,FL
Coury & Buehler Physical Therapy,info@cbphysicaltherapy.com,+17142565074,https://cbphysicaltherapy.com/,Irvine,CA
Advance Physical Therapy,info@example.com,+18004567890,https://www.advancephysicaltherapy.com/,Bryan,TX
Coury & Buehler Physical Therapy,info@cbphysicaltherapy.com,+17142565074,https://cbphysicaltherapy.com/,Irvine,CA
Coury & Buehler Physical Therapy,info@cbphysicaltherapy.com,+17142565074,https://cbphysicaltherapy.com/,Fountain Valley,CA
PTA Physical Therapy - Kalispell Whitefish Stage,downtownreception@ptflathead.com,+14068920854,https://ptflathead.com/,Kalispell,MT
PTA Physical Therapy - Kalispell Whitefish Stage,bigforkreception@ptflathead.com,+14068920854,https://ptflathead.com/,Kalispell,MT
PTA Physical Therapy - Kalispell Whitefish Stage,lakesidereception@ptflathead.com,+14068920854,https://ptflathead.com/,Kalispell,MT
PTA Physical Therapy - Kalispell Whitefish Stage,kalispellreception@ptflathead.com,+14068920854,https://ptflathead.com/,Kalispell,MT
PTA Physical Therapy - Kalispell Whitefish Stage,whitefishreception@ptflathead.com,+14068920854,https://ptflathead.com/,Kalispell,MT
PTA Physical Therapy - Kalispell Whitefish Stage,cfallsreception@ptflathead.com,+14068920854,https://ptflathead.com/,Kalispell,MT
Spencer Physical Therapy,lmpt@lakemillspt.com,+17125461718,https://htpt.biz/,Spencer,IA
Spencer Physical Therapy,lpt@lemarspt.com,+17125461718,https://htpt.biz/,Spencer,IA
Spencer Physical Therapy,eastvillage@desmoinespt.com,+17125461718,https://htpt.biz/,Spencer,IA
"Rainier Sports & Spinal Rehab - Car Accident Injury Chiropractic Puyallup : Kevin Earle, DC, DACBSP, CSCS",rainiersportsrehab@gmail.com,+12534450440,http://rainiersportsrehab.com/,Puyallup,WA
Okoboji Physical Therapy,lmpt@lakemillspt.com,+17125461718,https://htpt.biz/,Arnolds Park,IA
Okoboji Physical Therapy,lpt@lemarspt.com,+17125461718,https://htpt.biz/,Arnolds Park,IA
Okoboji Physical Therapy,eastvillage@desmoinespt.com,+17125461718,https://htpt.biz/,Arnolds Park,IA
Coury & Buehler Physical Therapy,info@cbphysicaltherapy.com,+17142565074,https://cbphysicaltherapy.com/,Tustin,CA
Manhattan Rehabilitation Services,info@physicaltherapymanhattan.com,+12128076599,https://www.physicaltherapymanhattan.com/,New York,NY
Coury & Buehler Physical Therapy,info@cbphysicaltherapy.com,+17142565074,https://cbphysicaltherapy.com/,Orange,CA
Balance in Motion Physical Therapy,info@balanceinmotionpt.com,+13475355354,https://bimptnyc.com/,New York,NY
PTA Physical Therapy - Kalispell Downtown (next to Napa),downtownreception@ptflathead.com,+14068920854,https://ptflathead.com/,Kalispell,MT
PTA Physical Therapy - Kalispell Downtown (next to Napa),bigforkreception@ptflathead.com,+14068920854,https://ptflathead.com/,Kalispell,MT
PTA Physical Therapy - Kalispell Downtown (next to Napa),lakesidereception@ptflathead.com,+14068920854,https://ptflathead.com/,Kalispell,MT
PTA Physical Therapy - Kalispell Downtown (next to Napa),kalispellreception@ptflathead.com,+14068920854,https://ptflathead.com/,Kalispell,MT
PTA Physical Therapy - Kalispell Downtown (next to Napa),whitefishreception@ptflathead.com,+14068920854,https://ptflathead.com/,Kalispell,MT
PTA Physical Therapy - Kalispell Downtown (next to Napa),cfallsreception@ptflathead.com,+14068920854,https://ptflathead.com/,Kalispell,MT
Coury & Buehler Physical Therapy,info@cbphysicaltherapy.com,+17142565074,https://cbphysicaltherapy.com/,Anaheim,CA
The Spine & Rehab Group,info@thespineandrehabgroup.com,+12015239590,https://www.thespineandrehabgroup.com/,Paramus,NJ
Carolina Pain and Performance,info@carolinapainandperformance.com,+19192373008,https://carolinapainandperformance.com/,Durham,NC
"PhysioWorks, Sports and Wellness, Inc",andrew.walker@physioworkshsv.com,+12565297395,https://physioworkshsv.com/,Huntsville,AL
NeuroAdaption Center,info@neuroadapter.com,+18009627445,https://neuroadapter.com/,Oxnard,CA
Van Buren Physical Therapy,tamra@vbphysicaltherapy.com,+14794740041,https://vbphysicaltherapy.com/,Van Buren,AR
Guidroz Physical Therapy,guidrozpt@cp-tel.net,+13183529643,https://guidrozpt.org/,Natchitoches,LA
Control Physical Therapy,info@controlphysicaltherapy.com,+14804744921,https://controlphysicaltherapy.com/,Tempe,AZ
Thrive Chiropractic,info@thrivechiropractic.com,+15183993810,http://thriveglenville.com/,Glenville,NY
MyoFit Clinic - Chardon,info@myofitclinic.com,+14406321007,https://myofitclinic.com/,Chardon,OH
Rodgers Stein Chiropractic Center,info@rodgerssteinchiropractic.com,+12815551234,https://rodgerssteinchiropractic.com/,Conroe,TX
MyoFit Clinic - Middlefield,info@myofitclinic.com,+14406321007,https://myofitclinic.com/,Middlefield,OH
Focus Forward Wellness & Physical Therapy,admin@ffwpt.net,+17079423927,https://focusforwardwpt.com/,Calistoga,CA
Scottsdale Physical Therapy & Performance,admin@scottsdaleptperformance.com,+14806808219,https://www.scottsdaleptperformance.com/,Scottsdale,AZ
Control Physical Therapy,info@controlphysicaltherapy.com,+14804744921,https://controlphysicaltherapy.com/,Tempe,AZ
Advanced Physical Therapy & Rehabilitation,contactus@h2health.com,+19048863228,https://www.h2health.com/locations/advanced-physical-therapy/,Cape Coral,FL
"Multicare Specialists - Chiropractic, Physical Therapy, Rehab, Family & Sports Medicine",info@multicarespecialistsgc.com,+16187970618,https://www.multicarespecialistsgc.com/,Granite City,IL
Victor Physical Therapy,pt@victorphysicaltherapy.com,+13178934091,https://victorphysicaltherapy.com/,Indianapolis,IN
Competitive Edge Physical Therapy,referrals@goceppro.com,+18138490150,https://goceppro.com/,Tampa,FL
Rehab United,ru7@rehabunited.com,+16192237175,http://rehabunited.com/,Carlsbad,CA
Rehab United,ru6@rehabunited.com,+16192237175,http://rehabunited.com/,Carlsbad,CA
Rehab United,ru5@rehabunited.com,+16192237175,http://rehabunited.com/,Carlsbad,CA
Rehab United,info@rehabunited.com,+16192237175,http://rehabunited.com/,Carlsbad,CA
Rehab United,ru3@rehabunited.com,+16192237175,http://rehabunited.com/,Carlsbad,CA
Rehab United,ru2@rehabunited.com,+16192237175,http://rehabunited.com/,Carlsbad,CA
Rehab United,ru4@rehabunited.com,+16192237175,http://rehabunited.com/,Carlsbad,CA
Rehab United,ru8@rehabunited.com,+16192237175,http://rehabunited.com/,Carlsbad,CA
PT of The City Physical Therapy,info@ptofthecity.com,+17186480888,https://www.ptofthecity.com/,Brooklyn,NY
Pain Institute Tampa | PPOA,info@paininstitutetampa.com,+18137125700,https://paininstitutetampa.com/,Wesley Chapel,FL
Revenant Physical Therapy,revenantphysicaltherapy@gmail.com,+14694901119,https://www.revenantpt.com/,Farmers Branch,TX
Spineworks,info@wvspineworks.com,+13043814144,http://wvspineworks.com/,Morgantown,WV
Spineworks,billing@wvspineworks.com,+13043814144,http://wvspineworks.com/,Morgantown,WV
Spineworks,drdorey@wvspineworks.com,+13043814144,http://wvspineworks.com/,Morgantown,WV
MPT | McLaughlin Physical Therapy,contact@mptnola.com,+15043008160,https://www.mptnola.com/,Metairie,LA
Purpose Physical Therapy,frontdesk@purposephysicaltherapy.com,+17272904917,https://purposephysicaltherapy.com/,South Pasadena,FL
NeuroFit360,info@neurofit360.com,+19542528020,https://www.neurofit360.com/,Cooper City,FL
Hope Physical Therapy and Rehabilitation Services - Dr. Adeniyi O. Aina BMR,help@njhopephysicaltherapy.com,+18627723797,https://njhopephysicaltherapy.com/,Irvington,NJ
Life In Motion Physical Therapy - Pelvic Floor Therapy - Dubuque,logan@s9wb81s6dl.wpdns.site,+15638452551,https://s9wb81s6dl.wpdns.site/,Dubuque,IA
Empower Medical Center,frontdesk@empowermedical.org,+18165375995,https://empowermedicalcenter.com/,Lee's Summit,MO
Motus Rehab Clinic,hi@motusclinic.com,+14155365950,https://www.motusclinic.com/,San Francisco,CA
AVION Physical Therapy and Sports Rehab,info@avionpt.com,+19549025150,https://www.avionphysicaltherapy.com/,Fort Lauderdale,FL
Cassena Care at Stamford,dvitto@cstamnrc.com,+12033518300,https://cstamnrc.com/,Stamford,CT
Premier Physical Therapy & Sports Medicine,kbeauregard@premier-therapy.com,+17723243081,https://premier-therapy.com/,Port Orange,FL
Rehab United - Escondido,ru7@rehabunited.com,+16192237175,http://rehabunited.com/,Escondido,CA
Rehab United - Escondido,ru6@rehabunited.com,+16192237175,http://rehabunited.com/,Escondido,CA
Rehab United - Escondido,ru5@rehabunited.com,+16192237175,http://rehabunited.com/,Escondido,CA
Rehab United - Escondido,info@rehabunited.com,+16192237175,http://rehabunited.com/,Escondido,CA
Rehab United - Escondido,ru3@rehabunited.com,+16192237175,http://rehabunited.com/,Escondido,CA
Rehab United - Escondido,ru2@rehabunited.com,+16192237175,http://rehabunited.com/,Escondido,CA
Rehab United - Escondido,ru4@rehabunited.com,+16192237175,http://rehabunited.com/,Escondido,CA
Rehab United - Escondido,ru8@rehabunited.com,+16192237175,http://rehabunited.com/,Escondido,CA
FFITT Health,info@ffitthealth.global,+13128350841,https://ffitthealth.global/,Hadley,MA
Rehab 2 Perform,Billing@rehab2perform.com,+13017984838,https://rehab2perform.com/,Leesburg,VA
Glazer Spine Center,shelby@glazerspinecenter.com,+12483532225,https://glazerspinecenter.com/,Southfield,MI
Carter Physiotherapy,Admin@carterpt.com,+15126938849,https://carterpt.com/,Austin,TX
Rehab United - Bonita,ru7@rehabunited.com,+16192237175,http://rehabunited.com/,Chula Vista,CA
Rehab United - Bonita,ru6@rehabunited.com,+16192237175,http://rehabunited.com/,Chula Vista,CA
Rehab United - Bonita,ru5@rehabunited.com,+16192237175,http://rehabunited.com/,Chula Vista,CA
Rehab United - Bonita,info@rehabunited.com,+16192237175,http://rehabunited.com/,Chula Vista,CA
Rehab United - Bonita,ru3@rehabunited.com,+16192237175,http://rehabunited.com/,Chula Vista,CA
Rehab United - Bonita,ru2@rehabunited.com,+16192237175,http://rehabunited.com/,Chula Vista,CA
Rehab United - Bonita,ru4@rehabunited.com,+16192237175,http://rehabunited.com/,Chula Vista,CA
Rehab United - Bonita,ru8@rehabunited.com,+16192237175,http://rehabunited.com/,Chula Vista,CA
Rehab United Physical Therapy - Point Loma,ru7@rehabunited.com,+16192237175,http://rehabunited.com/,San Diego,CA
Rehab United Physical Therapy - Point Loma,ru6@rehabunited.com,+16192237175,http://rehabunited.com/,San Diego,CA
Rehab United Physical Therapy - Point Loma,ru5@rehabunited.com,+16192237175,http://rehabunited.com/,San Diego,CA
Rehab United Physical Therapy - Point Loma,info@rehabunited.com,+16192237175,http://rehabunited.com/,San Diego,CA
Rehab United Physical Therapy - Point Loma,ru3@rehabunited.com,+16192237175,http://rehabunited.com/,San Diego,CA
Rehab United Physical Therapy - Point Loma,ru2@rehabunited.com,+16192237175,http://rehabunited.com/,San Diego,CA
Rehab United Physical Therapy - Point Loma,ru4@rehabunited.com,+16192237175,http://rehabunited.com/,San Diego,CA
Rehab United Physical Therapy - Point Loma,ru8@rehabunited.com,+16192237175,http://rehabunited.com/,San Diego,CA
Architech Sports and Physical Therapy University,architechsports@gmail.com,+19802992048,https://www.architechsports.com/,Charlotte,NC
Rehab United - La Mesa,ru7@rehabunited.com,+16192237175,http://rehabunited.com/,La Mesa,CA
Rehab United - La Mesa,ru6@rehabunited.com,+16192237175,http://rehabunited.com/,La Mesa,CA
Rehab United - La Mesa,ru5@rehabunited.com,+16192237175,http://rehabunited.com/,La Mesa,CA
Rehab United - La Mesa,info@rehabunited.com,+16192237175,http://rehabunited.com/,La Mesa,CA
Rehab United - La Mesa,ru3@rehabunited.com,+16192237175,http://rehabunited.com/,La Mesa,CA
Rehab United - La Mesa,ru2@rehabunited.com,+16192237175,http://rehabunited.com/,La Mesa,CA
Rehab United - La Mesa,ru4@rehabunited.com,+16192237175,http://rehabunited.com/,La Mesa,CA
Rehab United - La Mesa,ru8@rehabunited.com,+16192237175,http://rehabunited.com/,La Mesa,CA
SCOR Performance and Recovery LLC.,Dr.Austin@scorperformandrecover.com,+12343806182,https://www.scorperformandrecover.com/,Stow,OH
Rehab United,ru7@rehabunited.com,+16192237175,http://rehabunited.com/,San Diego,CA
Rehab United,ru6@rehabunited.com,+16192237175,http://rehabunited.com/,San Diego,CA
Rehab United,ru5@rehabunited.com,+16192237175,http://rehabunited.com/,San Diego,CA
Rehab United,info@rehabunited.com,+16192237175,http://rehabunited.com/,San Diego,CA
Rehab United,ru3@rehabunited.com,+16192237175,http://rehabunited.com/,San Diego,CA
Rehab United,ru2@rehabunited.com,+16192237175,http://rehabunited.com/,San Diego,CA
Rehab United,ru4@rehabunited.com,+16192237175,http://rehabunited.com/,San Diego,CA
Rehab United,ru8@rehabunited.com,+16192237175,http://rehabunited.com/,San Diego,CA
Zona Physical Therapy & Wellness,info@zonapt.com,+16786477953,http://zonapt.com/,Buford,GA
US ATHLETIC TRAINING CENTER,contact@usatc.com,+12123558440,http://usatc.com/,New York,NY
901 Physical Therapy - Memphis,info@901pt.com,+19013103901,http://901pt.com/,Memphis,TN
The Performance Lab,referrals@performancelabct.com,+14753161786,https://www.performancelabct.com/,Prospect,CT
Clegg & Guest Physical Therapy,frontdesk@cgphysicaltherapy.com,+15869787900,https://cgphysicaltherapy.com/,Sterling Heights,MI
Optimize Physical Therapy & Performance,zaki@optimizeptp.com,+17025509552,https://optimizeptp.com/,Las Vegas,NV
More Than PT,Stacey@morethanpt.com,+15134434613,https://morethanpt.com/,West Chester Township,OH
"Lyon Physical Therapy, LLC",andrea@lyonphysicaltherapy.com,+19063090158,https://www.lyonphysicaltherapy.com/,Marinette,WI
Grant Chiropractic & Sports Rehab,drgarrettgrant@gmail.com,+18586750007,https://grantchirocorp.com/,San Diego,CA
Complete Chiropractic Sports & Wellness - Experience Durham’s Best for Lasting Health,cchirosw@gmail.com,+19199087170,https://completechiropracticdurham.com/,Durham,NC
Core Physical Therapy,info@corephysicaltherapyohio.com,+14406834438,https://corephysicaltherapyohio.com/,Mayfield Heights,OH
Prehab Physical Therapy Clinic,prehabphysicaltherapy@gmail.com,+15803551766,https://prehabphysicaltherapy.com/,Lawton,OK
Tririga Rehab Physical Therapy - Warren,info@tririgarehab.com,+15863935768,https://tririgarehab.com/,Warren,MI
Unify Osteopractic Physical Therapy & Wellness,admin@unifypt.com,+17133431746,https://www.unifypt.com/,Houston,TX
Body Works Physical Therapy,douglas.chan@montclairpt.net,+17037306400,https://www.montclairpt.net/,Woodbridge,VA
Burhani Physical Therapy and Rehabilitation,info@burhaniptr.com,+18325323453,http://burhaniptr.com/,Houston,TX
Paramount Physical Therapy & Rehab,info@pararehab.com,+17132705900,http://pararehab.com/,Houston,TX
Empower Rehab Occupational & Physical Therapy PLLC,empowerotpt@gmail.com,+17182338293,https://www.empowerotpt.com/,Bronx,NY
Sierra Peaks Animal Rehabilitation (SPAR),info@spanimalrehab.com,+17207240720,https://spanimalrehab.com/,Englewood,CO
Fit Club Greenpoint,info@fitclubny.com,+16468758348,https://fitclubny.com/,Brooklyn,NY
EVO Health + Performance,info@evohealthperformance.com,+17328368065,https://www.evohealthperformance.com/,Freehold,NJ
PAR 5 Physical Therapy - Randolph,info@par5pt.com,+19734904955,https://www.par5pt.com/,Randolph,NJ
Solutions Physical Therapy & Sports Medicine,springfield@solutionsphysicaltherapy.com,+17038316577,http://solutionsphysicaltherapy.com/,Springfield,VA
Solutions Physical Therapy & Sports Medicine,shirlington@solutionsphysicaltherapy.com,+17038316577,http://solutionsphysicaltherapy.com/,Springfield,VA
Solutions Physical Therapy & Sports Medicine,scheduling@solutionsphysicaltherapy.com,+17038316577,http://solutionsphysicaltherapy.com/,Springfield,VA
Athletic Advantage Physical Therapy,contact@aaphysicaltherapy.com,+12143830623,https://www.aaphysicaltherapy.com/,Allen,TX
The Athletic Training Room,ATRcalifornia@gmail.com,+15106290260,https://theathletictrainerca.com/,Elk Grove,CA
BioFix Physical Therapy and Fitness,Biofixtherapy@gmail.com,+19494469791,https://biofixtherapy.com/,Lake Forest,CA
Federal Injury Group,andrew@federalinjurygroup.com,+17276008024,https://www.federalinjurygroup.com/,Dunedin,FL
District Injury & Spine Center (DISC) Dr. Powell Shiau,staff@districtinjury.com,+12025999069,https://districtinjury.com/,Washington,DC
Motus Physical Therapy,becky@motus-pt.com,+12068017546,https://www.motus-pt.com/,Shoreline,WA
Motus Physical Therapy,amy@motus-pt.com,+12068017546,https://www.motus-pt.com/,Shoreline,WA
Motus Physical Therapy,anita@motus-pt.com,+12068017546,https://www.motus-pt.com/,Shoreline,WA
Motus Physical Therapy,jamie@motus-pt.com,+12068017546,https://www.motus-pt.com/,Shoreline,WA
"360 Physical Therapy - Scottsdale, Shea Blvd.",nelsy.gutierrez@360physicaltherapy.com,+18009294776,https://360physicaltherapy.com/,Scottsdale,AZ
"360 Physical Therapy - Scottsdale, Shea Blvd.",HR@prnpt.com,+18009294776,https://360physicaltherapy.com/,Scottsdale,AZ
Gillette Physical Therapy,hdorr@gillettept.com,+13076824900,https://www.gillettept.com/,Gillette,WY
Crete Physical Therapy,cretept@gmail.com,+14028262255,https://www.cretept.com/,Crete,NE
Auto-Ness Physical Therapy - Scripps Ranch,info@antherapies.com,+18583245537,https://autonesspt.com/,San Diego,CA
360 Physical Therapy - North Edmond,nelsy.gutierrez@360physicaltherapy.com,+18009294776,https://360physicaltherapy.com/,Edmond,OK
360 Physical Therapy - North Edmond,HR@prnpt.com,+18009294776,https://360physicaltherapy.com/,Edmond,OK
"360 Physical Therapy - Phoenix, 24th Street",nelsy.gutierrez@360physicaltherapy.com,+18009294776,https://360physicaltherapy.com/,Phoenix,AZ
"360 Physical Therapy - Phoenix, 24th Street",HR@prnpt.com,+18009294776,https://360physicaltherapy.com/,Phoenix,AZ
Ability Rehabilitation,Administration@abilityrehabilitation.com,+14076880071,https://abilityrehabilitation.com/,Sanford,FL
"Elite Chiropractic & Sport - Columbia, MD",info@elitechirosport.com,+14437189432,https://elitechirosport.com/,Columbia,MD
Richmond Physical Therapy - HSS Rehab Network Participating Location,info@richmondpts.com,+17329314699,https://richmondpts.com/,Matawan,NJ
California Orthopedic and Sports Physical Therapy Services,gerry@coast-physical-therapy-services.com,+18314621212,https://coast-physical-therapy-services.com/,Aptos,CA
"360 Physical Therapy - Tempe, University",nelsy.gutierrez@360physicaltherapy.com,+18009294776,https://360physicaltherapy.com/,Tempe,AZ
"360 Physical Therapy - Tempe, University",HR@prnpt.com,+18009294776,https://360physicaltherapy.com/,Tempe,AZ
"360 Physical Therapy - Gilbert, South",nelsy.gutierrez@360physicaltherapy.com,+18009294776,https://360physicaltherapy.com/,Gilbert,AZ
"360 Physical Therapy - Gilbert, South",HR@prnpt.com,+18009294776,https://360physicaltherapy.com/,Gilbert,AZ
360 Physical Therapy - North OKC,nelsy.gutierrez@360physicaltherapy.com,+18009294776,https://360physicaltherapy.com/,Edmond,OK
360 Physical Therapy - North OKC,HR@prnpt.com,+18009294776,https://360physicaltherapy.com/,Edmond,OK
Snyder Physical Therapy,info@snyderphysicaltherapy.com,+15705540635,https://snyderphysicaltherapy.com/,Tower City,PA
The Royal Treatment Therapy and Performance - Richmond / Midlothian,andy@theroyaltreatment.physio,+18043957335,https://www.theroyaltreatment.physio/,Midlothian,VA
Balance in Motion Physical Therapy,info@balanceinmotionpt.com,+13475355354,https://bimptnyc.com/,New York,NY
360 Physical Therapy - Maricopa,nelsy.gutierrez@360physicaltherapy.com,+18009294776,https://360physicaltherapy.com/,Maricopa,AZ
360 Physical Therapy - Maricopa,HR@prnpt.com,+18009294776,https://360physicaltherapy.com/,Maricopa,AZ
Salinas Physical Therapy / Sports Medicine,info@salinaspt.com,+17146951566,https://salinaspt.com/,Yorba Linda,CA
Steadfast Performance Therapy,phil@steadfastlv.com,+17255004614,https://www.steadfastlv.com/,Las Vegas,NV
"Catalyst Athletic Rehab and Performance, LLC- Physical Therapy",bill@catalystathleticrehab.com,+19807216419,https://catalystathleticrehab.com/,Cornelius,NC
Robbins Rehabilitation West Bangor,robbinsrehabwest@gmail.com,+16108413555,https://robbinsptwest.com/,Bangor,PA
Ability Rehabilitation,Administration@abilityrehabilitation.com,+14076880071,https://abilityrehabilitation.com/,Merritt Island,FL
360 Physical Therapy - Mid-Del,nelsy.gutierrez@360physicaltherapy.com,+18009294776,https://360physicaltherapy.com/,Oklahoma City,OK
360 Physical Therapy - Mid-Del,HR@prnpt.com,+18009294776,https://360physicaltherapy.com/,Oklahoma City,OK
Vincent Physical Therapy,frontdesk@vincentpt.com,+16264494347,https://www.vincentpt.com/,Pasadena,CA
"360 Physical Therapy - Scottsdale, McDowell",nelsy.gutierrez@360physicaltherapy.com,+18009294776,https://360physicaltherapy.com/,Scottsdale,AZ
"360 Physical Therapy - Scottsdale, McDowell",HR@prnpt.com,+18009294776,https://360physicaltherapy.com/,Scottsdale,AZ
360 Physical Therapy - Chandler,nelsy.gutierrez@360physicaltherapy.com,+18009294776,https://360physicaltherapy.com/,Chandler,AZ
360 Physical Therapy - Chandler,HR@prnpt.com,+18009294776,https://360physicaltherapy.com/,Chandler,AZ
Robbins Rehabilitation West Allentown,robbinsrehabwest@gmail.com,+16108413555,https://robbinsptwest.com/,Allentown,PA
Revolution Physiotherapy,info@revolutionpt.co,+15165449479,https://www.revolutionpt.co/,Brooklyn,NY
Bentz Physical Therapy,info@bentzpt.com,+18172323553,https://bentzpt.com/,Fort Worth,TX
Performance Physical Therapy,info@pptandfitness.com,+13025991399,https://pptandfitness.com/,Wilmington,DE
Ascent Total Performance,hello@achieveatp.com,+18032333183,https://achieveatp.com/,Columbia,SC
Ascent Total Performance,spearscreek@achieveatp.com,+18032333183,https://achieveatp.com/,Columbia,SC
BSR Physical Therapy,info@bsrphysicaltherapy.com,+16096981073,https://www.bsrphysicaltherapy.com/,Manahawkin,NJ
360 Physical Therapy - Surprise,nelsy.gutierrez@360physicaltherapy.com,+18009294776,https://360physicaltherapy.com/,Surprise,AZ
360 Physical Therapy - Surprise,HR@prnpt.com,+18009294776,https://360physicaltherapy.com/,Surprise,AZ
Activecare Physical Therapy,office@activecareerie.com,+18148644100,https://www.activecareerie.com/,Erie,PA
Enhanced Physical Therapy,info@enhancedptny.com,+15168335880,https://enhancedptny.com/,Mineola,NY
PT 360,contact@alliancesportsmedicine.com,+17708519890,https://alliancesportsmedicine.com/,Alpharetta,GA
Whittles Physical Therapy,info@whittlesphysicaltherapy.com,+13017540154,http://jwhittlespt.com/,Silver Spring,MD
EVOLVED PHYSICAL THERAPY,dennis@evolvedptsf.com,+15053020473,https://www.evolvedptsf.com/,Santa Fe,NM
Premier Physical Therapy & Sports Medicine,kbeauregard@premier-therapy.com,+17723243081,https://premier-therapy.com/,Fort Pierce,FL
Med1Care Therapy Partners,admin@med1care.org,+14198660555,https://med1care.org/,Holland,OH
Performance Physical Therapy & Sports Medicine,hebron@pptsm.com,+18605373014,https://www.pptsm.com/,Colchester,CT
Performance Physical Therapy & Sports Medicine,colchester@pptsm.com,+18605373014,https://www.pptsm.com/,Colchester,CT
Performance Physical Therapy & Sports Medicine,info@pptsm.com,+18605373014,https://www.pptsm.com/,Colchester,CT
Community Sports & Therapy Center,info@cstcenter.com,+14195862077,https://www.cstcenter.com/,Coldwater,OH
Coastline Physical Therapy & Performance,erin@coastlinetherapy.com,+12073483334,https://coastlinetherapy.com/,Deer Isle,ME
Coastline Physical Therapy & Performance,bryanne@coastlinetherapy.com,+12073483334,https://coastlinetherapy.com/,Deer Isle,ME
Coastline Physical Therapy & Performance,hollan@coastlinetherapy.com,+12073483334,https://coastlinetherapy.com/,Deer Isle,ME
Coastline Physical Therapy & Performance,cheryl@coastlinetherapy.com,+12073483334,https://coastlinetherapy.com/,Deer Isle,ME
Limitless Sports Medicine & Physical Therapy,info@limitlesssportsmedicine.com,+17024483360,https://www.limitlesssportsmedicine.com/,Las Vegas,NV
Apex Physical Therapy,info@apexptct.com,+18602573779,https://apexptct.com/,Rocky Hill,CT
Advantage Physical Therapy,info@myadvantagept.com,+17038320193,https://www.myadvantagept.com/,Falls Church,VA
360 Physical Therapy - Sun Lakes,nelsy.gutierrez@360physicaltherapy.com,+18009294776,https://360physicaltherapy.com/,Sun Lakes,AZ
360 Physical Therapy - Sun Lakes,HR@prnpt.com,+18009294776,https://360physicaltherapy.com/,Sun Lakes,AZ
FYZICAL Therapy & Balance Centers,soudertonrehab@gmail.com,+12157239069,https://www.soudertonrehab.com/,Souderton,PA
Joints In Motion Physical Therapy and Rehabilitation,avitto@jointinmotionrehab.com,+17186523432,https://www.jointsinmotionrehab.com/,Bronx,NY
"The Physical Therapy Connection, Inc.",billing@ptcdewitt.com,+15176680000,https://ptcdewitt.com/,DeWitt,MI
"The Physical Therapy Connection, Inc.",office@ptcdewitt.com,+15176680000,https://ptcdewitt.com/,DeWitt,MI
Performance Physical Therapy,info@pptandfitness.com,+13025991399,https://pptandfitness.com/,Wilmington,DE
Apollo Rehab Tamarac,info@apollo-rehab.com,+19543429333,https://apollo-rehab.com/,Tamarac,FL
Healing Star Hand & Physical Therapy,info@healingstarpt.com,+17322721438,https://healingstarpt.com/,Eatontown,NJ
Enchantment Physical Therapy,isiah@enchantmentpt.com,+15058960835,https://enchantmentpt.com/,Gallup,NM
Frisco Elite Physical Therapy,FriscoElitePhysicalTherapy@gmail.com,+12146182424,http://friscoelitept.com/,Frisco,TX
Resilience Physical Therapy,resiliencephysicaltherapy@gmail.com,+15419908444,http://resiliencephysicaltherapy.org/,Corvallis,OR
Performance Physical Therapy & Sports Medicine,hebron@pptsm.com,+18605373014,https://www.pptsm.com/,Hebron,CT
Performance Physical Therapy & Sports Medicine,colchester@pptsm.com,+18605373014,https://www.pptsm.com/,Hebron,CT
Performance Physical Therapy & Sports Medicine,info@pptsm.com,+18605373014,https://www.pptsm.com/,Hebron,CT
REV Physical Therapy and Sports Medicine,info@rev-pt.com,+13867383456,https://rev-pt.com/,DeLand,FL
Northern Michigan Physical Therapy,Dcolumb@northernmichiganpt.com,+19062731525,http://northernmichiganpt.com/,Marquette,MI
AGE Rehab & Med Fitness,agerehabilitation@gmail.com,+13098331004,https://agerehab.com/,Macomb,IL
"360 Physical Therapy - Phoenix, 51 & Greenway",nelsy.gutierrez@360physicaltherapy.com,+18009294776,https://360physicaltherapy.com/,Phoenix,AZ
"360 Physical Therapy - Phoenix, 51 & Greenway",HR@prnpt.com,+18009294776,https://360physicaltherapy.com/,Phoenix,AZ
Plyogenix Physical Therapy and Performance,dr.mitko@plyogenix.com,+17279984272,https://www.plyogenix.com/,St. Petersburg,FL
Ability Rehabilitation,Administration@abilityrehabilitation.com,+14076880071,https://abilityrehabilitation.com/,Orlando,FL
Spooner Phoenix,hr@spoonerpt.com,+16025599700,https://www.spoonerpt.com/,Phoenix,AZ
Spooner Phoenix,info@spoonerpt.com,+16025599700,https://www.spoonerpt.com/,Phoenix,AZ
Spooner Phoenix,billing@spoonerpt.com,+16025599700,https://www.spoonerpt.com/,Phoenix,AZ
Robbins Rehabilitation West Bethlehem,robbinsrehabwest@gmail.com,+16108413555,https://robbinsptwest.com/,Bethlehem,PA
Movement Driven Performance Physiotherapy - St Johns,info@movementdriven.com,+19042575765,https://www.movementdriven.com/,St Johns,FL
Sports & Back Rehabilitation,sportsandbackrehab@gmail.com,+12157524553,http://www.sportsandbackrehab.com/,Langhorne,PA
PRO TO COL Sport Systems,protocolsportsystems@gmail.com,+16192555577,https://protocolsportsystems.com/,San Diego,CA
Waits Physical Therapy,reception@waitspt.com,+14808058304,https://waitspt.com/,Phoenix,AZ
Advanced Manual Therapies,info@advancedmanualtherapies.com,+13015551234,http://advancedmanualtherapies.com/,Alpharetta,GA
Atlanta PT,tony@atlantapt.com,+18664224791,https://atlantapt.com/,Atlanta,GA
New York Plaza Physical Therapy,info@nyppt.com,+16468868687,https://nyppt.com/,New York,NY
Bodyworx Physical Therapy,info@bodyworxpt.com,+14054557865,https://bodyworxpt.com/,Oklahoma City,OK
River Valley Therapy & Sports Medicine,info@rivervalleytherapy.com,+14799682525,https://rivervalleytherapy.com/,Russellville,AR
Paramount Performance & Rehab,info@pprfitness.com,+16176416700,https://pprfitness.com/,Newton,MA
Spero Rehab,contactaustin@sperorehab.com,+15128528134,https://www.sperorehab.com/,Katy,TX
Spero Rehab,contactergo@sperorehab.com,+15128528134,https://www.sperorehab.com/,Katy,TX
Spero Rehab,contact@sperorehab.com,+15128528134,https://www.sperorehab.com/,Katy,TX
Spero Rehab,contactkatynorth@sperorehab.com,+15128528134,https://www.sperorehab.com/,Katy,TX
Spero Rehab,contactcentral@sperorehab.com,+15128528134,https://www.sperorehab.com/,Katy,TX
360 Physical Therapy - Yukon,nelsy.gutierrez@360physicaltherapy.com,+18009294776,https://360physicaltherapy.com/,Yukon,OK
360 Physical Therapy - Yukon,HR@prnpt.com,+18009294776,https://360physicaltherapy.com/,Yukon,OK
Performance and Recovery Mobile Physical Therapy,PRmobilePT@gmail.com,+15123486544,https://performanceandrecoverypt.com/,Austin,TX
360 Physical Therapy - Glendale/Peoria,nelsy.gutierrez@360physicaltherapy.com,+18009294776,https://360physicaltherapy.com/,Glendale,AZ
360 Physical Therapy - Glendale/Peoria,HR@prnpt.com,+18009294776,https://360physicaltherapy.com/,Glendale,AZ
"Excel Physical Therapy, Inna Kouperman MS, PT",info@excelpt.nyc,+17187669033,https://www.excelpt.nyc/,Brooklyn,NY
PhysioX,hello@physiox.co,+16172945888,https://www.physiox.co/,Needham,MA
Balanced Physical Therapy,balancedptmi@gmail.com,+12486874462,http://balancedptmi.com/,Mt Clemens,MI
Community Sports & Therapy Center,info@cstcenter.com,+14195862077,https://www.cstcenter.com/,Celina,OH
Pratt Physical Therapy,therapy@prattpt.com,+18439000745,http://prattpt.com/,Ladson,SC
"360 Physical Therapy - Mesa, Signal Butte",nelsy.gutierrez@360physicaltherapy.com,+18009294776,https://360physicaltherapy.com/,Mesa,AZ
"360 Physical Therapy - Mesa, Signal Butte",HR@prnpt.com,+18009294776,https://360physicaltherapy.com/,Mesa,AZ
Titin KM Biomedical,info@titinkmbiomedical.com,+14068004688,https://titinkmbiomedical.com/,Bozeman,MT
Beyond The Clinic,office@beyondtheclinic.com,+18774960385,https://beyondtheclinic.com/,Sherwood,OR
Carlson Procare,support@carlsonprocare.com,+18603547605,https://carlsonprocare.com/,Willimantic,CT
360 Physical Therapy - South OKC,nelsy.gutierrez@360physicaltherapy.com,+18009294776,https://360physicaltherapy.com/,Oklahoma City,OK
360 Physical Therapy - South OKC,HR@prnpt.com,+18009294776,https://360physicaltherapy.com/,Oklahoma City,OK
"Prime Health Physical Therapy, LINDEN",info@primehealthpt.com,+17322832500,https://primehealthpt.com/,Linden,NJ
Good Life Physical Therapy & Sports Performance,info@goodlifegr.com,+16168556588,https://goodlifegr.com/,Grand Rapids,MI
360 Physical Therapy - Gilbert/Mesa,nelsy.gutierrez@360physicaltherapy.com,+18009294776,https://360physicaltherapy.com/,Mesa,AZ
360 Physical Therapy - Gilbert/Mesa,HR@prnpt.com,+18009294776,https://360physicaltherapy.com/,Mesa,AZ
Independence Physical Therapy,info@indeppt.com,+18608928683,https://www.independencephysicaltherapy.com/,Mystic,CT
SoFloPT SPORT,info@soflopt.com,+19542569052,https://soflopt.com/,Fort Lauderdale,FL
Revolve Physical Therapy - Sugar Land,info@revolvephysicaltherapy.com,+18328314188,https://revolvephysicaltherapy.com/,Sugar Land,TX
FYZICAL Therapy & Balance Centers - Buffalo Grove,info@fyzicalchicago.com,+13129000994,https://fyzicalchicago.com/,Buffalo Grove,IL
Professional Rehabilitation Services - Dr. Richard DeFalco,info@prsrehabservices.com,+18434910388,https://prsrehabservices.com/,Myrtle Beach,SC
Columbia Physical Therapy In Motion,jungphysio@gmail.com,+14439797625,https://www.columbiaptinmotion.com/,Columbia,MD
Columbia Physical Therapy In Motion,contact@columbiaptinmotion.com,+14439797625,https://www.columbiaptinmotion.com/,Columbia,MD
Carlson Procare,support@carlsonprocare.com,+18603547605,https://carlsonprocare.com/,Meriden,CT
Polygon PT - Sugar Land Physical Therapy & Sports Medicine Center,desk@polygonhq.com,+18325320144,https://polygonpt.com/,Sugar Land,TX
Chalela Physical Therapy Institute for EDS & CCI/Cervical Instabilities,patient@chalelapti.com,+18433643213,http://chalelapti.com/,Daniel Island,SC
Carlson Procare,support@carlsonprocare.com,+18603547605,https://carlsonprocare.com/,New London,CT
FYZICAL Therapy & Balance Centers - Niles,info@fyzicalchicago.com,+13129000994,https://fyzicalchicago.com/,Niles,IL
Care360 Physical Therapy,administration@care360physicaltherapy.com,+17867033908,https://care360physicaltherapy.com/,Miami,FL
Accelerated Recovery,acceleratedrecovery7@gmail.com,+15754040436,http://acceleratedrecovery.rehab/,Las Cruces,NM
Carlson Procare,support@carlsonprocare.com,+18603547605,https://carlsonprocare.com/,Wallingford,CT
Dr. Melissa Hennes - Integrated Sports Chiropractic and Rehab,kaitlinb@integratedrehab.net,+16125628656,http://integratedrehab.net/,Edina,MN
Dr. Melissa Hennes - Integrated Sports Chiropractic and Rehab,crystalneal@integratedrehab.net,+16125628656,http://integratedrehab.net/,Edina,MN
Dr. Melissa Hennes - Integrated Sports Chiropractic and Rehab,melissahennes@integratedrehab.net,+16125628656,http://integratedrehab.net/,Edina,MN
Professional Physical Therapy and Sports Medicine,frontdesk@proptinc.com,+15085286100,https://proptinc.com/,Franklin,MA
Park North Physical Therapy,info@parknorthpt.com,+12122226525,https://www.parknorthpt.com/,New York,NY
Restoration Physical Therapy,restorationpt8@gmail.com,+16105650670,http://restorationpt.org/,Media,PA
Active Sport & Spine Therapy - Physical Therapy & Chiropractic Little Falls NJ,info@activetherapynj.com,+19733399833,https://activetherapynj.com/,Little Falls,NJ
360 Physical Therapy - Goodyear,nelsy.gutierrez@360physicaltherapy.com,+18009294776,https://360physicaltherapy.com/,Goodyear,AZ
360 Physical Therapy - Goodyear,HR@prnpt.com,+18009294776,https://360physicaltherapy.com/,Goodyear,AZ
Park North Physical Therapy,info@parknorthpt.com,+12122226525,https://www.parknorthpt.com/,New York,NY
Robbins Rehabilitation West - Physical Therapy,robbinsrehabwest@gmail.com,+16108413555,https://robbinsptwest.com/,Allentown,PA
360 Physical Therapy - Queen Creek,nelsy.gutierrez@360physicaltherapy.com,+18009294776,https://360physicaltherapy.com/,Queen Creek,AZ
360 Physical Therapy - Queen Creek,HR@prnpt.com,+18009294776,https://360physicaltherapy.com/,Queen Creek,AZ
Forefront Physical Therapy - Seattle,hello@forefrontpllc.com,+12062792870,https://forefrontpllc.com/,Seattle,WA
Sixth Borough Medical - Dr. Manish Patel,Scheduling@sixthboroughmedical.com,+12014222556,https://sixthboroughmedical.com/,Jersey City,NJ
Advanced Care Physical Therapy,support@advancedcarephysicaltherapyarizona.com,+19286368521,https://advancedcarephysicaltherapyarizona.com/,Chino Valley,AZ
"Premier Total Healthcare, Inc.",premier@mypthc.com,+19544560250,https://www.premiertotalhealthcare.com/,Hollywood,FL
Advantage Health and Rehabilitation Centers,officemanager@ahrcinc.com,+14199477500,https://ahrcinc.com/,Mt Vernon,OH
Pacific Sol Chiropractic,PacificSolChiropractic@gmail.com,+13106984638,https://draprilyn.com/,Redondo Beach,CA
Friends and Family Medical Centers,info@friends.com,+13052327274,https://23crash.com/,Miami,FL
Theradynamics Physical & Occupational Therapy,info@theradynamics.com,+12015551234,https://www.theradynamics.com/,Bronx,NY
Polygon PT - Katy Physical Therapy and Sports Medicine Center,desk@polygonhq.com,+18325320144,https://polygonpt.com/,Katy,TX
Med Center Therapy Aquatic and Physical Therapy,info@medcentertherapy.com,+17136681818,https://www.medcentertherapy.com/,Houston,TX
Precision Physical Therapy and Wellness,patientcare@precisionptw.com,+18054393900,https://www.precisionptw.com/,San Luis Obispo,CA
Elevate Rehab,admin@elev8rehab.com,+13073353471,http://elev8rehab.com/,Lander,WY
"Heather Lane Physical Therapy | Physical Therapist in Denver, CO",patrick@heatherlanept.com,+17205073962,https://heatherlanept.com/,Denver,CO
Touchstone Physical Therapy,tpt@touchstonept.com,+15016045600,https://www.touchstonept.com/,Little Rock,AR
Montana Spine & Joint Rehab,info@montanaspineandjoint.com,+14064431122,https://www.montanaspineandjoint.com/,Helena,MT
FYZICAL Therapy & Balance Centers - Naperville,info@fyzicalchicago.com,+13129000994,https://fyzicalchicago.com/,Naperville,IL
Core Physical Therapy,kevin@corephysicaltherapy.org,+14782931680,https://www.corephysicaltherapy.org/,Bonaire,GA
Core Physical Therapy,brooke@corephysicaltherapy.org,+14782931680,https://www.corephysicaltherapy.org/,Bonaire,GA
Core Physical Therapy,angel@corephysicaltherapy.org,+14782931680,https://www.corephysicaltherapy.org/,Bonaire,GA
"Movement Specialists Physical Therapy, P.C.",info@movementspecialistspt.com,+19493912390,https://www.movementspecialistspt.com/,Huntington Beach,CA
MOTION RX,frontdesk@motionrxhealth.com,+17278267142,https://motionrxhealth.com/,Jacksonville,FL
OneRehab,info@onerehab.com,+19728457875,https://onerehab.com/,Richardson,TX
Restore PT & Wellness / FYZICAL Ashburn,restoreptwellness@restoreptwellness.com,+15712919936,https://www.restoreptwellness.com/,Ashburn,VA
Body in Motion Physical Therapy,contact@bodyinmotionkc.com,+19134323948,http://bodyinmotionkc.com/,Prairie Village,KS
Body in Motion Physical Therapy,bodyinmotionkc@gmail.com,+19134323948,http://bodyinmotionkc.com/,Prairie Village,KS
Accelerate Therapy & Performance - Concord,info@accelerate-pt.com,+17046309656,https://accelerate-pt.com/,Concord,NC
Steppin' Up Physical Therapy,craig@steppinuppt.com,+12604977191,https://www.steppinuppt.com/,Fort Wayne,IN
Steppin' Up Physical Therapy,jason@steppinuppt.com,+12604977191,https://www.steppinuppt.com/,Fort Wayne,IN
Steppin' Up Physical Therapy,alicia@steppinuppt.com,+12604977191,https://www.steppinuppt.com/,Fort Wayne,IN
Steppin' Up Physical Therapy,info@steppinuppt.com,+12604977191,https://www.steppinuppt.com/,Fort Wayne,IN
Steppin' Up Physical Therapy,craig@steppinuppt.com,+12604977191,https://www.steppinuppt.com/,Fort Wayne,IN
Steppin' Up Physical Therapy,jason@steppinuppt.com,+12604977191,https://www.steppinuppt.com/,Fort Wayne,IN
Steppin' Up Physical Therapy,alicia@steppinuppt.com,+12604977191,https://www.steppinuppt.com/,Fort Wayne,IN
Steppin' Up Physical Therapy,info@steppinuppt.com,+12604977191,https://www.steppinuppt.com/,Fort Wayne,IN
Complete Muscle Recovery at CMR Health Group,info@cmrhealthgroup.com,+16309998665,http://completemusclerecovery.com/,Yorkville,IL
The Spine & Rehab Group,info@newyorkpaincare.com,+12122428160,http://newyorkpaincare.com/,New York,NY
Motus Integrative Health,motus@integrative.com,+12199242112,https://www.motusintegrativehealth.com/,Griffith,IN
"Midwest Physical Therapy, LLC",admin@midwpt.com,+16127070169,https://midwpt.com/,Minneapolis,MN
"Center Point Physical Therapy, NYC",contact@centerpointphysical.com,+19173008218,https://centerpointphysical.com/,New York,NY
Steppin' Up Physical Therapy,craig@steppinuppt.com,+12604977191,https://www.steppinuppt.com/,Fort Wayne,IN
Steppin' Up Physical Therapy,jason@steppinuppt.com,+12604977191,https://www.steppinuppt.com/,Fort Wayne,IN
Steppin' Up Physical Therapy,alicia@steppinuppt.com,+12604977191,https://www.steppinuppt.com/,Fort Wayne,IN
Steppin' Up Physical Therapy,info@steppinuppt.com,+12604977191,https://www.steppinuppt.com/,Fort Wayne,IN
The Green Room Physical Therapy,care@thegrpt.com,+15182802185,https://www.thegrpt.com/,Troy,NY
Phenomenal Rehabilitation,bewell@phenomenalrehab.com,+17637104637,https://www.phenomenalrehab.com/,Dassel,MN
Steppin' Up Physical Therapy,craig@steppinuppt.com,+12604977191,https://www.steppinuppt.com/,Fort Wayne,IN
Steppin' Up Physical Therapy,jason@steppinuppt.com,+12604977191,https://www.steppinuppt.com/,Fort Wayne,IN
Steppin' Up Physical Therapy,alicia@steppinuppt.com,+12604977191,https://www.steppinuppt.com/,Fort Wayne,IN
Steppin' Up Physical Therapy,info@steppinuppt.com,+12604977191,https://www.steppinuppt.com/,Fort Wayne,IN
Pure Physical Therapy & Pilates (Weslaco),info@pure-physicaltherapy.com,+19567098982,https://pure-physicaltherapy.com/,Weslaco,TX
Phenomenal Rehabilitation,bewell@phenomenalrehab.com,+17637104637,https://www.phenomenalrehab.com/,Howard Lake,MN
Move Past Pain to Performance II,info@mp3-theratrain.com,+17207222504,https://www.mp3-theratrain.com/,Denver,CO
Move Past Pain to Performance II,Dutch@mp3-theratrain.com,+17207222504,https://www.mp3-theratrain.com/,Denver,CO
VITAE CHIROPRACTIC CLINIC DR YAMIRA VALENTIN QUIROPRACTICO HISPANO ACCIDENTES DE AUTO,vitaesc@gmail.com,+18647770474,https://vitaechiropracticclinic.com/,Greenville,SC
High Street Rehab,highstreetrehab@gmail.com,+19732350452,https://www.highstreetrehab.com/,Nutley,NJ
Accelerated Rehab - A Physical Therapy Corporation,info@acceleratedrehabusa.com,+13105508585,https://acceleratedrehabusa.com/,Beverly Hills,CA
Quality Care Physical Therapy & Rehab Center,qcarept@gmail.com,+19734503001,https://qualitycaretherapy.com/,Avenel,NJ
Pivonka Health and Wellness,eastphoenix.az@scolicare.com,+14808920022,https://pivonkahealth.com/,Gilbert,AZ
Coddington Physical Therapy,coddingtonpt@yahoo.com,+14024230303,https://www.coddingtonphysicaltherapy.com/,Lincoln,NE
"Dr Sheetal Desai,DPT",sdesaipt@gmail.com,+15162830258,https://drdesaipt.com/,Hicksville,NY
PTA Physical Therapy - Columbia Falls,downtownreception@ptflathead.com,+14068920854,https://ptflathead.com/,Columbia Falls,MT
PTA Physical Therapy - Columbia Falls,bigforkreception@ptflathead.com,+14068920854,https://ptflathead.com/,Columbia Falls,MT
PTA Physical Therapy - Columbia Falls,lakesidereception@ptflathead.com,+14068920854,https://ptflathead.com/,Columbia Falls,MT
PTA Physical Therapy - Columbia Falls,kalispellreception@ptflathead.com,+14068920854,https://ptflathead.com/,Columbia Falls,MT
PTA Physical Therapy - Columbia Falls,whitefishreception@ptflathead.com,+14068920854,https://ptflathead.com/,Columbia Falls,MT
PTA Physical Therapy - Columbia Falls,cfallsreception@ptflathead.com,+14068920854,https://ptflathead.com/,Columbia Falls,MT
OSI Physical Therapy,intake@osipt.com,+16512754706,https://osipt.com/,Somerset,WI
Cruz Country Fitness & Physical Therapy,contactus@cruzcountry.com,+13057410560,http://cruzcountry.com/,Miami,FL
Yeah health and wellness (physical therapy and acupuncture),yeahhealthinfo@gmail.com,+13322718914,http://antiagingacu.com/,New York,NY
Del Valle Physical Therapy & Hand Therapy,info@delvallept.com,+15755238080,https://delvallept.com/,Las Cruces,NM
Churchill Orthopedic Rehabilitation,churchillorthopt@gmail.com,+12018331333,https://churchillorthopt.com/,Teaneck,NJ
Shiva Physical Therapy,info@shivaphysicaltherapy.com,+19199856389,https://shivaphysicaltherapy.com/,Apex,NC
Gaon Rehab & Wellness Clinic Bayside New York 가온 플러싱 베이사이드 통증병원(교통사고 워컴),gaonwellnessnyc@gmail.com,+19177977000,https://gaonwellness.com/,Bayside,NY
Spine and Sports Rehabilitation Center Physical Therapy,appointments@spineandsportsrehab.com,+14105603931,https://www.spineandsportsrehab.com/,Owings Mills,MD
Vibra Rehabilitation Hospital of Amarillo,generalinquiries@vrhamarillo.com,+18064682955,https://vrhamarillo.com/,Amarillo,TX
Pacific Rehabilitation Centers - Puyallup Campus,info@pacificrehabilitation.com,+15093502298,https://www.pacificrehabilitation.com/,Puyallup,WA
North Orange Physical Therapy Inc.,northorangephysicaltherapy@gmail.com,+19495525582,https://northorangephysicaltherapy.weebly.com/,Irvine,CA
Quality Care Physical Therapy & Rehab Center,qcarept@gmail.com,+19734503001,https://qualitycaretherapy.com/,East Orange,NJ
Vitalize Physical Therapy & Sports Rehab,contact@vitalizenj.com,+17326176453,https://www.vitalizenj.com/,Manalapan Township,NJ
In Touch NYC Physical Therapy - Financial District,frontdesk@itnycpt.com,+12122882988,https://itnycpt.com/,New York,NY
Harmon Physical Therapy,michael@harmonpt.com,+17205939456,https://www.harmonpt.com/,Greenwood Village,CO
Root Rehab Sports Physical Therapy,frontoffice@rootrehabspt.com,+17086032178,https://rootrehabpt.com/,La Grange,IL
McMahon Physical Therapy,kmcmahon@mcmahonpt.com,+19018375678,https://mcmahonpt.com/,Atoka,TN
Avila Physical Therapy - Corpus Christi,anthony@avilaphysicaltherapy.com,+13615006686,https://avilaphysicaltherapy.com/,Corpus Christi,TX
Avila Physical Therapy,anthony@avilaphysicaltherapy.com,+13615006686,https://avilaphysicaltherapy.com/,Kingsville,TX
Gardner Sports Physical Therapy,bret@gardnersportspt.com,+17372370793,https://gardnersportspt.com/,Temple,TX
In Touch NYC Physical Therapy - Midtown,frontdesk@itnycpt.com,+12122882988,https://itnycpt.com/,New York,NY
Premier Physical Therapy,info@premierptjax.com,+19049966923,https://premierptjax.com/,Ponte Vedra Beach,FL
Shift Performance Physical Therapy,blake@shiftperformancept.com,+18652176084,https://shiftperformancept.com/,Knoxville,TN
Premier Physical Therapy,info@premierptjax.com,+19049966923,https://premierptjax.com/,Jacksonville,FL
Pinnacle Physical Therapy & Personal Training,pinnacleptcolumbia@outlook.com,+18037260309,https://pinnacleptcolumbia.com/,Columbia,SC
Advantage Orthopedic Performance & Training - Physical Therapy,ron@advantageptlex.com,+18592638080,https://advantageptlex.com/,Lexington,KY
Trustrength Performance and Rehab,sydney@trustrengthrehab.com,+17203167541,https://trustrengthrehab.com/,Denver,CO
"Impact Physio, LLC",teresa@impactphysio.net,+15703196903,https://clarkssummitphysicaltherapists.com/,South Abington Township,PA
TruStrength Performance and Rehab,sydney@trustrengthrehab.com,+17203167541,https://trustrengthrehab.com/,Centennial,CO
Advance In Motion Physical Therapy,admin@aimpts.com,+19107822150,https://aimpts.com/,Wilmington,NC
Direct Orthopedic Therapy - Jacksonville Beach,info@directorthopedictherapy.com,+19048224622,https://directorthopedictherapy.com/,Jacksonville Beach,FL
Kaizen Health and Wellness - Physical Therapy,admin@kaizendsm.com,+15152072450,https://kaizendsm.com/,Urbandale,IA
Universus Physical Therapy - Huntington,universuspt@gmail.com,+16315332888,https://universuspt.com/,Huntington,NY
Nova Physical Therapy,admin@nova-pt.com,+16156246785,https://nova-pt.com,Murfreesboro,TN
KinetikChain Denver Physical Therapy and Chiropractic,jamie@kinetikchaindenver.com,+17206510674,https://kinetikchaindenver.com/,Denver,CO
Bergenfield Physical Therapy & Pain Management,bergenfieldpt@msn.com,+12013840200,https://www.bergenfieldpt.com/,Bloomfield,NJ
Rehability,info@rehability.net,+14063884902,https://rehability.care/,Belgrade,MT
Illinois Back Institute,cs@illinoisbackpain.com,+17084196733,https://illinoisbackpain.com/,Orland Park,IL
Origin Physical Therapy,info@theoriginway.com,+14706642580,https://www.theoriginway.com/,Atlanta,GA
Total Care Physical Therapy & Sports Medicine,info@totalcare-pt.com,+12017515000,https://totalcare-pt.com/,Union City,NJ
Gottsche Rehab & Therapy Clinic,cshero@gottsche.org,+13075781970,https://gottsche.org/,Worland,WY
Gottsche Rehab & Therapy Clinic,bmayer@gottsche.org,+13075781970,https://gottsche.org/,Worland,WY
Gottsche Rehab & Therapy Clinic,kdallman@gottsche.org,+13075781970,https://gottsche.org/,Worland,WY
Gottsche Rehab & Therapy Clinic,arodriguez@gottsche.org,+13075781970,https://gottsche.org/,Worland,WY
Gottsche Rehab & Therapy Clinic,amull@gottsche.org,+13075781970,https://gottsche.org/,Worland,WY
Gottsche Rehab & Therapy Clinic,knichols@gottsche.org,+13075781970,https://gottsche.org/,Worland,WY
Vitality Therapy and Performance,info@vitalitytulsa.com,+18005551234,https://vitalitytulsa.com/,Tulsa,OK
Defy Therapy and Wellness,info@defytherapyandwellness.com,+17869556912,https://defytherapyandwellness.com/,Aventura,FL
Premiere Pilates Rehabilitation & Fitness,nicole@premierepilates.org,+19047978328,http://premierepilates.org/,St. Augustine,FL
Empower Physical Therapy,empowerptclinics@gmail.com,+13163482766,https://empowerptclinics.com/,Hesston,KS
Prime Therapy & Pain Center,contact@primetherapy1.com,+19519340555,https://primetherapy1.com/,Riverside,CA
"SKYE Physiotherapy | Manual Physical Therapy, Dry Needling & Wellness",info@skyephysiotherapy.com,+14103576500,https://www.skyephysiotherapy.com/,Columbia,MD
Balanced Care Physical Therapy,info@balancedcarept.com,+14107458025,https://balancedcarept.com/,St Michaels,MD
Dizzy-Free PT,carly@dizzy-freept.com,+13178041222,https://dizzy-freept.com/,Fishers,IN
Vista Physical Therapy & Rehab,info@vista-physicaltherapy.com,+17607269661,https://vista-physicaltherapy.com/,Vista,CA
Alpha Rehabilitation Medical Centers,admin@alphapain.com,+17087883880,https://alphapain.com/,Berwyn,IL
PT38 Physical Therapy,dominic@pt38ny.com,+12125555555,https://pt38ny.com/,New York,NY
Prime Health & Wellness Center,info@primehealthrehab.com,+17325431734,https://www.primehealthrehab.com/,Highland Park,NJ
KNÓSIS Physiotherapy & Wellness,info@knosiswellness.com,+12129064440,https://www.knosiswellness.com/,New York,NY
Paragon Physical Therapy,paragonphysicaltherapy@gmail.com,+19739281950,https://www.paragonpt.net/,Little Falls,NJ
Synergy Sports Rehabilitation and Chiropractic,Chiros.Synergy@gmail.com,+12158609798,https://www.synergychironewtown.com/,Newtown,PA
Gottsche Rehabilitation Center,cshero@gottsche.org,+13075781970,https://gottsche.org/,Thermopolis,WY
Gottsche Rehabilitation Center,bmayer@gottsche.org,+13075781970,https://gottsche.org/,Thermopolis,WY
Gottsche Rehabilitation Center,kdallman@gottsche.org,+13075781970,https://gottsche.org/,Thermopolis,WY
Gottsche Rehabilitation Center,arodriguez@gottsche.org,+13075781970,https://gottsche.org/,Thermopolis,WY
Gottsche Rehabilitation Center,amull@gottsche.org,+13075781970,https://gottsche.org/,Thermopolis,WY
Gottsche Rehabilitation Center,knichols@gottsche.org,+13075781970,https://gottsche.org/,Thermopolis,WY
"Corrective Care Group, PC",info@ccgeb.com,+17326136000,http://eastbrunswickwellness.com/,East Brunswick,NJ
Root & Branch Physical Therapy,info@rootandbranchpt.com,+15035770318,https://www.rootandbranchpt.com/,Portland,OR
Mitchell Holistic Health,mitchellholistichealth@gmail.com,+18665607214,http://mitchellholistichealth.com/,Onalaska,WI
Center for Orthopedic and Sports Physical Therapy - Southwood,info@cospt.net,+18507654047,https://cospt.net/,Tallahassee,FL
FORM Physical Therapy,info@formtherapy.com,+17084974601,https://formtherapy.com/,Westchester,IL
Total Function Physical Therapy PC,info@totalfunctionpt.com,+17194651597,https://totalfunctionpt.com/,Colorado Springs,CO
Desert Brain and Spine - Dr. Russell Teames,hello@desertbrainandspine.com,+14806749199,https://desertbrainandspine.com/,Phoenix,AZ
Total Function Physical Therapy PC - Research Parkway,info@totalfunctionpt.com,+17194651597,https://totalfunctionpt.com/,Colorado Springs,CO
Southwest Myofascial Release,healing@southwesthealing.com,+17183690505,https://www.southwesthealing.com/,Brooklyn,NY
Ezra Medical Center - Physical Therapy and Pelvic Floor Therapy,info@ezramedical.org,+17186867600,https://www.ezramedical.org/,Brooklyn,NY
Tempo Sports Rehab,jacob@temposportsrehab.com,,https://temposportsrehab.com/,Carmel,IN
Elite Physical Therapy,info@eliteptnj.com,+19737325959,https://eliteptnj.com/,Newark,NJ
Rehab 4 Work,admin@rehab4work.com,+19726777005,https://rehab4work.com/,Dallas,TX
"Ability Clinic - Adult and Pediatric Primary and Specialty Care, Behavioral Health and Outpatient Therapy",info@unitedability.org,+12059443900,http://unitedability.org/,Birmingham,AL
Performance Therapeutics,info@performancetherapeutics.com,+18307765191,https://performancetherapeutics.com/,McAllen,TX
International Neurorehabilitation Institute,appointments@inirehab.com,+14108284629,https://inirehab.com/,Timonium,MD
Performance Therapeutics,info@performancetherapeutics.com,+18307765191,https://performancetherapeutics.com/,Roma,TX
Theradynamics Physical & Occupational Therapy,info@theradynamics.com,+12015551234,https://www.theradynamics.com/,Bronx,NY
St. Paul's Skilled Nursing and Rehabilitation,info@stpaulseniors.org,+16196773888,https://www.stpaulseniors.org/,San Diego,CA
Theradynamics Physical & Occupational Therapy,info@theradynamics.com,+12015551234,https://www.theradynamics.com/,Bronx,NY
Performance Therapeutics - Eagle Pass,info@performancetherapeutics.com,+18307765191,https://performancetherapeutics.com/,Eagle Pass,TX
"Premier Speech And Swallowing Solutions, LLC /Now offering ABA Services",intake@premierspeechtx.com,+12817174308,https://premierspeechtx.com/,Houston,TX
Performance Therapeutics,info@performancetherapeutics.com,+18307765191,https://performancetherapeutics.com/,Del Rio,TX
Performance Therapeutics - Rio Grande City,info@performancetherapeutics.com,+18307765191,https://performancetherapeutics.com/,Rio Grande City,TX
Theradynamics Physical & Occupational Therapy,info@theradynamics.com,+12015551234,https://www.theradynamics.com/,New York,NY
"Theradynamics Physical & Occupational Therapy - Hamilton Heights, NY",info@theradynamics.com,+12015551234,https://www.theradynamics.com/,New York,NY
Performance Therapeutics,info@performancetherapeutics.com,+18307765191,https://performancetherapeutics.com/,Edinburg,TX
Theradynamics Physical & Occupational Therapy,info@theradynamics.com,+12015551234,https://www.theradynamics.com/,New York,NY
Girl Fit Physical Therapy,info@girlfitpt.com,+16176189290,https://www.girlfit.com/,Framingham,MA
Le Reve Spinal Care Chiropractic & Pain Management Clinic,drbanishahi@aol.com,+16784013803,http://lerevespinalcare.com/,Atlanta,GA
Allegheny Medical,info@alleghenymedical.com,+14124944550,https://www.alleghenymedical.com/,Pittsburgh,PA
Doctor Para Dolor de Accidentes Chicago,info@doctoresymas.com,+17736925552,https://doctoresymas.com/,Chicago,IL
RxWellness Spine & Health - Arlington,request@rxwellness.com,+12405565721,https://www.rxwellness.net/,Arlington,VA
Legacy Medical Centers,legacy@llyfe.health,+17249410707,https://www.legacylyfe.health/,Pittsburgh,PA
Town Physical Therapy - Emerson NJ | Chiropractic | Physical | Occupational Therapy,maywoodpt@gmail.com,+12015234645,https://town-pt.com/,Emerson,NJ
Town Physical Therapy - Emerson NJ | Chiropractic | Physical | Occupational Therapy,emersonphysicaltherapy@gmail.com,+12015234645,https://town-pt.com/,Emerson,NJ
Town Physical Therapy - Emerson NJ | Chiropractic | Physical | Occupational Therapy,paramusptnj@gmail.com,+12015234645,https://town-pt.com/,Emerson,NJ
Town Physical Therapy - Emerson NJ | Chiropractic | Physical | Occupational Therapy,cliftonphysicaltherapynj@gmail.com,+12015234645,https://town-pt.com/,Emerson,NJ
Town Physical Therapy - Emerson NJ | Chiropractic | Physical | Occupational Therapy,bergenfieldptnj@gmail.com,+12015234645,https://town-pt.com/,Emerson,NJ
BackFit Health + Spine,info@backfithealth.com,+18772225348,http://backfithealth.com/,Mesa,AZ
RxWellness Spine & Health- Tysons/McLean,request@rxwellness.com,+12405565721,https://www.rxwellness.net/,Vienna,VA
Back To You Chiropractic and Physical Therapy,info@backtoyourehab.com,+17722525254,https://backtoyourehab.com/,Fort Pierce,FL
Orthopaedic Rehab Specialists Physical Therapy,mark@orsmi.com,+15178289040,https://www.orsmi.com/,Ann Arbor,MI
Infinite Athlete Physical Therapy & Performance,infiniteathletept@gmail.com,+12818167848,https://www.infiniteathletept.com/,Friendswood,TX
Coastal Orthopedics and Sports Medicine Physical Therapy,info@coastalortho.com,+12074434578,https://coastalortho.com/,Brunswick,ME
BYLT Physical Therapy - Walla Walla,byltpt@gmail.com,+15095404889,https://www.byltpt.com/,Walla Walla,WA
Kim Chiropractic Clinic 김응권 척추신경 센터빌 병원,kimchiropracticrehab@gmail.com,+17038152300,https://kimchiropracticclinic.com/,Centreville,VA
Kim Chiropractic Clinic,kimchiropracticrehab@gmail.com,+17038152300,https://kimchiropracticclinic.com/,Rockville,MD
Kim Chiropractic Clinic,kimchiropracticrehab@gmail.com,+17038152300,https://kimchiropracticclinic.com/,Columbia,MD
New York Injury Associates - Smithtown Office,nyinjuryassociates@gmail.com,+15165585644,http://nyinjuryassociates.com/,Smithtown,NY
Haider Spine Center,feedback@haiderspine.com,+19514130200,https://haiderspinecenter.com/,Riverside,CA
Haider Spine Center,billing@haiderspine.com,+19514130200,https://haiderspinecenter.com/,Riverside,CA
Haider Spine Center,appointments@haiderspine.com,+19514130200,https://haiderspinecenter.com/,Riverside,CA
Genesis Physical Therapy and Wellness,genesisptw@yahoo.com,+19852279259,http://genesisptw.net/,Thibodaux,LA
"Sumner Specialized Physical Therapy, PLLC",specializedphysicaltherapy@gmail.com,+15096845621,https://sumnerpt.com/,Colville,WA
Lab Fit Physical Therapy and Wellness Center,info@laboratoryfitness.com,+16785061236,https://www.labfitpt.com/,Peachtree City,GA
Fiziologix Physical Therapy - Pain Relief | Rehabilitation | Injury Prevention | Sports Performance,team@fiziologix.com,+13608603100,https://fiziologix.com/,Bainbridge Island,WA
River North Physical Therapy,office@rivernorthphysicaltherapy.com,+17083012631,http://rivernorthphysicaltherapy.com/,Chicago,IL
Cumberland Wellness,ucwcookeville@gmail.com,+19314000725,https://www.ucwcookeville.com/,Cookeville,TN
Beyond Integrative PT,DrCarr@beyondintegrativept.com,+13233041602,https://beyondintegrativept.com/,Santa Monica,CA
Cleveland Pelvic Wellness Center,info@clevelandpelvicwellness.com,+12162006959,https://www.clevelandpelvicwellness.com/,South Euclid,OH
Move Past Pain to Performance,info@mp3-theratrain.com,+17207222504,https://www.mp3-theratrain.com/,Denver,CO
Move Past Pain to Performance,Dutch@mp3-theratrain.com,+17207222504,https://www.mp3-theratrain.com/,Denver,CO
Physical Therapy Specialists of Dearborn,info@ptsofdearborn.com,+13134299333,https://ptsofdearborn.com/,Dearborn,MI
Methodist Rehabilitation Center,cblount@wilsonfoundation.org,+16013643598,https://methodistonline.org/,Clinton,MS
Progressive Mobility Physio & Performance,info@progressivemobilitypt.com,+18644855910,https://progressivemobilitypt.com/,Spartanburg,SC
Precision Physical Therapy,precisionpt.medford@gmail.com,+17813957333,http://precisionpt.net/,Medford,MA
PerformEX Physical Therapy and Sports Rehabilitation,wesley@performexpt.com,+12012771107,https://performexpt.com/,Fair Lawn,NJ
Paragon Sport Spine & Wellness,info@paragonssw.com,+16096862050,https://paragonssw.com/,Robbinsville Twp,NJ
Camisa Physical Therapy & Sports Rehab,info@camisapt.com,+19739987739,https://camisapt.com/,Morristown,NJ
Performance Health and Wellness,info@lcvhealth.com,+15097697551,http://lcvhealth.com/,Lewiston,ID
Institute for Athlete Regeneration Sports Medicine,info@iarsportsmed.com,+18322796672,https://www.iarsportsmed.com/,Houston,TX
Physio on the Go,info@kuhnphysicaltherapy.com,+16193918688,https://www.physio-on-the-go.com/,San Diego,CA
Accelerate Physical Therapy,info@ptaccelerate.com,+19495023388,https://ptaccelerate.com/,Solvang,CA
Avant Physical Therapy,info@avantphysicaltherapy.com,+12066864073,https://www.avantphysicaltherapy.com/,Seattle,WA
Hulst Jepsen Physical Therapy Wyoming,receptionist@hjphysicaltherapy.com,+16162568679,https://www.hjphysicaltherapy.com/,Wyoming,MI
Beatrice Health and Rehabilitation,contact-Beatrice@ensignservices.net,+14022232311,https://beatricehealthandrehab.com/,Beatrice,NE
Hulst Jepsen Physical Therapy - Grand Rapids Northeast,receptionist@hjphysicaltherapy.com,+16162568679,https://www.hjphysicaltherapy.com/,Grand Rapids,MI
Hillside Medical Lodge,info@hillsideml.com,+12548657575,https://www.hillsideml.com/,Gatesville,TX
Hulst Jepsen Physical Therapy Kentwood,receptionist@hjphysicaltherapy.com,+16162568679,https://www.hjphysicaltherapy.com/,Grand Rapids,MI
Hulst Jepsen Physical Therapy - Greenville,receptionist@hjphysicaltherapy.com,+16162568679,https://www.hjphysicaltherapy.com/,Greenville,MI
Hulst Jepsen Physical Therapy Hudsonville,receptionist@hjphysicaltherapy.com,+16162568679,https://www.hjphysicaltherapy.com/,Hudsonville,MI
Hulst Jepsen Physical Therapy Rockford,receptionist@hjphysicaltherapy.com,+16162568679,https://www.hjphysicaltherapy.com/,Rockford,MI
Lexington Medical Lodge,info@lexingtonmedicallodge.com,+19727847770,https://lexingtonml.com/,Farmersville,TX
Hulst Jepsen Physical Therapy - Caledonia,receptionist@hjphysicaltherapy.com,+16162568679,https://www.hjphysicaltherapy.com/,Caledonia,MI
Hulst Jepsen Physical Therapy Grandville,receptionist@hjphysicaltherapy.com,+16162568679,https://www.hjphysicaltherapy.com/,Grandville,MI
Hulst Jepsen Physical Therapy - Byron Center,receptionist@hjphysicaltherapy.com,+16162568679,https://www.hjphysicaltherapy.com/,Byron Center,MI
Cheyenne Medical Lodge,info@cheyennemedicallodge.com,+19727888900,https://www.cheyenneml.com/,Mesquite,TX
Hulst Jepsen Physical Therapy Standale,receptionist@hjphysicaltherapy.com,+16162568679,https://www.hjphysicaltherapy.com/,Walker,MI
Hulst Jepsen Physical Therapy - Cascade,receptionist@hjphysicaltherapy.com,+16162568679,https://www.hjphysicaltherapy.com/,Grand Rapids,MI
Hulst Jepsen Physical Therapy - Gaines Township,receptionist@hjphysicaltherapy.com,+16162568679,https://www.hjphysicaltherapy.com/,Caledonia,MI
Heritage Court Post Acute of Scottsdale,contact-heritagecourt@ensignservices.net,+14809495400,http://scottsdaleheritagecourt.com/,Scottsdale,AZ
Bainbridge Island Health and Rehabilitation Center,contact-BainbridgeIsland@ensignservices.net,+12068424765,https://bainbridgerehab.com/,Bainbridge Island,WA
Hulst Jepsen Physical Therapy East Grand Rapids,receptionist@hjphysicaltherapy.com,+16162568679,https://www.hjphysicaltherapy.com/,Grand Rapids,MI
Apple Physical Therapy,info@applept.com,+18567512140,http://applephysicaltherapy.net/,Cherry Hill,NJ
Olympic Sports & Spine,information@osstherapy.com,+12533308661,https://www.osstherapy.com/,Lakewood,WA
Garnet Hill Rehabilitation And Skilled Care,administrator@garnethillrehab.com,+19724426776,https://garnethillrehab.com/,Wylie,TX
Oklahoma Medical Clinic,support@oklahomamedicalclinic.com,+14053783400,https://oklahomamedicalclinic.com/,Oklahoma City,OK
Florida Injury Centers,drkdhuffman@floridainjurycenters.com,+18664024250,https://www.floridainjurycenters.com/,Valrico,FL
Florida Injury Centers,drkdhuffman@floridainjurycenters.com,+18664024250,https://www.floridainjurycenters.com/,Orlando,FL
Florida Injury Centers,drkdhuffman@floridainjurycenters.com,+18664024250,https://www.floridainjurycenters.com/,Jacksonville,FL
Florida Injury Centers,drkdhuffman@floridainjurycenters.com,+18664024250,https://www.floridainjurycenters.com/,Port Orange,FL
Pro+Kinetix Physical Therapy & Performance,admin@prokinetixrehab.com,+16199852997,https://prokinetixrehab.com/,Urbandale,IA
Dr. Peter Wakeman D.C.,wakemanchiropractic@gmail.com,+13866730201,https://spinaldecompressiontreatments.com/,Daytona Beach,FL
Launch Physical Therapy & Fitness Coaching,frontdesk@launchsp.com,+12404061265,https://www.launchsp.com/,Rockville,MD
Starace Total Balance Physical Therapy P.A.,staracetotalbalance@gmail.com,+13866931798,https://www.staracetotalbalance.com/,Bunnell,FL
Northwest Return To Work,info@nwrtw.com,+14257749564,http://nwrtw.com/,Lynnwood,WA
Symmetry Medical Center,dr.ryanfaulkner@gmail.com,+13142703410,https://symmetrymedcenter.com/,St. Louis,MO
Winter Park Chiro,info@winterparkchiro.com,+14079606798,https://winterparkchiro.com/,Winter Park,FL
Missing Link Physical Therapy,office@missinglinkpt.com,+17038585070,http://missinglinkpt.com/,Ashburn,VA