business_name,email,phone,website,city,state
BSA CareXpress Urgent Care Summit,billing@fmclp.com,+18063508900,https://www.carexpressurgentcare.com/,Amarillo,TX
BSA CareXpress Urgent Care Summit,info@fmclp.com,+18063508900,https://www.carexpressurgentcare.com/,Amarillo,TX
BSA CareXpress Urgent Care Summit,occmedandworkcompbilling@fmclp.com,+18063508900,https://www.carexpressurgentcare.com/,Amarillo,TX
Morehead Urgent Care West,rhnews@unchealth.unc.edu,+13366239711,https://www.uncrockingham.org/,Mayodan,NC
Express Emergency Room Waco,waco@expressemergencyroom.com,+12542946500,https://expresserwaco.com/,Waco,TX
DOCS Urgent Care & Primary Care - Branford,contact@docsmedicalgroup.com,+12038743682,https://docsmedicalgroup.com/,Branford,CT
DOCS Urgent Care & Primary Care - Branford,careers@docsmedicalgroup.com,+12038743682,https://docsmedicalgroup.com/,Branford,CT
DOCS Urgent Care & Primary Care - Branford,billing@docsmedicalgroup.com,+12038743682,https://docsmedicalgroup.com/,Branford,CT
DOCS Urgent Care & Primary Care - Branford,hr@docsmedicalgroup.com,+12038743682,https://docsmedicalgroup.com/,Branford,CT
DOCS Urgent Care & Primary Care - Branford,contact@docsofct.com,+12038743682,https://docsmedicalgroup.com/,Branford,CT
Jackson Urgent Care Clinic,admin@jacksonuc.com,+15175138269,https://www.jacksonuc.com/,Jackson,MI
Emergency Physicians Medical Center,medicalrecords@emergencypmc.com,+13527277756,https://www.emergencypmc.com/,Gainesville,FL
Emergency Physicians Medical Center,epmc@emergencypmc.com,+13527277756,https://www.emergencypmc.com/,Gainesville,FL
Emergency Physicians Medical Center,billing@emergencypmc.com,+13527277756,https://www.emergencypmc.com/,Gainesville,FL
Express Emergency Room Temple,info@expressemergencyroom.com,+12544355900,https://expressertemple.com/,Temple,TX
Newport Center Urgent Care,frontdesk@newportbeachuc.com,+19497608300,https://newportbeachuc.com/,Newport Beach,CA
"Concur Urgent & Primary Care Clinic - Norcross, GA",physicians@concururgentcare.com,+14708220101,https://concururgentcare.com/,Norcross,GA
Jackson Urgent Care Clinic,admin@jacksonuc.com,+15175138269,https://www.jacksonuc.com/,Jackson,MI
"enTrust Immediate Care - Memorial Drive, Houston, TX",info@entrustcare.com,+17134687845,https://entrustcare.com/,Houston,TX
BLUE WATER URGENT CARE FORT GRATIOT,admin@bluewateruc.com,+18108829373,https://bluewateruc.com/,Fort Gratiot Twp,MI
Manchester Urgent Care,frontdesk@manchesteruc.com,+18669417210,https://www.urgent-care-los-angeles.com/,Los Angeles,CA
Manchester Urgent Care,mmurgentcare@gmail.com,+18669417210,https://www.urgent-care-los-angeles.com/,Los Angeles,CA
BLUE WATER URGENT CARE ALGONAC,admin@bluewaterurgentcareclinic.com,+18106622827,https://bluewaterurgentcareclinic.com/,Algonac,MI
Emergency Physicians Medical Center,medicalrecords@emergencypmc.com,+13527277756,https://www.emergencypmc.com/,Gainesville,FL
Emergency Physicians Medical Center,epmc@emergencypmc.com,+13527277756,https://www.emergencypmc.com/,Gainesville,FL
Emergency Physicians Medical Center,billing@emergencypmc.com,+13527277756,https://www.emergencypmc.com/,Gainesville,FL
Haymount Urgent Care,info@haymountuc.com,+19104001581,https://haymountuc.com/,Fayetteville,NC
Haymount Urgent Care,billing@haymountuc.com,+19104001581,https://haymountuc.com/,Fayetteville,NC
Haymount Urgent Care,DrClinton@haymountuc.com,+19104001581,https://haymountuc.com/,Fayetteville,NC
Wyandotte Urgent Care Clinic,info@wyandotteuc.com,+17342990712,https://wyandotteuc.com/,Wyandotte,MI
Urgent-MD,info@urgent-md.com,+15168066253,https://www.urgent-md.com/,Cedarhurst,NY
Express Care Tampa,urgentcaretampa@gmail.com,+18136410068,https://www.expresscareoftampabay.com/,Apollo Beach,FL
Medella Urgent Care,info@medellauc.com,+13468083670,https://www.medellauc.com/,Houston,TX
Today Clinic,info@todayclinic.com,+14056310611,https://todayclinic.com/,Dallas,TX
Express Emergency Room Harker Heights,hh@expressemergencyroom.com,+12547815010,https://expresserharkerheights.com/,Harker Heights,TX
ER of Dallas - Emergency Room,info@eroferdallastx.com,+12146136723,https://erofdallastx.com/,Dallas,TX
PromptMed Urgent Care - Waukegan,info@mypromptmed.com,+18479018400,https://www.promptmedurgentcare.net/,Waukegan,IL
PromptMed Urgent Care - Highland Park,info@mypromptmed.com,+18479018400,https://www.promptmedurgentcare.net/,Highland Park,IL
"Today Clinic Urgent Care, South OKC",info@todayclinic.com,+14056310611,https://todayclinic.com/,Oklahoma City,OK
PromptMed Urgent Care - Antioch,info@mypromptmed.com,+18479018400,https://www.promptmedurgentcare.net/,Antioch,IL
Altus Emergency Center Waxahachie,Altuser_Legacybilling@legacyhealthllc.com,+14097552273,https://www.altusemergency.com/,Waxahachie,TX
"Medix Urgent Care and Family Health Center: Yvette Fletcher, MD, NP",medixucc1@gmail.com,+19543917160,https://medixucc.com/,Lauderhill,FL
"Medix Urgent Care and Family Health Center: Yvette Fletcher, MD, NP",medixucc@gmail.com,+19543917160,https://medixucc.com/,Lauderhill,FL
Alliance Urgent Care,info@allianceurgentcare.com,+18558874368,https://allianceurgentcare.com/,Tolleson,AZ
Willowbrook Clinics and Medical Center,willowbrookclinics@willowbrookclinics.com,+16309861177,https://willowbrookclinics.com/,Willowbrook,IL
Today Clinic Urgent Care,info@todayclinic.com,+14056310611,https://todayclinic.com/,Oklahoma City,OK
UMD Care - Northern,astoria@umdcare.com,+17187210101,https://umdcare.com/,Flushing,NY
UMD Care - Northern,brooklyn@umdcare.com,+17187210101,https://umdcare.com/,Flushing,NY
UMD Care - Northern,lic@umdcare.com,+17187210101,https://umdcare.com/,Flushing,NY
UMD Care - Northern,northern@umdcare.com,+17187210101,https://umdcare.com/,Flushing,NY
Atlantis Urgent Care,CustomerService@atlantisurgentcare.com,+13217797425,https://atlantisurgentcare.com/,Indian Harbour Beach,FL
Express Emergency Room Abilene,abilene@expressemergencyroom.com,+13256033400,https://expresserabilene.com/,Abilene,TX
Great Lakes: Urgent Care,frontdesk@perrysburgurgentcare.com,+14198725343,https://perrysburgurgentcare.com/,Perrysburg,OH
Life Savers Emergency Room - Willowbrook,info@lifesaverser.com,+12819372800,http://lifesaverser.com/,Houston,TX
Life Savers Emergency Room - Willowbrook,erheights@lifesaverser.com,+12819372800,http://lifesaverser.com/,Houston,TX
Life Savers Emergency Room - Heights,info@lifesaverser.com,+12819372800,http://lifesaverser.com/,Houston,TX
Life Savers Emergency Room - Heights,erheights@lifesaverser.com,+12819372800,http://lifesaverser.com/,Houston,TX
Rapid Urgent Care - Slidell,info@correctcareinc.com,+19854005663,https://www.rapidurgentcare.com/,Slidell,LA
Rapid Urgent Care - Covington,info@correctcareinc.com,+19854005663,https://www.rapidurgentcare.com/,Covington,LA
EPN Urgent Care,Robert_Vazquez@teamhealth.com,+12397752300,https://www.epncare.com/,Naples,FL
OC Urgent Care Anaheim,foothill@ocurgentcare.com,+19492973888,https://ocurgentcare.com/,Anaheim,CA
OC Urgent Care Anaheim,hbbeach@ocurgentcare.com,+19492973888,https://ocurgentcare.com/,Anaheim,CA
OC Urgent Care Anaheim,anaheim@ocurgentcare.com,+19492973888,https://ocurgentcare.com/,Anaheim,CA
OC Urgent Care Anaheim,tustin@ocurgentcare.com,+19492973888,https://ocurgentcare.com/,Anaheim,CA
OC Urgent Care Anaheim,orangekatella@ocurgentcare.com,+19492973888,https://ocurgentcare.com/,Anaheim,CA
OC Urgent Care Anaheim,santaana@ocurgentcare.com,+19492973888,https://ocurgentcare.com/,Anaheim,CA
OC Urgent Care Anaheim,anaheim2@ocurgentcare.com,+19492973888,https://ocurgentcare.com/,Anaheim,CA
OC Urgent Care Anaheim,hbsouth@ocurgentcare.com,+19492973888,https://ocurgentcare.com/,Anaheim,CA
OC Urgent Care Anaheim,missionviejo@ocurgentcare.com,+19492973888,https://ocurgentcare.com/,Anaheim,CA
OC Urgent Care Anaheim,orange@ocurgentcare.com,+19492973888,https://ocurgentcare.com/,Anaheim,CA
OC Urgent Care Anaheim,lakeforest@ocurgentcare.com,+19492973888,https://ocurgentcare.com/,Anaheim,CA
SilverStar Ozone Park Urgent Care - Queens Urgent Care,info@silverstarurgentcare.com,+18334244357,https://silverstarurgentcare.com/,Ozone Park,NY
Largo Clinic and Med Spa,drksmedspa@gmail.com,+17275171500,https://largoclinic.com/,Largo,FL
Largo Clinic and Med Spa,drkswalkin@gmail.com,+17275171500,https://largoclinic.com/,Largo,FL
"PREMIUM CARE CLINIC-KHALED M. EL-SAID,MD,INC",pcc@pcareclinic.com,+19099032330,https://premiumcareclinic.com/,Corona,CA
First Care Medical Clinic,osistrunk@rizetrg.com,+17042919267,https://www.firstcarecanhelp.com/,Rock Hill,SC
Urgent Care Walk-In Clinic ER Care,care@ercarecfl.com,+14077048005,https://ercarecfl.com/,Orlando,FL
First Care Medical Clinic,osistrunk@rizetrg.com,+17042919267,https://www.firstcarecanhelp.com/,Charlotte,NC
Blue Water Urgent Care New Baltimore / Chesterfield,nbadmin@bluewateruc.com,+15863353573,https://bluewaterurgentcarenb.com/,New Baltimore,MI
CareXpress Urgent Care On Georgia,billing@fmclp.com,+18063508900,https://www.carexpressurgentcare.com/,Amarillo,TX
CareXpress Urgent Care On Georgia,info@fmclp.com,+18063508900,https://www.carexpressurgentcare.com/,Amarillo,TX
CareXpress Urgent Care On Georgia,occmedandworkcompbilling@fmclp.com,+18063508900,https://www.carexpressurgentcare.com/,Amarillo,TX
CareXpress Urgent Care Canyon,billing@fmclp.com,+18063508900,https://www.carexpressurgentcare.com/,Canyon,TX
CareXpress Urgent Care Canyon,info@fmclp.com,+18063508900,https://www.carexpressurgentcare.com/,Canyon,TX
CareXpress Urgent Care Canyon,occmedandworkcompbilling@fmclp.com,+18063508900,https://www.carexpressurgentcare.com/,Canyon,TX
Greater Mobile Urgent Care,info@gmucare.com,+12516330123,http://greatermobileurgentcare.com/,Mobile,AL
360 Immediate Care,info@360immediatecare.com,+18477494408,https://360immediatecare.com/,Mt Prospect,IL
BLUE WATER URGENT CARE MARYSVILLE / ST. CLAIR,ceo@miurgentcares.com,+18106763360,https://miurgentcares.com/,Marysville,MI
"Columbia Clinic Urgent Care - Tigard, OR",info@columbiaclinic.com,+19712700000,https://www.columbiaclinic.com/,Tigard,OR
"Columbia Clinic Urgent Care - Tigard, OR",contact@columbiaclinic.com,+19712700000,https://www.columbiaclinic.com/,Tigard,OR
Columbia Urgent Care - Portland (82nd Ave),info@columbiaclinic.com,+19712700000,https://www.columbiaclinic.com/,Portland,OR
Columbia Urgent Care - Portland (82nd Ave),contact@columbiaclinic.com,+19712700000,https://www.columbiaclinic.com/,Portland,OR
Alliance Urgent Care,info@allianceurgentcare.com,+18558874368,https://allianceurgentcare.com/,Buckeye,AZ
ANYTIME MD URGENT CARE,info@anytimemduc.com,+17706358407,https://www.anytimemduc.com/,Austell,GA
Urgent Care of New Jersey,urgentcarenj@gmail.com,+17326625650,http://uconj.com/,Edison,NJ
Sport Ortho Urgent Care - Clarksville,info@sportorthouc.com,+16157581030,https://www.sportorthourgentcare.com/,Clarksville,TN
Urgent Care | First Care Medical Clinic,osistrunk@rizetrg.com,+17042919267,https://www.firstcarecanhelp.com/,Albemarle,NC
CareXpress Urgent Care on Ross-Osage,billing@fmclp.com,+18063508900,https://www.carexpressurgentcare.com/,Amarillo,TX
CareXpress Urgent Care on Ross-Osage,info@fmclp.com,+18063508900,https://www.carexpressurgentcare.com/,Amarillo,TX
CareXpress Urgent Care on Ross-Osage,occmedandworkcompbilling@fmclp.com,+18063508900,https://www.carexpressurgentcare.com/,Amarillo,TX
First Care Medical Clinic,osistrunk@rizetrg.com,+17042919267,https://www.firstcarecanhelp.com/,Gastonia,NC
Western New York Immediate Care - Orchard Park,James_Giallella@teamhealth.com,+17168175362,https://www.wnyimmediatecare.com/,Orchard Park,NY
Western New York Immediate Care - Orchard Park,Rachel_Libra@teamhealth.com,+17168175362,https://www.wnyimmediatecare.com/,Orchard Park,NY
Western New York Immediate Care - Orchard Park,Shyamal_Majithia@teamhealth.com,+17168175362,https://www.wnyimmediatecare.com/,Orchard Park,NY
Western New York Immediate Care - Orchard Park,scheduling@wnyimmediatecare.com,+17168175362,https://www.wnyimmediatecare.com/,Orchard Park,NY
Western New York Immediate Care - Orchard Park,Jamie_Tolsma@teamhealth.com,+17168175362,https://www.wnyimmediatecare.com/,Orchard Park,NY
Western New York Immediate Care - Orchard Park,Joe_Chow@teamhealth.com,+17168175362,https://www.wnyimmediatecare.com/,Orchard Park,NY
Urgent Care by the Bay,info@ucbythebay.com,+12516265377,https://ucbythebay.com/,Daphne,AL
CareXpress Urgent Care Downtown,billing@fmclp.com,+18063508900,https://www.carexpressurgentcare.com/,Amarillo,TX
CareXpress Urgent Care Downtown,info@fmclp.com,+18063508900,https://www.carexpressurgentcare.com/,Amarillo,TX
CareXpress Urgent Care Downtown,occmedandworkcompbilling@fmclp.com,+18063508900,https://www.carexpressurgentcare.com/,Amarillo,TX
Coastal Family Urgent Care,info@coastalfamilyuc.com,+17604486650,https://www.coastalfamilyuc.com/,Carlsbad,CA
Fairfield Emergency Room,info@fairfieldemergencyroom.com,+18326197937,https://fairfieldemergencyroom.com/,Cypress,TX
The Urgency Room,URpatientrelations@urgencyroom.com,+16517899900,https://www.urgencyroom.com/,Woodbury,MN
Nebraska Urgent Care Center,info@nebucc.com,+14024706055,https://nebucc.com/,Lincoln,NE
Jackson Express Care,info@jec1.info,+17405773527,https://jacksonexpresscare.com/,Jackson,OH
Jackson Express Care,support@jacksonexpresscare.com,+17405773527,https://jacksonexpresscare.com/,Jackson,OH
Rockland Urgent Care,info@rocklandurgentcare.com,+18454294000,http://rocklandurgentcare.net/,West Haverstraw,NY
Medcare Center,contactus@mymedcarecleveland.com,+14403455551,https://mymedcarecleveland.com/,Cleveland,OH
The Urgency Room,URpatientrelations@urgencyroom.com,+16517899900,https://www.urgencyroom.com/,Vadnais Heights,MN
The Urgency Room,URpatientrelations@urgencyroom.com,+16517899900,https://www.urgencyroom.com/,Eagan,MN
ER of Mesquite - Emergency Room,info@erofmesquitetx.com,+14696491007,https://erofmesquitetx.com/,Mesquite,TX
Altus Emergency Center Lake Jackson,Altuser_Legacybilling@legacyhealthllc.com,+14097552273,https://www.altusemergency.com/,Lake Jackson,TX
Blue Wave Pediatrics,pediatrics@bluewavemedicalassociates.com,+17273033117,https://www.bluewavemedicalassociates.com/,Clearwater,FL
Blue Wave Pediatrics,concussion@bluewavemedicalassociates.com,+17273033117,https://www.bluewavemedicalassociates.com/,Clearwater,FL
"New York Urgent Care | Walk In Urgent Care Center in Long Island, Queens",info@nyucc.com,+17189622273,https://nyucc.com/,Queens,NY
Centers Urgent Care of Forest Hills,comments@centersurgentcare.net,+17183953788,https://centersurgentcare.net/,Forest Hills,NY
Centers Urgent Care of Bay Ridge,comments@centersurgentcare.net,+17183075725,https://centersurgentcare.net/,Brooklyn,NY
Centers Urgent Care of Coney Island,comments@centersurgentcare.net,+17182157340,https://centersurgentcare.net/,Brooklyn,NY
Centers Urgent Care of Hunts Point,comments@centersurgentcare.net,+17185023910,https://centersurgentcare.net/,Bronx,NY
Centers Urgent Care of Fulton St,comments@centersurgentcare.net,+17188196782,https://centersurgentcare.net/,Brooklyn,NY
Centers Urgent Care of Astoria,comments@centersurgentcare.net,+17186852300,https://centersurgentcare.net/,Long Island City,NY
Visit Health Urgent Care,vannuysuc@visithealth.com,+17472640173,https://www.visithealthurgentcare.com/,Van Nuys,CA
Family First Swiftcare,info@familyfirsturgentcare.com,+17246543006,https://www.familyfirsturgentcare.org/,New Castle,PA
Norwood Urgent Care in Walpole,info@norwoodurgentcare.com,+17812550500,https://norwoodurgentcare.com/,East Walpole,MA
Docs Urgent Care & Primary Care - Bethel,contact@docsmedicalgroup.com,+12038743682,https://docsmedicalgroup.com/,Bethel,CT
Docs Urgent Care & Primary Care - Bethel,careers@docsmedicalgroup.com,+12038743682,https://docsmedicalgroup.com/,Bethel,CT
Docs Urgent Care & Primary Care - Bethel,billing@docsmedicalgroup.com,+12038743682,https://docsmedicalgroup.com/,Bethel,CT
Docs Urgent Care & Primary Care - Bethel,hr@docsmedicalgroup.com,+12038743682,https://docsmedicalgroup.com/,Bethel,CT
Docs Urgent Care & Primary Care - Bethel,contact@docsofct.com,+12038743682,https://docsmedicalgroup.com/,Bethel,CT
DOCS Urgent Care & Primary Care - Stamford,contact@docsmedicalgroup.com,+12038743682,https://docsmedicalgroup.com/,Stamford,CT
DOCS Urgent Care & Primary Care - Stamford,careers@docsmedicalgroup.com,+12038743682,https://docsmedicalgroup.com/,Stamford,CT
DOCS Urgent Care & Primary Care - Stamford,billing@docsmedicalgroup.com,+12038743682,https://docsmedicalgroup.com/,Stamford,CT
DOCS Urgent Care & Primary Care - Stamford,hr@docsmedicalgroup.com,+12038743682,https://docsmedicalgroup.com/,Stamford,CT
DOCS Urgent Care & Primary Care - Stamford,contact@docsofct.com,+12038743682,https://docsmedicalgroup.com/,Stamford,CT
Ortho Pooler,info@apexhealthandpain.com,+19127372022,https://www.orthopooler.com/,Pooler,GA
DOCS Urgent Care & Primary Care- Orange,contact@docsmedicalgroup.com,+12038743682,https://docsmedicalgroup.com/,Orange,CT
DOCS Urgent Care & Primary Care- Orange,careers@docsmedicalgroup.com,+12038743682,https://docsmedicalgroup.com/,Orange,CT
DOCS Urgent Care & Primary Care- Orange,billing@docsmedicalgroup.com,+12038743682,https://docsmedicalgroup.com/,Orange,CT
DOCS Urgent Care & Primary Care- Orange,hr@docsmedicalgroup.com,+12038743682,https://docsmedicalgroup.com/,Orange,CT
DOCS Urgent Care & Primary Care- Orange,contact@docsofct.com,+12038743682,https://docsmedicalgroup.com/,Orange,CT
Lakeway Urgent Care University Commons,staff@lakewayurgentcaretn.com,+18656736603,http://lakewayurgentcareuc.com/,Knoxville,TN
Nora Urgent Care,info@indianaimmediatecare.com,+13178837712,http://noraurgentcare.com/,Indianapolis,IN
Summit Urgent Care - East El Paso,info@summit-urgentcare.com,+19158574559,https://www.summit-urgentcare.com/,El Paso,TX
Washington Regional Urgent Care - Mountain Home,athomas@urgentteam.com,+16159882000,https://www.urgentteam.com/brand/washington-regional-urgent-care,Mountain Home,AR
Baptist Urgent Care - West Point,athomas@urgentteam.com,+18006787070,https://www.urgentteam.com/brand/baptist-urgent-care/,West Point,MS
EZCare Walk-in Medical Center,covington@ezcareclinics.com,+15409602231,https://ezcareclinics.com/,New Martinsville,WV
EZCare Walk-in Medical Center,dublin@ezcareclinics.com,+15409602231,https://ezcareclinics.com/,New Martinsville,WV
EZCare Walk-in Medical Center,fairmont@ezcareclinics.com,+15409602231,https://ezcareclinics.com/,New Martinsville,WV
EZCare Walk-in Medical Center,moorefield@ezcareclinics.com,+15409602231,https://ezcareclinics.com/,New Martinsville,WV
EZCare Walk-in Medical Center,newmartinsville@ezcareclinics.com,+15409602231,https://ezcareclinics.com/,New Martinsville,WV
SAAD MD,info@drsaad.com,+19403942948,https://saadmd.com/,Dearborn,MI
SAAD MD,contact@grayic.com,+19403942948,https://saadmd.com/,Dearborn,MI
SAAD MD,support@grayic.com,+19403942948,https://saadmd.com/,Dearborn,MI
DOCS Urgent Care & Primary Care - West Haven,contact@docsmedicalgroup.com,+12038743682,https://docsmedicalgroup.com/,West Haven,CT
DOCS Urgent Care & Primary Care - West Haven,careers@docsmedicalgroup.com,+12038743682,https://docsmedicalgroup.com/,West Haven,CT
DOCS Urgent Care & Primary Care - West Haven,billing@docsmedicalgroup.com,+12038743682,https://docsmedicalgroup.com/,West Haven,CT
DOCS Urgent Care & Primary Care - West Haven,hr@docsmedicalgroup.com,+12038743682,https://docsmedicalgroup.com/,West Haven,CT
DOCS Urgent Care & Primary Care - West Haven,contact@docsofct.com,+12038743682,https://docsmedicalgroup.com/,West Haven,CT
Avecina Medical - Oakleaf,info@avecinamedical.com,+18005551234,https://avecina.com/,Jacksonville,FL
Baptist Urgent Care - Columbus,athomas@urgentteam.com,+18006787070,https://www.urgentteam.com/brand/baptist-urgent-care/,Columbus,MS
DOCS Urgent Care & Primary Care - New Milford,contact@docsmedicalgroup.com,+12038743682,https://docsmedicalgroup.com/,New Milford,CT
DOCS Urgent Care & Primary Care - New Milford,careers@docsmedicalgroup.com,+12038743682,https://docsmedicalgroup.com/,New Milford,CT
DOCS Urgent Care & Primary Care - New Milford,billing@docsmedicalgroup.com,+12038743682,https://docsmedicalgroup.com/,New Milford,CT
DOCS Urgent Care & Primary Care - New Milford,hr@docsmedicalgroup.com,+12038743682,https://docsmedicalgroup.com/,New Milford,CT
DOCS Urgent Care & Primary Care - New Milford,contact@docsofct.com,+12038743682,https://docsmedicalgroup.com/,New Milford,CT
Baptist Urgent Care - Horn Lake,athomas@urgentteam.com,+18006787070,https://www.urgentteam.com/brand/baptist-urgent-care/,Horn Lake,MS
Avecina Medical - Julington Creek Center,info@avecinamedical.com,+18005551234,https://avecina.com/,St Johns,FL
Walk In Clinic,info@agurgentcare.com,+17186823903,https://agurgentcare.com/,Brooklyn,NY
Tricity Family Medicine & Urgent Care Clinic,tricityfamilymedicine@myupdox.com,+19192616446,https://www.tricityfamily.com/,Holly Springs,NC
St. Francis Urgent Care Center,info@stfrancisurgentcare.com,+15107809400,https://www.stfrancisurgentcare.com/,Hayward,CA
DOCS Urgent Care & Primary Care Fairfield,contact@docsmedicalgroup.com,+12038743682,https://docsmedicalgroup.com/,Fairfield,CT
DOCS Urgent Care & Primary Care Fairfield,careers@docsmedicalgroup.com,+12038743682,https://docsmedicalgroup.com/,Fairfield,CT
DOCS Urgent Care & Primary Care Fairfield,billing@docsmedicalgroup.com,+12038743682,https://docsmedicalgroup.com/,Fairfield,CT
DOCS Urgent Care & Primary Care Fairfield,hr@docsmedicalgroup.com,+12038743682,https://docsmedicalgroup.com/,Fairfield,CT
DOCS Urgent Care & Primary Care Fairfield,contact@docsofct.com,+12038743682,https://docsmedicalgroup.com/,Fairfield,CT
Lakeway Urgent Care,staff@lakewayurgentcaretn.com,+18652710038,https://lakewayurgentcaretn.com/,Lenoir City,TN
MedHelp,feedback@medhelpclinics.com,+12056202270,https://medhelpclinics.com/,Birmingham,AL
MedHelp,research@medhelpclinics.com,+12056202270,https://medhelpclinics.com/,Birmingham,AL
MedHelp,billing@medhelpclinics.com,+12056202270,https://medhelpclinics.com/,Birmingham,AL
MedHelp,jobs@medhelpclinics.com,+12056202270,https://medhelpclinics.com/,Birmingham,AL
"Baptist Health Urgent Care - Russellville, Main St.",athomas@urgentteam.com,+18006787070,https://www.urgentteam.com/brand/baptist-health-urgent-care/,Russellville,AR
209 Urgent Care,help@209urgentcare.com,+12098469429,https://209urgentcare.com/,Modesto,CA
Wisconsin Urgent Care,contact@wiurgentcare.com,+14144315004,https://www.wiurgentcare.com/,Milwaukee,WI
HealthStop,health@healthstop.comcastbiz.net,+16038889200,http://healthstopnashua.com/,Nashua,NH
DOCS Urgent Care & Primary Care - Stratford,contact@docsmedicalgroup.com,+12038743682,https://docsmedicalgroup.com/,Stratford,CT
DOCS Urgent Care & Primary Care - Stratford,careers@docsmedicalgroup.com,+12038743682,https://docsmedicalgroup.com/,Stratford,CT
DOCS Urgent Care & Primary Care - Stratford,billing@docsmedicalgroup.com,+12038743682,https://docsmedicalgroup.com/,Stratford,CT
DOCS Urgent Care & Primary Care - Stratford,hr@docsmedicalgroup.com,+12038743682,https://docsmedicalgroup.com/,Stratford,CT
DOCS Urgent Care & Primary Care - Stratford,contact@docsofct.com,+12038743682,https://docsmedicalgroup.com/,Stratford,CT
"Today Clinic Primary & Urgent Care, Lewisville",info@todayclinic.com,+14056310611,https://todayclinic.com/,Lewisville,TX
Sterling Medical Center & Urgent Care,info@drsaad.com,+19403942948,https://saadmd.com/,Sterling Heights,MI
Sterling Medical Center & Urgent Care,contact@grayic.com,+19403942948,https://saadmd.com/,Sterling Heights,MI
Sterling Medical Center & Urgent Care,support@grayic.com,+19403942948,https://saadmd.com/,Sterling Heights,MI
Hometown Urgent Care of Dyersburg PLLC,kdavis@hucdyersburg.com,+17313255678,https://www.hometownucdyersburg.com/,Dyersburg,TN
Baptist Urgent Care - Batesville,athomas@urgentteam.com,+18006787070,https://www.urgentteam.com/brand/baptist-urgent-care/,Batesville,MS
Baptist Urgent Care - Tupelo,athomas@urgentteam.com,+18006787070,https://www.urgentteam.com/brand/baptist-urgent-care/,Saltillo,MS
DOCS Urgent Care & Primary Care - North Haven,contact@docsmedicalgroup.com,+12038743682,https://docsmedicalgroup.com/,North Haven,CT
DOCS Urgent Care & Primary Care - North Haven,careers@docsmedicalgroup.com,+12038743682,https://docsmedicalgroup.com/,North Haven,CT
DOCS Urgent Care & Primary Care - North Haven,billing@docsmedicalgroup.com,+12038743682,https://docsmedicalgroup.com/,North Haven,CT
DOCS Urgent Care & Primary Care - North Haven,hr@docsmedicalgroup.com,+12038743682,https://docsmedicalgroup.com/,North Haven,CT
DOCS Urgent Care & Primary Care - North Haven,contact@docsofct.com,+12038743682,https://docsmedicalgroup.com/,North Haven,CT
Baptist Urgent Care - Bartlett,athomas@urgentteam.com,+18006787070,https://www.urgentteam.com/brand/baptist-urgent-care/,Bartlett,TN
DOCS Urgent Care & Primary Care - Waterbury,contact@docsmedicalgroup.com,+12038743682,https://docsmedicalgroup.com/,Waterbury,CT
DOCS Urgent Care & Primary Care - Waterbury,careers@docsmedicalgroup.com,+12038743682,https://docsmedicalgroup.com/,Waterbury,CT
DOCS Urgent Care & Primary Care - Waterbury,billing@docsmedicalgroup.com,+12038743682,https://docsmedicalgroup.com/,Waterbury,CT
DOCS Urgent Care & Primary Care - Waterbury,hr@docsmedicalgroup.com,+12038743682,https://docsmedicalgroup.com/,Waterbury,CT
DOCS Urgent Care & Primary Care - Waterbury,contact@docsofct.com,+12038743682,https://docsmedicalgroup.com/,Waterbury,CT
Express Care Urgent Care,expresscare@expresscareurgentcare.com,+12032881700,https://expresscareurgentcare.com/,Hamden,CT
Heartland Urgent Care,info@heartlandurgentcare.com,+14024773505,https://www.heartlandurgentcare.com/,Lincoln,NE
DOCS Urgent Care & Primary Care - Monroe,contact@docsmedicalgroup.com,+12038743682,https://docsmedicalgroup.com/,Monroe,CT
DOCS Urgent Care & Primary Care - Monroe,careers@docsmedicalgroup.com,+12038743682,https://docsmedicalgroup.com/,Monroe,CT
DOCS Urgent Care & Primary Care - Monroe,billing@docsmedicalgroup.com,+12038743682,https://docsmedicalgroup.com/,Monroe,CT
DOCS Urgent Care & Primary Care - Monroe,hr@docsmedicalgroup.com,+12038743682,https://docsmedicalgroup.com/,Monroe,CT
DOCS Urgent Care & Primary Care - Monroe,contact@docsofct.com,+12038743682,https://docsmedicalgroup.com/,Monroe,CT
"Ascension Saint Thomas Clarksville, Dover Crossing",athomas@urgentteam.com,+18006787070,http://asturgentcare.com/,Clarksville,TN
"Ascension Saint Thomas Clarksville, Dover Crossing",lesley@jamiedunham.com,+18006787070,http://asturgentcare.com/,Clarksville,TN
Greater Mobile Urgent Care – Saraland,info@gmucare.com,+12516330123,http://gmucare.com/,Saraland,AL
Baptist Urgent Care - Starkville,athomas@urgentteam.com,+18006787070,https://www.urgentteam.com/brand/baptist-urgent-care/,Starkville,MS
DOCS Urgent Care,contact@docsmedicalgroup.com,+12038743682,https://docsmedicalgroup.com/,Norwalk,CT
DOCS Urgent Care,careers@docsmedicalgroup.com,+12038743682,https://docsmedicalgroup.com/,Norwalk,CT
DOCS Urgent Care,billing@docsmedicalgroup.com,+12038743682,https://docsmedicalgroup.com/,Norwalk,CT
DOCS Urgent Care,hr@docsmedicalgroup.com,+12038743682,https://docsmedicalgroup.com/,Norwalk,CT
DOCS Urgent Care,contact@docsofct.com,+12038743682,https://docsmedicalgroup.com/,Norwalk,CT
DOCS Urgent Care & Primary Care - Southington,contact@docsmedicalgroup.com,+12038743682,https://docsmedicalgroup.com/,Southington,CT
DOCS Urgent Care & Primary Care - Southington,careers@docsmedicalgroup.com,+12038743682,https://docsmedicalgroup.com/,Southington,CT
DOCS Urgent Care & Primary Care - Southington,billing@docsmedicalgroup.com,+12038743682,https://docsmedicalgroup.com/,Southington,CT
DOCS Urgent Care & Primary Care - Southington,hr@docsmedicalgroup.com,+12038743682,https://docsmedicalgroup.com/,Southington,CT
DOCS Urgent Care & Primary Care - Southington,contact@docsofct.com,+12038743682,https://docsmedicalgroup.com/,Southington,CT
"Today Clinic Primary & Urgent Care, Central OKC",info@todayclinic.com,+14056310611,https://todayclinic.com/,Oklahoma City,OK
Redi-Med Walk-In Medical Clinic,redimednaples@gmail.com,+12395661226,https://www.redimednaples.com/,Naples,FL
Express Care of Tampa Bay,urgentcaretampa@gmail.com,+18136410068,https://www.expresscareoftampabay.com/,Seffner,FL
DOCS Urgent Care & Primary Care - Bridgeport,contact@docsmedicalgroup.com,+12038743682,https://docsmedicalgroup.com/,Bridgeport,CT
DOCS Urgent Care & Primary Care - Bridgeport,careers@docsmedicalgroup.com,+12038743682,https://docsmedicalgroup.com/,Bridgeport,CT
DOCS Urgent Care & Primary Care - Bridgeport,billing@docsmedicalgroup.com,+12038743682,https://docsmedicalgroup.com/,Bridgeport,CT
DOCS Urgent Care & Primary Care - Bridgeport,hr@docsmedicalgroup.com,+12038743682,https://docsmedicalgroup.com/,Bridgeport,CT
DOCS Urgent Care & Primary Care - Bridgeport,contact@docsofct.com,+12038743682,https://docsmedicalgroup.com/,Bridgeport,CT
Avecina Medical - Southside Blvd,info@avecinamedical.com,+18005551234,https://avecina.com/,Jacksonville,FL
Baptist Urgent Care - Germantown,athomas@urgentteam.com,+18006787070,https://www.urgentteam.com/brand/baptist-urgent-care/,Germantown,TN
"Baptist Health Urgent Care - Hot Springs, Central Ave.",athomas@urgentteam.com,+18006787070,https://www.urgentteam.com/brand/baptist-health-urgent-care/,Hot Springs,AR
Huntsville Hospital Urgent Care - Athens,athomas@urgentteam.com,+16159882000,https://www.urgentteam.com/brand/huntsville-hospital-urgent-care/,Athens,AL
Avecina Medical - 210,info@avecinamedical.com,+18005551234,https://avecina.com/,St Johns,FL
OceanFront Urgent Care & Family Medicine,oceanfrontuc@yahoo.com,+13105442121,https://palosverdesurgentcare.com/,Rancho Palos Verdes,CA
Urgent Care of Texas & Expecare Family Care @ Plano,burleson@wiuctx.us,+18174727601,https://urgentcaretexas.com/,Plano,TX
Urgent Care of Texas & Expecare Family Care @ Plano,frisco@wiuctx.us,+18174727601,https://urgentcaretexas.com/,Plano,TX
Urgent Care of Texas & Expecare Family Care @ Plano,Plano@wiuctx.us,+18174727601,https://urgentcaretexas.com/,Plano,TX
Urgent Care of Texas & Expecare Family Care @ Plano,arlington@wiuctx.us,+18174727601,https://urgentcaretexas.com/,Plano,TX
Total Family Urgent Care,totalfamilycarestaff@gmail.com,+19545817700,https://www.totalfamilyurgentcare.org/,Lauderhill,FL
Instant Medical Care - Urgent Care Walk In Clinic,jobs@urgentcareflauderdale.com,+19544141140,https://www.urgentcareflauderdale.com/,Fort Lauderdale,FL
Instant Medical Care - Urgent Care Walk In Clinic,info@urgentcareflauderdale.com,+19544141140,https://www.urgentcareflauderdale.com/,Fort Lauderdale,FL
Baptist Urgent Care - Collierville,athomas@urgentteam.com,+18006787070,https://www.urgentteam.com/brand/baptist-urgent-care/,Collierville,TN
Collier Urgent Care - Park Shore,manager@collierurgentcare.com,+12395933232,https://www.collierurgentcare.com/,Naples,FL
Baptist Health Urgent Care - Cabot (West),athomas@urgentteam.com,+18006787070,https://www.urgentteam.com/brand/baptist-health-urgent-care/,Cabot,AR
Emergency Care Clinic,info@agurgentcare.com,+17186823903,https://agurgentcare.com/,Brooklyn,NY
Alliance Urgent Care,info@allianceurgentcare.com,+18558874368,https://allianceurgentcare.com/,Goodyear,AZ
Urgent Team Walk-In Urgent Care - Jackson,athomas@urgentteam.com,+18006787070,https://www.urgentteam.com/brand/baptist-urgent-care/,Jackson,TN
EmergencyMD,info@emergencymdsc.com,+18643055000,http://urgentcareboilingspringssc.com/,Boiling Springs,SC
DOCS Urgent Care & Primary Care - Waterbury,contact@docsmedicalgroup.com,+12038743682,https://docsmedicalgroup.com/,Waterbury,CT
DOCS Urgent Care & Primary Care - Waterbury,careers@docsmedicalgroup.com,+12038743682,https://docsmedicalgroup.com/,Waterbury,CT
DOCS Urgent Care & Primary Care - Waterbury,billing@docsmedicalgroup.com,+12038743682,https://docsmedicalgroup.com/,Waterbury,CT
DOCS Urgent Care & Primary Care - Waterbury,hr@docsmedicalgroup.com,+12038743682,https://docsmedicalgroup.com/,Waterbury,CT
DOCS Urgent Care & Primary Care - Waterbury,contact@docsofct.com,+12038743682,https://docsmedicalgroup.com/,Waterbury,CT
Suncoast Urgent Care,info@suncoastucc.com,+17273723888,https://www.suncoastucc.com/,Spring Hill,FL
Ascension Saint Thomas Urgent Care - Murfreesboro (Church St.),athomas@urgentteam.com,+18006787070,http://asturgentcare.com/,Murfreesboro,TN
Ascension Saint Thomas Urgent Care - Murfreesboro (Church St.),lesley@jamiedunham.com,+18006787070,http://asturgentcare.com/,Murfreesboro,TN
Baptist Urgent Care - Wynne,athomas@urgentteam.com,+18006787070,https://www.urgentteam.com/brand/baptist-urgent-care/,Wynne,AR
Walk In Clinic,info@agurgentcare.com,+17186823903,https://agurgentcare.com/,Brooklyn,NY
"Mercy Health Urgent Care, West Toledo",info@gtucares.com,+14195170146,https://www.gmucares.com/,Toledo,OH
Baptist Health Urgent Care - Conway (Central),athomas@urgentteam.com,+18006787070,https://www.urgentteam.com/brand/baptist-health-urgent-care/,Conway,AR
Kids 1st Urgent Care LLC,info@kids1sturgentcare.com,+13054196505,https://www.kids1sturgentcare.com/,Miami,FL
After Hour Pediatrics Urgent Care Clinic,reception@afterhourpeds.net,+16505796581,https://afterhourpeds.net/,San Mateo,CA
Western New York Immediate Care - Amherst,James_Giallella@teamhealth.com,+17168175362,https://www.wnyimmediatecare.com/,Amherst,NY
Western New York Immediate Care - Amherst,Rachel_Libra@teamhealth.com,+17168175362,https://www.wnyimmediatecare.com/,Amherst,NY
Western New York Immediate Care - Amherst,Shyamal_Majithia@teamhealth.com,+17168175362,https://www.wnyimmediatecare.com/,Amherst,NY
Western New York Immediate Care - Amherst,scheduling@wnyimmediatecare.com,+17168175362,https://www.wnyimmediatecare.com/,Amherst,NY
Western New York Immediate Care - Amherst,Jamie_Tolsma@teamhealth.com,+17168175362,https://www.wnyimmediatecare.com/,Amherst,NY
Western New York Immediate Care - Amherst,Joe_Chow@teamhealth.com,+17168175362,https://www.wnyimmediatecare.com/,Amherst,NY
Western New York Immediate Care - Depew,James_Giallella@teamhealth.com,+17168175362,https://www.wnyimmediatecare.com/,Depew,NY
Western New York Immediate Care - Depew,Rachel_Libra@teamhealth.com,+17168175362,https://www.wnyimmediatecare.com/,Depew,NY
Western New York Immediate Care - Depew,Shyamal_Majithia@teamhealth.com,+17168175362,https://www.wnyimmediatecare.com/,Depew,NY
Western New York Immediate Care - Depew,scheduling@wnyimmediatecare.com,+17168175362,https://www.wnyimmediatecare.com/,Depew,NY
Western New York Immediate Care - Depew,Jamie_Tolsma@teamhealth.com,+17168175362,https://www.wnyimmediatecare.com/,Depew,NY
Western New York Immediate Care - Depew,Joe_Chow@teamhealth.com,+17168175362,https://www.wnyimmediatecare.com/,Depew,NY
Brunswick Urgent Care PA,brunswickurgentcare@yahoo.com,+17329556765,https://www.brunswickurgentcare.org/,East Brunswick,NJ
UrgentMed | Urgent Care Plantation FL,info@urgentmed.us,+19544239234,https://www.urgentmed.us/,Plantation,FL
Alliance Urgent Care,info@allianceurgentcare.com,+18558874368,https://allianceurgentcare.com/,Phoenix,AZ
Scotch Plains Medical Center/Urgent Care,spmc1814@gmail.com,+19083228665,https://www.scotchplainsclinic.com/,Scotch Plains,NJ
"MyDoc Urgent Care - Norwood, Bronx",mydoc@mydocurgentcare.com,+15162140760,https://mydocurgentcare.com/,Bronx,NY
Exceptional Urgent Care Center and Telemedicine,exceptionalurgentcare@gmail.com,+13525058873,https://www.exceptionalurgentcare.com/,Lady Lake,FL
"MyDoc Urgent Care - Coney Island, Brooklyn",mydoc@mydocurgentcare.com,+15162140760,https://mydocurgentcare.com/,Brooklyn,NY
Here to Help Urgent Care,frontdesk@heretohelproswell.com,+16783369240,https://heretohelproswell.com/,Roswell,GA
MyDoc Urgent Care - Douglaston–Little Neck,mydoc@mydocurgentcare.com,+15162140760,https://mydocurgentcare.com/,Douglaston,NY
360 Immediate Care,info@360immediatecare.com,+18477494408,https://360immediatecare.com/,North Aurora,IL
"Pearland Healthcare Center (Heights Family Practice, PLLC)",heightsfamilypractice@gmail.com,+17134364333,https://pearlandhealthcare.org/,Pearland,TX
Elmira Urgent Care - Walk-In & Virtual Health,elmiraurgentcare@gmail.com,+16077676054,https://elmiraurgentcare.com/,Elmira,NY
Lake Forest Acute Care,info@lfacutecare.com,+18472347940,https://lfacutecare.com/,Lake Forest,IL
Urgent-MD,info@urgent-md.com,+15168066253,https://www.urgent-md.com/,Hewlett,NY
AG Urgent Care Brownsville,info@agurgentcare.com,+17186823903,https://agurgentcare.com/,Brooklyn,NY
UrgentMed | Urgent Care Davie FL,info@urgentmed.us,+19544239234,https://www.urgentmed.us/,Davie,FL
"Acorn Care - Primary & Urgent Care in Chesapeake, VA",info@acorncare.com,+17579932273,https://acorncare.com/,Chesapeake,VA
Lakeside Walk-In Clinic,lakesidewalkinclinic@lakesidewalkinclinic.com,+15014636909,https://www.lakesidewalkinclinic.com/,Hot Springs,AR
Flex Health,contact@flexmyhealth.com,+17629303539,https://www.flexmyhealth.com/,Evans,GA
Stat-Care,contact@stat-care.com,+18124015040,https://stat-care.com/,Evansville,IN
UMD Urgent Care - ASTORIA,astoria@umdcare.com,+17187210101,https://umdcare.com/,Astoria,NY
UMD Urgent Care - ASTORIA,brooklyn@umdcare.com,+17187210101,https://umdcare.com/,Astoria,NY
UMD Urgent Care - ASTORIA,lic@umdcare.com,+17187210101,https://umdcare.com/,Astoria,NY
UMD Urgent Care - ASTORIA,northern@umdcare.com,+17187210101,https://umdcare.com/,Astoria,NY
ER Near Me | Frontline Emergency Room,info@frontlineerdallas.com,+12144999555,https://frontlineerdallas.com/,Dallas,TX
Access 365 Urgent Care,billing@access365urgentcare.com,+17722225302,https://access365urgentcare.com/,Port St. Lucie,FL
Access 365 Urgent Care,office@access365urgentcare.com,+17722225302,https://access365urgentcare.com/,Port St. Lucie,FL
Memorial Village Emergency Room,info@memorialvillageer.com,+12814966837,https://memorialvillageer.com/,Houston,TX
Brunswick Urgent Care,brunswickurgentcare@yahoo.com,+17329556765,https://www.brunswickurgentcare.org/,Franklin Park,NJ
Deer Park Urgent Care,infoUC@dpfcc.com,+15092629000,https://www.dpurgentcare.com/,Deer Park,WA
Bay Area Emergency Physicians,htodsen@baeper.com,+17272986612,http://baepgroup.com/,Clearwater,FL
CareFirst Urgent Care - Bowling Green South,info@rapidreliefuc.com,+12707466330,https://rapidreliefuc.com/,Bowling Green,KY
Swift Star ER: River Oaks Emergency Room,wecare@swiftstar.com,+13465537215,https://www.swiftstar.com/,Houston,TX
Memorial Heights Emergency Center,info@mhehc.com,+12819035813,https://mhehc.com/,Houston,TX
Physicians Premier Emergency Room - Everhart,medicalrecords@mdpremier.com,+13619800911,https://mdpremier.com/,Corpus Christi,TX
Palm Beach Orthopaedic Institute Orthopaedic Urgent Care,pboiinfo@pboi.com,+15616947776,https://www.pboi.com/,West Palm Beach,FL
Altus Lumberton Hospital,Altuser_Legacybilling@legacyhealthllc.com,+14097552273,https://www.altusemergency.com/,Lumberton,TX
Prestige Urgent Care,info@prestigeurgentcarefl.com,+14078108777,http://prestigeurgentcarefl.com/,Orlando,FL
BAEP Holdings LLC,htodsen@baeper.com,+17272986612,http://baepgroup.com/,Clearwater,FL
Urgent Care Down East,ucde@ucdowneast.com,+12526232000,http://urgentcaredowneast.com/,Washington,NC
Access 365 Urgent Care,billing@access365urgentcare.com,+17722225302,https://access365urgentcare.com/,Palm City,FL
Access 365 Urgent Care,office@access365urgentcare.com,+17722225302,https://access365urgentcare.com/,Palm City,FL
Rapid Med Urgent Care,ar_reception@rapidmed.com,+19726914937,http://rapidmed.com/,Highland Village,TX
Rapid Med Urgent Care,reception@rapidmed.com,+19726914937,http://rapidmed.com/,Highland Village,TX
AVAYA MED - Direct Primary Care,info@avayamed.com,+13129005885,https://avayamed.com/,Chicago,IL
Southwest Urgent Care - Telfair - Sugar Land,swurgentcare@outlook.com,+13463417573,https://swurgentcare.com/,Sugar Land,TX
Kāmin Health - Crown Heights Urgent Care,monteek@kaminhealth.com,+16467181534,https://kaminhealth.com/,Brooklyn,NY
Kāmin Health - Crown Heights Urgent Care,yitzk@kaminhealth.com,+16467181534,https://kaminhealth.com/,Brooklyn,NY
Kāmin Health - Crown Heights Urgent Care,yosef@kaminhealth.com,+16467181534,https://kaminhealth.com/,Brooklyn,NY
LI Urgent Care,info@liurgentcare.com,+16317165410,https://li-urgent-care.com/,West Babylon,NY
"UCare Urgent Care in El Paso, TX",info@ucareurgentcare.com,+19154018019,https://www.ucareclinics.com/,El Paso,TX
UCare Urgent Care Clinics Lee Trevino Dr - El Paso TX,info@ucareurgentcare.com,+19152211270,https://www.ucareclinics.com/,El Paso,TX
"UCare Urgent Care Clinics Horizon City, TX",info@ucareurgentcare.com,+19152316449,https://www.ucareclinics.com/,Horizon City,TX
Doctors MedCare of Albertville PC,DMCFtPayne05@gmail.com,+12568911460,https://doctors-medcare.com/,Albertville,AL
Doctors MedCare of Albertville PC,DMCGadsden@gmail.com,+12568911460,https://doctors-medcare.com/,Albertville,AL
Doctors MedCare of Albertville PC,DrMedCare@gmail.com,+12568911460,https://doctors-medcare.com/,Albertville,AL
Doctors MedCare of Albertville PC,jacksonvilledmc@gmail.com,+12568911460,https://doctors-medcare.com/,Albertville,AL
Doctors MedCare of Albertville PC,DMCEGadsden@gmail.com,+12568911460,https://doctors-medcare.com/,Albertville,AL
Lakeside North Family Practice,peggy@lakesidenorth.org,+12565718460,https://lakesidenorth.org/,Guntersville,AL
Lanier Family Healthcare LLC,info@lfhllc.com,+17702055518,https://www.lanierfamilyhealthcare.com/,Cumming,GA
"MedPlus Urgent Care: Graydon Skeoch, MD",rmason@fallbrookhealth.org,+17607319187,https://www.fallbrookhealth.org/,Fallbrook,CA
"MedPlus Urgent Care: Graydon Skeoch, MD",bmroz@fallbrookhealth.org,+17607319187,https://www.fallbrookhealth.org/,Fallbrook,CA
"MedPlus Urgent Care: Graydon Skeoch, MD",bleach@fallbrookhealth.org,+17607319187,https://www.fallbrookhealth.org/,Fallbrook,CA
"MedPlus Urgent Care: Graydon Skeoch, MD",jjeffries@fallbrookhealth.org,+17607319187,https://www.fallbrookhealth.org/,Fallbrook,CA
"MedPlus Urgent Care: Graydon Skeoch, MD",tgeracitano@fallbrookhealth.org,+17607319187,https://www.fallbrookhealth.org/,Fallbrook,CA
Dr Mangala Pawar MD,admin@chantillypediatrics.com,+17039566757,https://chantillypediatrics.com/,Chantilly,VA
1st Choice Urgent Care of Dearborn WEST,info@firstchoiceucc.com,+17343338001,https://firstchoiceucc.com/,Dearborn,MI
Balanced Physician Care,membership@balancedphysiciancare.com,+19049304774,https://balancedphysiciancare.com/,Jacksonville Beach,FL
White Glove Medicine,info@whiteglovemedicine.com,+16313585058,https://whiteglovemedicine.com/,Manhasset,NY
White Glove Medicine,tchowdhury@whiteglovemedicine.com,+16313585058,https://whiteglovemedicine.com/,Manhasset,NY
Concierge Medicine House Calls - Dr. Neil,care@pagingdrneil.com,+12015034144,https://www.pagingdrneil.com/,Westfield,NJ
Emergency Medical Doctors Services,contact@emds.clinic,+17139100000,https://emds.clinic/,South Houston,TX
North Ave Urgent Care - Polaris Medical Group,care@polarismm.com,+16309483989,https://polarishc.com/,Addison,IL
White Glove Medicine,info@whiteglovemedicine.com,+16313585058,https://whiteglovemedicine.com/,Southampton,NY
White Glove Medicine,tchowdhury@whiteglovemedicine.com,+16313585058,https://whiteglovemedicine.com/,Southampton,NY
Samaritana Medical Clinic - Duarte,samaritanamedicalclinics@gmail.com,+12137410285,https://samaritanaclinics.com/,Duarte,CA
West Ocean City Injury & Illness Center,frontdesk@westocinjurycenter.com,+14102130119,https://www.urgentcareoceancity.com/,Ocean City,MD
FreeState Healthcare,info@freestatehealthcare.com,+13166703800,https://freestatehealthcare.com/,Wichita,KS
Gaslamp Medical Center,clinic@gaslampmedicalcenter.com,+16192399675,https://www.gaslampmedicalcenter.com/,San Diego,CA
America First Urgent Care,info@americafirsturgentprimarycare.com,+14694982000,https://americafirsturgentprimarycare.com/,Coppell,TX
Gemini Urgent Care - Clear Lake,info@geminiurgentcare.com,+12814611111,https://www.geminiurgentcare.com/,Houston,TX
Centro Medico ProMed,info@centromedicopromed.com,+17707989799,https://centromedicopromed.com/,Lawrenceville,GA
Collier Urgent Care - Creekside Corners,manager@collierurgentcare.com,+12395933232,https://www.collierurgentcare.com/,Naples,FL
Rapid Care,info@rapidcareny.com,+18455252000,https://rapidcareny.com/,Monroe,NY
Mills Urgent Care,millsurgentcare@gmail.com,+13343296268,https://millsurgentcare.com/,Auburn,AL
Village Health Family and Urgent Care,drohalloran@myvillagehealth.com,+15867527256,https://myvillagehealth.com/,Washington,MI
First Care Bossier,cnesmith@bossierfamilymed.com,+13187478105,https://firstcarebossier.com/,Bossier City,LA
First Care Bossier,cnesmith@bossierfamilymed.com,+13187478105,https://firstcarebossier.com/,Bossier City,LA
1st Choice Urgent Care of Garden City,info@firstchoiceucc.com,+17343338001,https://firstchoiceucc.com/,Garden City,MI
Columbus Urgent Care LLC,info@columbusurgentcare.org,+14025625400,https://www.columbusurgentcare.org/,Columbus,NE
Family Immediate Care,info@familyimmediatecare.com,+15713531899,https://familyimmediatecare.com/index.html,Herndon,VA
StatCare Urgent Care,mystatcare@mystatcare.com,+13615160800,http://mystatcare.com/,Corpus Christi,TX
StatCare Urgent Care,mystatcare@mystatcare.com,+13615160800,http://mystatcare.com/,Rockport,TX
StatCare Urgent Care,mystatcare@mystatcare.com,+13615160800,http://mystatcare.com/,Kingsville,TX
Horizon Healthcare,info@horizonhealthcaremn.org,+16123155255,https://horizonhealthcaremn.com/,Minneapolis,MN
StatCare Urgent Care,mystatcare@mystatcare.com,+13615160800,http://mystatcare.com/,Corpus Christi,TX
Integrated Healthcare Systems,info@integratedhcs.org,+15618999140,https://integratedhcs.org/,Riviera Beach,FL
Apollo Walk-In Clinic Urgent Care,apollowalkin@gmail.com,+13029187680,https://www.apollowalkin.com/,Bear,DE
StatCare Urgent Care,mystatcare@mystatcare.com,+13615160800,http://mystatcare.com/,Corpus Christi,TX
"Mini-Med Clinic of North Georgia, LLC",info@minimedclinicng.com,+16783989697,https://minimedclinicng.com/,Canton,GA
Affordable Family Medical,AffordMedOKC@gmail.com,+14052373383,https://affordmedokc.com/,Oklahoma City,OK
NovaHealth Urgent Care of Southfield,contact@novahealthuc.com,+12484505000,https://novahealthuc.com/,Southfield,MI
Doctors Medi Center,info@doctorsmedicenter.com,+17329692240,https://doctorsmedicenter.com/,Carteret,NJ
Gateway Express Clinic,info@gatewayexpressclinic.com,+12246789518,https://gatewayexpressclinic.com/,Lake in the Hills,IL
IMC Integral Medical Clinic,amarillointegralmedicalclinic@gmail.com,+18066412440,https://integralmedicalclinicamarillotx.com/,Amarillo,TX
Rapid Care Urgent Care Enterprises - Banning,info@rapidcareuc.com,+19514904910,https://www.rapidcareuc.com/,Banning,CA
Pelican Urgent Care - Picayune,info@pelicanurgentcare.com,+19856076400,https://pelicanurgentcare.com/,Picayune,MS
OC Urgent Care Foothill Ranch,foothill@ocurgentcare.com,+19492973888,https://ocurgentcare.com/,Foothill Ranch,CA
OC Urgent Care Foothill Ranch,hbbeach@ocurgentcare.com,+19492973888,https://ocurgentcare.com/,Foothill Ranch,CA
OC Urgent Care Foothill Ranch,anaheim@ocurgentcare.com,+19492973888,https://ocurgentcare.com/,Foothill Ranch,CA
OC Urgent Care Foothill Ranch,tustin@ocurgentcare.com,+19492973888,https://ocurgentcare.com/,Foothill Ranch,CA
OC Urgent Care Foothill Ranch,orangekatella@ocurgentcare.com,+19492973888,https://ocurgentcare.com/,Foothill Ranch,CA
OC Urgent Care Foothill Ranch,santaana@ocurgentcare.com,+19492973888,https://ocurgentcare.com/,Foothill Ranch,CA
OC Urgent Care Foothill Ranch,anaheim2@ocurgentcare.com,+19492973888,https://ocurgentcare.com/,Foothill Ranch,CA
OC Urgent Care Foothill Ranch,hbsouth@ocurgentcare.com,+19492973888,https://ocurgentcare.com/,Foothill Ranch,CA
OC Urgent Care Foothill Ranch,missionviejo@ocurgentcare.com,+19492973888,https://ocurgentcare.com/,Foothill Ranch,CA
OC Urgent Care Foothill Ranch,orange@ocurgentcare.com,+19492973888,https://ocurgentcare.com/,Foothill Ranch,CA
OC Urgent Care Foothill Ranch,lakeforest@ocurgentcare.com,+19492973888,https://ocurgentcare.com/,Foothill Ranch,CA
Chestatee Emergent Medical Care,info@chestateeemergentcare.com,+17062656866,https://chestateeemergentcare.com/,Dawsonville,GA
Hazel Park Urgent Care,hpuc@myupdox.com,+12488461802,https://www.hazelparkurgentcare.com/,Hazel Park,MI
Lapeer Community Urgent Care,lcucmanagement@gmail.com,+18109694546,https://lapeerurgent.care/,Lapeer,MI
MENZ Clinic,info@drjantiagingclinic.com,+14076066450,https://menzclinic.com/,Orlando,FL
Richmond Urgent Care,admin@richmonduc.com,+18046155060,https://richmonduc.com/,Richmond,VA
Urgent Care of Oconee Watkinsville,madison@urgentcareofoconee.com,+17064785020,https://urgentcareofoconee.com/,Watkinsville,GA
Urgent Care of Oconee Watkinsville,frontdesk@urgentcareofoconee.com,+17064785020,https://urgentcareofoconee.com/,Watkinsville,GA
Urgent Care of Oconee Watkinsville,athens@urgentcareofoconee.com,+17064785020,https://urgentcareofoconee.com/,Watkinsville,GA
Metro Urgent Care Preston,preston@metrourgentcarecenter.com,+15029199009,https://metrourgentcarecenter.com/,Louisville,KY
Metro Urgent Care Preston,prestonurgentcarecenter@gmail.com,+15029199009,https://metrourgentcarecenter.com/,Louisville,KY
Urgent Care of Oconee - Athens,madison@urgentcareofoconee.com,+17064785020,https://urgentcareofoconee.com/,Athens,GA
Urgent Care of Oconee - Athens,frontdesk@urgentcareofoconee.com,+17064785020,https://urgentcareofoconee.com/,Athens,GA
Urgent Care of Oconee - Athens,athens@urgentcareofoconee.com,+17064785020,https://urgentcareofoconee.com/,Athens,GA
DOCS Urgent Care & Primary Care - East Haven,contact@docsmedicalgroup.com,+12038743682,https://docsmedicalgroup.com/,East Haven,CT
DOCS Urgent Care & Primary Care - East Haven,careers@docsmedicalgroup.com,+12038743682,https://docsmedicalgroup.com/,East Haven,CT
DOCS Urgent Care & Primary Care - East Haven,billing@docsmedicalgroup.com,+12038743682,https://docsmedicalgroup.com/,East Haven,CT
DOCS Urgent Care & Primary Care - East Haven,hr@docsmedicalgroup.com,+12038743682,https://docsmedicalgroup.com/,East Haven,CT
DOCS Urgent Care & Primary Care - East Haven,contact@docsofct.com,+12038743682,https://docsmedicalgroup.com/,East Haven,CT
Professional Urgent Care Services,info@professionalurgentcare.com,+18135684388,https://www.professionalurgentcare.com/,St. Petersburg,FL
Emergency One,jdevitt@eoneurgentcare.com,+18453305600,https://eonekingston.com/,New Windsor,NY
Dr. Kevin Maloney MD Mamaroneck,DoctorKevinMaloney@gmail.com,+19143812091,https://drkevinmaloney.wordpress.com/,Mamaroneck,NY
Fast Track Urgent Care (Florissant - North Saint Louis County),care@fasttrackuc.com,+13144369300,https://www.fasttrackuc.com/,Florissant,MO
MedXcel,youngsville@medxcelgroup.com,+13378567500,http://medxcelclinic.com/,Youngsville,LA
Urgent Care of Oconee - Madison,madison@urgentcareofoconee.com,+17064785020,https://urgentcareofoconee.com/,Madison,GA
Urgent Care of Oconee - Madison,frontdesk@urgentcareofoconee.com,+17064785020,https://urgentcareofoconee.com/,Madison,GA
Urgent Care of Oconee - Madison,athens@urgentcareofoconee.com,+17064785020,https://urgentcareofoconee.com/,Madison,GA
Los Gatos Urgent Care,losgatosurgentcare@gmail.com,+14083849719,https://urgentcarelosgatos.com/,Los Gatos,CA
Urgent Care & Family Practice Center,urgentcare405@gmail.com,+13865068555,http://urgentcareandfamilypracticecenter.com/,Daytona Beach,FL
Champlain Medical Urgent Care,info@champlainmedical.com,+18024489370,https://champlainmedical.com/,South Burlington,VT
Advance Urgent Care & Walk-In Clinic,auc@advanceurgentcare.com,+18102250086,https://www.advanceurgentcare.com/,Hartland,MI
Physicians of Internal Medicine and Pediatrics,care@trustedpcp.com,+16305239161,https://www.trustedpcp.com/,Elmhurst,IL
Midlands Family Urgent Care,billing@nebraskauc.com,+15312148188,https://midlandsurgentcare.com/,Omaha,NE
Yale New Haven Health Urgent Care Waterbury,info@ynhhs.org,+17812345678,http://ynhhs.org/,Waterbury,CT
Yale New Haven Health Urgent Care Orange,info@ynhhs.org,+17812345678,http://ynhhs.org/,Orange,CT
Midlands Family Urgent Care,billing@nebraskauc.com,+15312148188,https://midlandsurgentcare.com/,Papillion,NE
Yale New Haven Health Urgent Care Southbury,info@ynhhs.org,+17812345678,http://ynhhs.org/,Southbury,CT
Urgent Care Midwood - Urban Wellness Physicians,info@uwphysicians.com,+16468222509,https://uwphysicians.com/,Brooklyn,NY
Yale New Haven Health Urgent Care Norwich,info@ynhhs.org,+17812345678,http://ynhhs.org/,Norwich,CT
Midlands Family Urgent Care,billing@nebraskauc.com,+15312148188,https://midlandsurgentcare.com/,La Vista,NE
Integrity Urgent Care - Belton,info@integrityurgentcare.com,+12546131323,https://integrityuc.com/,Belton,TX
Yale New Haven Health Urgent Care Groton,info@ynhhs.org,+17812345678,http://ynhhs.org/,Groton,CT
Yale New Haven Health Urgent Care West Hartford,info@ynhhs.org,+17812345678,http://ynhhs.org/,West Hartford,CT
PhysicianOne Urgent Care Mohegan Lake,info@ynhhs.org,+17812345678,http://ynhhs.org/,Mohegan Lake,NY
"Total Point Urgent Care - Wheatland, Dallas",info@totalpointurgentcare.com,+14698444120,https://www.totalpointcare.com/,Dallas,TX
Total Point Urgent Care and Family Practice - Athens,info@totalpointurgentcare.com,+19034760061,https://www.totalpointcare.com/,Athens,TX
Yale New Haven Health Urgent Care Stratford,info@ynhhs.org,+17812345678,http://ynhhs.org/,Stratford,CT
Yale New Haven Health Urgent Care Manchester,info@ynhhs.org,+17812345678,http://ynhhs.org/,Manchester,CT
Yale New Haven Health Urgent Care Hamden,info@ynhhs.org,+17812345678,http://ynhhs.org/,Hamden,CT
Yale New Haven Health Urgent Care Bristol,info@ynhhs.org,+17812345678,http://ynhhs.org/,Bristol,CT
Integrity Urgent Care - Benbrook,info@integrityurgentcare.com,+18174488114,https://integrityuc.com/,Benbrook,TX
PhysicianOne Urgent Care Enfield,info@ynhhs.org,+17812345678,http://ynhhs.org/,Enfield,CT
Yale New Haven Health Urgent Care Newtown,info@ynhhs.org,+17812345678,http://ynhhs.org/,Newtown,CT
Yale New Haven Health Urgent Care Ridgefield,info@ynhhs.org,+17812345678,http://ynhhs.org/,Ridgefield,CT
Yale New Haven Health Urgent Care Shelton,info@ynhhs.org,+17812345678,http://ynhhs.org/,Shelton,CT
Yale New Haven Health Urgent Care Somers,info@ynhhs.org,+17812345678,http://ynhhs.org/,Baldwin Place,NY
Yale New Haven Health Urgent Care Glastonbury,info@ynhhs.org,+17812345678,http://ynhhs.org/,Glastonbury,CT
North City Urgent Care,dan.bekele@gmail.com,+13142309050,http://stgabrielstl.com/,St. Louis,MO
Aayu Clinics,care@aayuclinics.com,+17733625633,https://aayuclinics.com/,Chicago,IL
Urgent Care Of Kansas,desotostaff@urgentcareofkansas.com,+19139384726,https://urgentcareofkansas.com/,Gardner,KS
Urgent Care Of Kansas,phillstaff@urgentcareofkansas.com,+19139384726,https://urgentcareofkansas.com/,Gardner,KS
Urgent Care Of Kansas,staff@primarycareofkansas.com,+19139384726,https://urgentcareofkansas.com/,Gardner,KS
Urgent Care Of Kansas,staff@urgentcareofkansas.com,+19139384726,https://urgentcareofkansas.com/,Gardner,KS
All Day Medical Care Clinic,billing@alldaymedicalcare.com,+13013300006,http://alldaymedicalcare.com/,Gaithersburg,MD
All Day Medical Care Clinic,customerservice@alldaymedicalcare.com,+13013300006,http://alldaymedicalcare.com/,Gaithersburg,MD
Axis HealthCare - Bartlesville,info@axis-healthcare-tulsa-hills.websitepro.hosting,+19185848522,https://axishealth.net/,Bartlesville,OK
Axis HealthCare - Bartlesville,info@axis-healthcare-tulsa-hills.websitepro.hosting,+19185848522,https://axishealth.net/,Bartlesville,OK
Axis HealthCare - Bartlesville,Sapulpa@axishealth.net,+19185848522,https://axishealth.net/,Bartlesville,OK
Axis HealthCare - Bartlesville,billing@axis-healthcare-tulsa-hills.websitepro.hosting,+19185848522,https://axishealth.net/,Bartlesville,OK
Axis HealthCare - Bartlesville,Pryor@axishealth.net,+19185848522,https://axishealth.net/,Bartlesville,OK
Axis HealthCare - Bartlesville,Bixby@axishealth.net,+19185848522,https://axishealth.net/,Bartlesville,OK
Axis HealthCare - Bartlesville,Inola@axishealth.net,+19185848522,https://axishealth.net/,Bartlesville,OK
Axis HealthCare - Bartlesville,Bartlesville@axishealth.net,+19185848522,https://axishealth.net/,Bartlesville,OK
"Axis HealthCare Primary Care, Psychiatry, and Walk-in Clinic - Sapulpa",info@axis-healthcare-tulsa-hills.websitepro.hosting,+19185848522,https://axishealth.net/,Sapulpa,OK
"Axis HealthCare Primary Care, Psychiatry, and Walk-in Clinic - Sapulpa",info@axis-healthcare-tulsa-hills.websitepro.hosting,+19185848522,https://axishealth.net/,Sapulpa,OK
"Axis HealthCare Primary Care, Psychiatry, and Walk-in Clinic - Sapulpa",Sapulpa@axishealth.net,+19185848522,https://axishealth.net/,Sapulpa,OK
"Axis HealthCare Primary Care, Psychiatry, and Walk-in Clinic - Sapulpa",billing@axis-healthcare-tulsa-hills.websitepro.hosting,+19185848522,https://axishealth.net/,Sapulpa,OK
"Axis HealthCare Primary Care, Psychiatry, and Walk-in Clinic - Sapulpa",Pryor@axishealth.net,+19185848522,https://axishealth.net/,Sapulpa,OK
"Axis HealthCare Primary Care, Psychiatry, and Walk-in Clinic - Sapulpa",Bixby@axishealth.net,+19185848522,https://axishealth.net/,Sapulpa,OK
"Axis HealthCare Primary Care, Psychiatry, and Walk-in Clinic - Sapulpa",Inola@axishealth.net,+19185848522,https://axishealth.net/,Sapulpa,OK
"Axis HealthCare Primary Care, Psychiatry, and Walk-in Clinic - Sapulpa",Bartlesville@axishealth.net,+19185848522,https://axishealth.net/,Sapulpa,OK
Family Urgent Care,ansernaqvi@gmail.com,+17402047008,https://www.family-urgentcare.com/,Bellefontaine,OH
EXPRESS MED URGENT CARE,ma@expressmedurgentcare.com,+12487705205,https://www.expressmedurgentcare.com/,Southfield,MI
EXPRESS MED URGENT CARE,ceo@expressmedurgentcare.com,+12487705205,https://www.expressmedurgentcare.com/,Southfield,MI
Affordable Care Clinics @ Sand Lake Medical Walk in Clinic,info@affordablecareclinics.com,+13218029080,https://affordablecareclinics.com/,Orlando,FL
American Family Care East Huntsville,jturner@urgentmedcareonline.com,+12566171252,https://urgentmedcareonline.com/,Huntsville,AL
American Family Care North Madison,jturner@urgentmedcareonline.com,+12566171252,https://urgentmedcareonline.com/,Madison,AL
Family Urgent Care,ansernaqvi@gmail.com,+17402047008,https://www.family-urgentcare.com/,Mt Vernon,OH
VIDA WELLNESS AND AESTHETICS,doctor@apluscareclinic.com,+17708853841,https://apluscareclinic.com/,Austell,GA
Evolve Direct Primary Care & Urgent Care,info@emc4me.com,+18443224222,https://evolvemedicalclinics.com/,Annapolis,MD
Farragut Medical And Travel Care,info@farragutmedical.com,+12027752464,https://www.farragutmedical.com/,Washington,DC
South Side Convenient Care,info@convenientcaremed.com,+14026146731,https://convenientcaremed.com/,Bellevue,NE
Get Well Now Primary & Same-Day Care,getwellnowaz@gmail.com,+14805476957,https://getwellnowaz.com/,Mesa,AZ
Angeles Medical Clinic,drmobasser@gmail.com,+12133221000,https://angelesurgentcare.com/,Los Angeles,CA
Northway Family Healthcare Clinic,info@northwayclinic.com,+19072254325,https://northwayclinic.com/,Ketchikan,AK
Garden City Urgent Care Walk-In Clinic,gardencityurgentcares@gmail.com,+17347425995,https://gardencityurgentcares.com/,Garden City,MI
Ann Arbor Urgent Care,info@a2urgentcare.com,+17347693333,https://www.a2urgentcare.com/,Ann Arbor,MI
Schertz Cibolo Emergency Clinic,admin@schertzhealth.com,+12102021123,http://schertzhealth.com/,Schertz,TX
Emergency Care Of East Houston,info@excellenceer.com,+12819779800,http://excellenceer.com/,Houston,TX
Doylestown Emergency Associates,doylestownemergencyassociates@gmail.com,+12153452673,https://www.doylestownemergencyassociates.com/,Doylestown,PA
FirstMed Health and Wellness,info@fmhwc.org,+17027310909,https://fmhwc.org/,Las Vegas,NV
Innovative Primary Care,Hello@innovativeuc.com,+12104556253,https://www.innovativeuc.com/,San Antonio,TX
InstaHealth Urgent Care,info@instahealthuc.com,+17139990008,https://www.instahealthuc.com/,Katy,TX
Sterling Urgent Care,info@sterlingurgentcare.com,+12085551234,https://www.sterlingurgentcare.com/,Burley,ID
Akai Comprehensive Pediatrics,akai.mesapediatrics@gmail.com,+19155328187,https://akaipediatrics.com/,El Paso,TX
MedPro Urgent Care,admin@medpropc.com,+17346065274,https://www.medpropc.com/,Madison Heights,MI
Hendrick Urgent Care - Ambler Ave.,info@hendrickurgentcare.com,+18007654321,https://hendrickurgentcare.com/,Abilene,TX
The Rock Medical Center,info@therockmedical.com,+15015022765,https://therockmedical.com/index.html,Little Rock,AR
Patriot Urgent Care - California MD,occmed@patriotuc.com,+14108705094,https://patriotuc.com/,California,MD
Quality Urgent Care,info@qualityurgentcareofamerica.com,+12105400000,https://www.qualityurgentcareofamerica.com/,San Antonio,TX
Innovative Urgent Care & Family Health Clinic,Hello@innovativeuc.com,+12104556253,https://www.innovativeuc.com/,Bandera,TX
MY DR NOW,info@mydrnow.com,+14806778282,https://www.mydrnow.com/,Goodyear,AZ
Total Urgent Care - Cut Off,info@totalurgentcare.com,+19852000000,https://mytotalurgentcare.com/,Cut Off,LA
"Teri Watson, FNP",Brentwood@afdclinics.com,+16153020885,https://afdclinics.com/,Brentwood,TN
"Teri Watson, FNP",SpringHill@afdclinics.com,+16153020885,https://afdclinics.com/,Brentwood,TN
"Teri Watson, FNP",Smyrna@afdclinics.com,+16153020885,https://afdclinics.com/,Brentwood,TN
Canyon Medical Center,officestaff@canyonmedicalcenterlv.com,+17023954500,https://canyonmedicalcenterlv.com/,Las Vegas,NV
Canyon Medical Center,staff@canyonmedicalcenterlv.com,+17023954500,https://canyonmedicalcenterlv.com/,Las Vegas,NV
Doctors on Duty,info@doctorsonduty.com,+18005551234,https://doctorsonduty.com/,Salinas,CA
Salt Lake City Urgent Care And Walk In Clinic,contact@slcurgentcare.com,+18018640142,https://www.slcurgentcare.com/,Salt Lake City,UT
Nebraska Home Pediatrics & Parents,hello@nebraskahomepediatrics.com,+14029176944,https://nebraskahomepediatrics.com/,Omaha,NE
Neighborhood Health,info@neighborhoodhealthla.com,+12259639355,https://www.neighborhoodhealthla.org/,Prairieville,LA
Quick Tripp Same Day Clinic,office@trippfamilymedicine.com,+12089334400,https://trippfamilymedicine.com/,Twin Falls,ID
Buffalo BreatheNow Medical,buffalobreathenow@gmail.com,+17163200180,https://pulmonaryurgentcare.com/,East Amherst,NY
TrustCare,info@trustcare.com,+16014879191,https://trustcarehealth.com/,Flowood,MS
TrustCare Kids Gluckstadt,info@trustcare.com,+16017073771,https://trustcarehealth.com/,Madison,MS
1st Choice Urgent Care of Livonia,info@firstchoiceucc.com,+17343338001,https://firstchoiceucc.com/,Livonia,MI
KarisMed Family Medicine,info@karismed.com,+18329307799,https://www.karismed.com/,Katy,TX
MY DR NOW,info@mydrnow.com,+14806778282,https://www.mydrnow.com/,Glendale,AZ
Ahimsa MD Integrative Internal Medicine & Pediatrics,info@ahimsamd.com,+17862289070,https://www.ahimsamd.com/,Miami,FL
Medberry Urgent Care,contact@medberryclinic.com,+12109978630,https://medberryclinic.com/,Oklahoma City,OK
"FamilyDoc Urgent Care - Adebayo Bademosi, MD",info@familydocurgentcare.com,+17733601438,https://familydocurgentcare.com/,Chicago,IL
"Axis HealthCare Primary Care, Pain Management & Suboxone",info@axis-healthcare-tulsa-hills.websitepro.hosting,+19185848522,https://axishealth.net/,Tulsa,OK
"Axis HealthCare Primary Care, Pain Management & Suboxone",info@axis-healthcare-tulsa-hills.websitepro.hosting,+19185848522,https://axishealth.net/,Tulsa,OK
"Axis HealthCare Primary Care, Pain Management & Suboxone",Sapulpa@axishealth.net,+19185848522,https://axishealth.net/,Tulsa,OK
"Axis HealthCare Primary Care, Pain Management & Suboxone",billing@axis-healthcare-tulsa-hills.websitepro.hosting,+19185848522,https://axishealth.net/,Tulsa,OK
"Axis HealthCare Primary Care, Pain Management & Suboxone",Pryor@axishealth.net,+19185848522,https://axishealth.net/,Tulsa,OK
"Axis HealthCare Primary Care, Pain Management & Suboxone",Bixby@axishealth.net,+19185848522,https://axishealth.net/,Tulsa,OK
"Axis HealthCare Primary Care, Pain Management & Suboxone",Inola@axishealth.net,+19185848522,https://axishealth.net/,Tulsa,OK
"Axis HealthCare Primary Care, Pain Management & Suboxone",Bartlesville@axishealth.net,+19185848522,https://axishealth.net/,Tulsa,OK
Physicians Immediate Care,info@physiciansimmediatecare.com,+13123007400,https://physiciansimmediatecare.com/,Chicago,IL
Freedom Urgent Care - Clear Creek Road,info@freedomurgentcare.com,+18005551234,https://freedomurgentcare.com/,Killeen,TX
MD 1st Urgent Care,md1stuc@gmail.com,+17345358977,https://md1sturgentcare.com/,Flat Rock,MI
Total Medical Care,walkincare@gmail.com,+16234350190,http://walkin-care.com/,Glendale,AZ
Medi Clinics Primary Care LLC,mediclinics@hushmail.com,+18138775111,https://mediclinicstampa.com/,Tampa,FL
Affordable Care Clinics @ Malabar Medical Walk in Clinic,info@affordablecareclinics.com,+13218029080,https://affordablecareclinics.com/,Palm Bay,FL
Heal 360 Primary Care & Urgent Care Clinic Wylie,info@heal360.com,+19725551234,https://www.heal360.com/,Plano,TX
Ross Bridge Medical Center- Internal Medicine,info@rossbridgemedicine.com,+12054947677,https://www.rossbridgemedicalcenter.com/,Hoover,AL
Health Xpress Medical Center,healthxpressmedicalcenter@gmail.com,+17029961313,https://healthxpresslv.com/,Henderson,NV
GoCare at Abby Medical,contactnewark@gocaredelaware.com,+13024140009,https://gocaredelaware.com/,Newark,DE
GoCare at Abby Medical,contactsilverside@gocaredelaware.com,+13024140009,https://gocaredelaware.com/,Newark,DE
GoCare at Abby Medical,contactglasgow@gocaredelaware.com,+13024140009,https://gocaredelaware.com/,Newark,DE
HealthNeed Medical Urgent Care,info@healthneeduc.com,+17188881010,https://healthneeduc.com/,Flushing,NY
KidsStreet Urgent Care,info@kidsstreeturgentcare.com,+12513284621,http://kidsstreeturgentcare.com/,Mobile,AL
TrustCare,info@trustcare.com,+16014750444,https://trustcarehealth.com/,Hattiesburg,MS
Care Access Clinic,info@careaccessnpny.com,+16314829880,https://careaccessnpny.com/,Babylon,NY
Medicos Family Clinic,viji@medicosfamilyclinic.com,+14697820061,https://medicosfamilyclinic.com/,Garland,TX
TrustCare,info@trustcare.com,+16016820455,https://trustcarehealth.com/,Laurel,MS
Volunteer Family Medicine & Urgent Care,volunteerfamilymedicine@gmail.com,+17313007155,https://www.volunteerfamilymedicine.com/,Jackson,TN
Alamo City Urgent Care | Shaenfield,info@alamocityuc.com,+12109412282,https://alamocityuc.com/,San Antonio,TX
HealthNeed Medical Urgent Care Lower East Side NYC,info@healthneeduc.com,+17188881010,https://healthneeduc.com/,New York,NY
Millennium Medical Care Herndon,mmc.patientassistance@gmail.com,+17033724429,https://herndon.millenniummedicalcare.com/,Herndon,VA
Millennium Medical Care Herndon,mmcare4u@gmail.com,+17033724429,https://herndon.millenniummedicalcare.com/,Herndon,VA
Holy Cross Urgent Care - Rio Vista,info@holycrossurgentcare.com,+18005551234,https://holycrossurgentcare.com/,Fort Lauderdale,FL
"Sanna Shaban, PA-C",Brentwood@afdclinics.com,+16153020885,https://afdclinics.com/,Smyrna,TN
"Sanna Shaban, PA-C",SpringHill@afdclinics.com,+16153020885,https://afdclinics.com/,Smyrna,TN
"Sanna Shaban, PA-C",Smyrna@afdclinics.com,+16153020885,https://afdclinics.com/,Smyrna,TN
Sterling Urgent Care,info@sterlingurgentcare.com,+12085551234,https://www.sterlingurgentcare.com/,Garden City,ID
UrgiClinic Urgent Care,care@urgiclinic.com,+17087885088,https://www.urgiclinic.com/,Bridgeview,IL
KidsStreet Urgent Care,info@kidsstreeturgentcare.com,+12523470512,http://kidsstreeturgentcare.com/,Greenville,NC
Acton Urgent Care,actonuc@gmail.com,+19782346497,https://www.actonuc.com/,Acton,MA
Preferred Medical Center,info@preferredmedicalcenter.com,+14325205678,https://preferredmedicalcenter.com/,Midland,TX
Indiana Immediate Care,info@indianaimmediatecare.com,+13178837712,https://www.indianaimmediatecare.com/,Indianapolis,IN
Stat One Urgent Care Center,info@statoneurgentcarecenter.com,+17276886704,http://statoneurgentcarecenter.com/,Seminole,FL
MY DR NOW,info@mydrnow.com,+14806778282,https://www.mydrnow.com/,Phoenix,AZ
Premier Family Health Care,contactus@premierfhc.com,+14792255429,https://www.premierfhc.com/,Siloam Springs,AR
Fast Aid Urgent Care - La Grange TX,info@fastaidurgentcare.com,+18005551234,https://www.fastaiduc.com/,La Grange,TX
We Heal Primary And Urgent Care,info@wehealprimarycare.com,+12147857352,https://wehealurgentcare.com/,Plano,TX
AppleCare Urgent Care Bull Street Savannah,OccMedcoordinator@crhhealthcare.com,+19127481515,https://applecareurgentcare.com/,Savannah,GA
QuickDrip IV Hydration,cs@quickdripivhydration.com,+14699727220,https://quickdripivhydration.com/,Allen,TX
TrustCare,info@trustcare.com,+16014990022,https://trustcarehealth.com/,Ridgeland,MS
Rapid Care Enterprise - Urgent Care Services,info@rapidcareuc.com,+19514904910,https://www.rapidcareuc.com/,Perris,CA
Total Point Urgent Care and Family Practice - Whitehouse,info@totalpointurgentcare.com,+14302592051,https://www.totalpointcare.com/,Whitehouse,TX
"Rennee N. Dhillon, MD",Brentwood@afdclinics.com,+16153020885,https://afdclinics.com/,Spring Hill,TN
"Rennee N. Dhillon, MD",SpringHill@afdclinics.com,+16153020885,https://afdclinics.com/,Spring Hill,TN
"Rennee N. Dhillon, MD",Smyrna@afdclinics.com,+16153020885,https://afdclinics.com/,Spring Hill,TN
UrgentWay Hicksville,info@urgentway.com,+16462130190,https://urgentway.com/,Hicksville,NY
CommunityMed Family Urgent Care Haslet Avondale,contact@cmucs.com,+18444641611,https://communitymedcare.com/,Haslet,TX
Sterling Urgent Care,info@sterlingurgentcare.com,+12085551234,https://www.sterlingurgentcare.com/,Richmond,UT
Doctors on Duty,info@doctorsonduty.com,+18005551234,https://doctorsonduty.com/,Salinas,CA
Axis HealthCare - Prague,info@axis-healthcare-tulsa-hills.websitepro.hosting,+19185848522,https://axishealth.net/,Prague,OK
Axis HealthCare - Prague,info@axis-healthcare-tulsa-hills.websitepro.hosting,+19185848522,https://axishealth.net/,Prague,OK
Axis HealthCare - Prague,Sapulpa@axishealth.net,+19185848522,https://axishealth.net/,Prague,OK
Axis HealthCare - Prague,billing@axis-healthcare-tulsa-hills.websitepro.hosting,+19185848522,https://axishealth.net/,Prague,OK
Axis HealthCare - Prague,Pryor@axishealth.net,+19185848522,https://axishealth.net/,Prague,OK
Axis HealthCare - Prague,Bixby@axishealth.net,+19185848522,https://axishealth.net/,Prague,OK
Axis HealthCare - Prague,Inola@axishealth.net,+19185848522,https://axishealth.net/,Prague,OK
Axis HealthCare - Prague,Bartlesville@axishealth.net,+19185848522,https://axishealth.net/,Prague,OK
Ascent Family Care & Walk In Clinic,info@ascenturgentcare.com,+15179840062,http://ascenturgentcare.com/,North Branch,MI
VitaMed Rapid Care & Walk In Clinic,admin@vitamedrapidcare.com,+17342513003,https://www.vitamedrapidcare.com/,Ypsilanti,MI
Your Doc's In,customercare@yourdocsin.com,+14439389389,https://yourdocsin.com/,Salisbury,MD
Yale New Haven Health Urgent Care Derby,info@ynhhs.org,+17812345678,http://ynhhs.org/,Derby,CT
"Allison Simon, FNP-C",Brentwood@afdclinics.com,+16153020885,https://afdclinics.com/,Spring Hill,TN
"Allison Simon, FNP-C",SpringHill@afdclinics.com,+16153020885,https://afdclinics.com/,Spring Hill,TN
"Allison Simon, FNP-C",Smyrna@afdclinics.com,+16153020885,https://afdclinics.com/,Spring Hill,TN
MY DR NOW,info@mydrnow.com,+14806778282,https://www.mydrnow.com/,Gilbert,AZ
Palm Coast Family Practice and Walk-in,palmcoasturgentcare@gmail.com,+18884902046,https://palmcoastfamilypractice.com/,Palm Coast,FL
Spatium Urgent Care,Hello@spatiumurgentcare.com,+16789322121,https://spatiumurgentcare.com/,Marietta,GA
Patients First - Crawfordville,OccMed@patientsfirst.com,+18508777164,https://patientsfirst.com/,Crawfordville,FL
AppleCare Urgent Care Pooler,OccMedcoordinator@crhhealthcare.com,+19127481515,https://applecareurgentcare.com/,Pooler,GA
Patriot Urgent Care - Prince Frederick,occmed@patriotuc.com,+14108705094,https://patriotuc.com/,Prince Frederick,MD
Lourdes Urgent Care - Youngsville,info@lourdesurgentcare.com,+18005551234,https://lourdesurgentcare.com/,Youngsville,LA
TrustCare,info@trustcare.com,+16018296600,https://trustcarehealth.com/,Brandon,MS
CommunityMed Urgent Care Lantana,contact@cmucs.com,+18444641611,https://communitymedcare.com/,Argyle,TX
Lourdes Urgent Care - Broussard,info@lourdesurgentcare.com,+18005551234,https://lourdesurgentcare.com/,Broussard,LA
Best Health Clinic,contact@besthealthurgentcare.com,+13463748402,https://besthealthurgentcare.com/,Missouri City,TX
"Corley Brothers, PA-C",Brentwood@afdclinics.com,+16153020885,https://afdclinics.com/,Smyrna,TN
"Corley Brothers, PA-C",SpringHill@afdclinics.com,+16153020885,https://afdclinics.com/,Smyrna,TN
"Corley Brothers, PA-C",Smyrna@afdclinics.com,+16153020885,https://afdclinics.com/,Smyrna,TN
Fast Aid Urgent Care - Alamo Ranch Antonio TX,info@fastaidurgentcare.com,+18005551234,https://www.fastaiduc.com/,San Antonio,TX
America's Family Doctors & Walk-In Clinics,Brentwood@afdclinics.com,+16153020885,https://afdclinics.com/,Spring Hill,TN
America's Family Doctors & Walk-In Clinics,SpringHill@afdclinics.com,+16153020885,https://afdclinics.com/,Spring Hill,TN
America's Family Doctors & Walk-In Clinics,Smyrna@afdclinics.com,+16153020885,https://afdclinics.com/,Spring Hill,TN
Lompoc Health - North H Center,info@lompocvmc.com,+18057373300,http://lompochealth.com/,Lompoc,CA
Innovative Urgent Care & Family Health Clinic,Hello@innovativeuc.com,+12104556253,https://www.innovativeuc.com/,Boerne,TX
EZ Beach Care,ezbeachcare@gmail.com,+18436513031,https://sites.google.com/view/ezbeachcare/home,Murrells Inlet,SC
HealthNeed Medical Urgent Care,info@healthneeduc.com,+17188881010,https://healthneeduc.com/,Flushing,NY
Aayu Clinics,care@aayuclinics.com,+17733625633,https://aayuclinics.com/,Chicago,IL
Lake Urgent Care - St. Amant,info@lakeurgentcare.com,+12258888888,https://lakeurgentcare.com/,St Amant,LA
CommunityMed Family Urgent Care Wichita Falls,contact@cmucs.com,+18444641611,https://communitymedcare.com/,Wichita Falls,TX
Caduceus Medical Group,support@caduceusmedicalgroup.com,+19492631234,https://www.caduceusmedicalgroup.com/,Irvine,CA
Southern Family Walk In - Immediate and Primary Care,southernfamilywalk-in@gmail.com,+19127058050,https://www.southernfamilywalk-in.com/,Baxley,GA
INDIE MED,email@example.com,+14356351148,https://www.indiemed.clinic/,Hurricane,UT
Citra Urgent Care - Mockingbird/Love Field,info@citracare.com,+18445853544,https://citracare.com/,Dallas,TX
Medi Clinics Primary Care LLC,mediclinics@hushmail.com,+18138775111,https://mediclinicstampa.com/,Brandon,FL
Ala Moana Walk-In Medical Clinic,AlaMoanaMedical@gmail.com,+18084987913,https://www.alamoanaclinic.com/,Honolulu,HI
PACS Urgent Care Alexandria VA,info@pacsurgentcare.com,+15713390373,https://www.pacsurgentcare.com/,Alexandria,VA
Columbia Medical Clinic PC-Stark Street,info@columbiaclinic.com,+19712700000,https://www.columbiaclinic.com/,Portland,OR
Columbia Medical Clinic PC-Stark Street,contact@columbiaclinic.com,+19712700000,https://www.columbiaclinic.com/,Portland,OR
LoneStar Urgent Care,wecare@lonestaruc.com,+13619005782,https://lonestaruc.com/,Corpus Christi,TX
CareFirst 360,carefirst360@gmail.com,+16824008639,https://carefirst360.com/,Mansfield,TX
NAG Clinics,infotc@nagpeds.com,+14092090070,https://nagpeds.com/,Pasadena,TX
NAG Clinics,info@nagpeds.com,+14092090070,https://nagpeds.com/,Pasadena,TX
Los Alamitos Walk-In Medical Clinic,drarchna4u@gmail.com,+15629882777,https://drarchna4u.com/,Los Alamitos,CA
KidsStreet Urgent Care,info@kidsstreeturgentcare.com,+17062258773,http://kidsstreeturgentcare.com/,Columbus,GA
Long Beach Walk In Medical Clinic,drarchna4u@gmail.com,+15629882777,https://drarchna4u.com/,Long Beach,CA
MY DR NOW,info@mydrnow.com,+14806778282,https://www.mydrnow.com/,Gilbert,AZ
"Schroer Medical, LLC",schroermedical@gmail.com,+18702895190,http://schroermedical.com/,Lockesburg,AR
"Michael S. Overfelt, PAC",Brentwood@afdclinics.com,+16153020885,https://afdclinics.com/,Spring Hill,TN
"Michael S. Overfelt, PAC",SpringHill@afdclinics.com,+16153020885,https://afdclinics.com/,Spring Hill,TN
"Michael S. Overfelt, PAC",Smyrna@afdclinics.com,+16153020885,https://afdclinics.com/,Spring Hill,TN
Z-2-H Family Med & Urgent Care Clinic,info@zeal-to-heal.com,+14692830076,https://zeal-to-heal.com/,Farmers Branch,TX
Lourdes Urgent Care - Kaliste Saloom,info@lourdesurgentcare.com,+18005551234,https://lourdesurgentcare.com/,Lafayette,LA
CommunityMed Family Urgent Care Cross Roads,contact@cmucs.com,+18444641611,https://communitymedcare.com/,Cross Roads,TX
UrgentWay Manhattan,info@urgentway.com,+16462130190,https://urgentway.com/,New York,NY
Advance Urgent Care & Walk In Clinic,auc@advanceurgentcare.com,+18102250086,https://www.advanceurgentcare.com/,Brighton,MI
Lake Urgent Care - O'Neal,info@lakeurgentcare.com,+12258888888,https://lakeurgentcare.com/,Baton Rouge,LA
Patriot Urgent Care - Solomons,occmed@patriotuc.com,+14108705094,https://patriotuc.com/,Solomons,MD
Patriot Urgent Care,occmed@patriotuc.com,+14108705094,https://patriotuc.com/,Clinton,MD
Lourdes Urgent Care - Breaux Bridge,info@lourdesurgentcare.com,+18005551234,https://lourdesurgentcare.com/,Breaux Bridge,LA
"Immediate Care of Oklahoma - Tecumseh, OK",info@immediatecareoklahoma.com,+14052431234,https://www.immediatecareok.com/,Tecumseh,OK
LI Urgent Care,info@liurgentcare.com,+16317165410,https://li-urgent-care.com/,Manorville,NY
Buckhead Primary and Urgent Care Clinic,medhelpfax@gmail.com,+16785150688,https://buckheadprimarycare.com/,Atlanta,GA
Valley Care Clinic,info@valleycareclinic.com,+14804990103,https://valleycareclinic.com/,Tempe,AZ
Valley Care Clinic,allan@valleycareclinic.com,+14804990103,https://valleycareclinic.com/,Tempe,AZ
Valley Care Clinic,wilfredo@valleycareclinic.com,+14804990103,https://valleycareclinic.com/,Tempe,AZ
Patriot Urgent Care - Rockville,occmed@patriotuc.com,+14108705094,https://patriotuc.com/,Rockville,MD
Walk-In Medical Clinic,info@walkin-clinic.com,+16122941333,https://www.walkin-clinic.com/,Minneapolis,MN
Hollywood Walk-In Clinic,info@hollywoodclinic.net,+13238484522,https://www.hollywoodclinic.net/,Los Angeles,CA
MI Express Urgent Care Canton,admin@miexpresscare.com,+17343884999,https://www.miexpresscare.com/,Canton,MI
Vance Family Medicine,info@vancefamilymedicine.com,+12524300666,http://vancefamilymedicine.com/,Henderson,NC
VCare Urgent & Primary Care,contact@vcareurgentcare.com,+17323853275,https://www.vcareurgentcare.com/,Dayton,NJ
Immediate Care of Oklahoma - Edmond,info@immediatecareoklahoma.com,+14052431234,https://www.immediatecareok.com/,Edmond,OK
PREMIUM CARE CLINIC,pcc@pcareclinic.com,+19099032330,https://premiumcareclinic.com/,Corona,CA
Wilmington 1st Walk-In,mail@wilmington1st.com,+13024075222,https://wilmington1st.com/,Wilmington,DE
Care First Walk-In Clinic,team@carefirstclinic.com,+15125485373,https://www.carefirstclinic.com/,Liberty Hill,TX
Satellite Med,hi@isotope-g5.com,+19315287312,http://satellitemed.com/,Cookeville,TN
AED Urgent Care Newark,newarkteam@aedurgentcare.com,+15106565700,https://aedurgentcare.com/,Newark,CA
Indiana Immediate Care,info@indianaimmediatecare.com,+13178837712,https://www.indianaimmediatecare.com/,Indianapolis,IN
HEALTHremede,info@healthremede.com,+12258888888,https://healthremede.com/,Walker,LA
Urgent Care of Texas & Expecare Family Practice - Burleson,burleson@wiuctx.us,+18174727601,https://urgentcaretexas.com/,Burleson,TX
Urgent Care of Texas & Expecare Family Practice - Burleson,frisco@wiuctx.us,+18174727601,https://urgentcaretexas.com/,Burleson,TX
Urgent Care of Texas & Expecare Family Practice - Burleson,Plano@wiuctx.us,+18174727601,https://urgentcaretexas.com/,Burleson,TX
Urgent Care of Texas & Expecare Family Practice - Burleson,arlington@wiuctx.us,+18174727601,https://urgentcaretexas.com/,Burleson,TX
Lake Urgent Care - Gonzales,info@lakeurgentcare.com,+12258888888,https://lakeurgentcare.com/,Gonzales,LA
PocketDoc Video Visits,help@pocketdocapp.com,+18586170528,https://pocketdocapp.com/,San Diego,CA
Patients First - Thomasville Road,OccMed@patientsfirst.com,+18508777164,https://patientsfirst.com/,Tallahassee,FL
Landmark Urban Healthcare,info@landmarkurbanhealthcare.com,+19296890253,https://landmarkurbanhealthcare.com/,Brooklyn,NY
Doctors on Duty,info@doctorsonduty.com,+18005551234,https://doctorsonduty.com/,Seaside,CA
"Jeffie Cherry, FNP-C",Brentwood@afdclinics.com,+16153020885,https://afdclinics.com/,Spring Hill,TN
"Jeffie Cherry, FNP-C",SpringHill@afdclinics.com,+16153020885,https://afdclinics.com/,Spring Hill,TN
"Jeffie Cherry, FNP-C",Smyrna@afdclinics.com,+16153020885,https://afdclinics.com/,Spring Hill,TN
Integrity Urgent Care - Granbury,info@integrityurgentcare.com,+16822053690,https://integrityuc.com/,Granbury,TX
Pro Health Clinic - Poplar,info@prohealthmemphis.com,+19016734015,https://prohealthmemphis.com/,Memphis,TN
Lake Urgent Care - Denham Springs South,info@lakeurgentcare.com,+12258888888,https://lakeurgentcare.com/,Denham Springs,LA
University Health Walk-In Clinic,universityhealthtempe@gmail.com,+14804507707,https://www.universityhealthtempe.com/,Tempe,AZ
Lourdes Urgent Care- Ambassador Caffery,info@lourdesurgentcare.com,+18005551234,https://lourdesurgentcare.com/,Lafayette,LA
Hendrick Urgent Care - Brownwood,info@hendrickurgentcare.com,+18007654321,https://hendrickurgentcare.com/,Brownwood,TX
Doctors on Duty,info@doctorsonduty.com,+18005551234,https://doctorsonduty.com/,Watsonville,CA
Zenith Primary & Urgent Care - Marlborough Urgent Care,support@zenithfamilycare.com,+16175007933,https://zenithfamilycare.com/,Marlborough,MA
MY DR NOW,info@mydrnow.com,+14806778282,https://www.mydrnow.com/,Peoria,AZ
"Dr. Steve Yi, MD",info@valmedcare.com,+16617021445,https://www.valmedcare.com/,Valencia,CA
Lake Urgent Care - Hwy. 73,info@lakeurgentcare.com,+12258888888,https://lakeurgentcare.com/,Prairieville,LA
Z-2-H Family Med & Urgent Care Clinic,info@zeal-to-heal.com,+14692830076,https://zeal-to-heal.com/,Brownwood,TX
Total Urgent Care - Vidalia,info@totalurgentcare.com,+19852000000,https://mytotalurgentcare.com/,Vidalia,LA
"Brandi LaFleur, PAC",Brentwood@afdclinics.com,+16153020885,https://afdclinics.com/,Spring Hill,TN
"Brandi LaFleur, PAC",SpringHill@afdclinics.com,+16153020885,https://afdclinics.com/,Spring Hill,TN
"Brandi LaFleur, PAC",Smyrna@afdclinics.com,+16153020885,https://afdclinics.com/,Spring Hill,TN
Lake Urgent Care - Veterans Ave.,info@lakeurgentcare.com,+12258888888,https://lakeurgentcare.com/,Hammond,LA
PACS Urgent Care Ruther Glen VA,info@pacsurgentcare.com,+18044355892,https://www.pacsurgentcare.com/,Ruther Glen,VA
Doctors on Duty,info@doctorsonduty.com,+18005551234,https://doctorsonduty.com/,Aptos,CA
Solaria Urgent & Primary Care,contact@solariahealthcare.com,+13525040092,https://www.solariahealthcare.com/,Ocala,FL
KidsStreet Urgent Care,info@kidsstreeturgentcare.com,+19102026988,http://kidsstreeturgentcare.com/,Wilmington,NC
Angeline Sandoval FNP,Brentwood@afdclinics.com,+16153020885,https://afdclinics.com/,Brentwood,TN
Angeline Sandoval FNP,SpringHill@afdclinics.com,+16153020885,https://afdclinics.com/,Brentwood,TN
Angeline Sandoval FNP,Smyrna@afdclinics.com,+16153020885,https://afdclinics.com/,Brentwood,TN
"Sadia Dar, MD",Brentwood@afdclinics.com,+16153020885,https://afdclinics.com/,Smyrna,TN
"Sadia Dar, MD",SpringHill@afdclinics.com,+16153020885,https://afdclinics.com/,Smyrna,TN
"Sadia Dar, MD",Smyrna@afdclinics.com,+16153020885,https://afdclinics.com/,Smyrna,TN
NasonCare: Urgent Care & Primary Care & Employee Care (North Charleston),wecare@nasoncare.com,+18437739903,https://www.nasoncare.com/,North Charleston,SC
Anaheim Medical Group,amgctc@gmail.com,+17148279797,https://anaheimmedgroup.com/,Anaheim,CA
OnPoint Urgent Care,info@onpointuc.com,+18328103000,https://www.onpointuc.com/,Houston,TX
Freedom Urgent Care - Killeen,info@freedomurgentcare.com,+18005551234,https://freedomurgentcare.com/,Killeen,TX
Family Urgent Care,ansernaqvi@gmail.com,+17402047008,https://www.family-urgentcare.com/,Coshocton,OH
LCMC Health Urgent Care - Marrero,info@lcmchealthurgentcare.com,+18005551234,https://lcmchealthurgentcare.com/,Marrero,LA